{
  "type" : "FeatureCollection",
  "features" : [{"type":"Feature","id":1,"geometry":{"type":"Point","coordinates":[112.94159120000006,28.18880020000006]},"properties":{"OBJECTID":1,"名称":"湖南师范大学学生活动中心","类型":"体育休闲服务;休闲场所;休闲场所","地址":"麓山路36号湖南师范大学","经度":112.94704400000001,"纬度":28.185298,"联系电话":"[]","人均消费":"[]","综合评分":"[]","WGS84_经度_高精度":112.9415912,"WGS84_纬度_高精度":28.188800199999999}},{"type":"Feature","id":2,"geometry":{"type":"Point","coordinates":[112.9413796,28.188965500000052]},"properties":{"OBJECTID":2,"名称":"湖南师范大学乒乓球训练馆","类型":"体育休闲服务;运动场馆;乒乓球馆","地址":"麓山路36号湖南师范大学","经度":112.946832,"纬度":28.185462999999999,"联系电话":"[]","人均消费":"[]","综合评分":"3.8","WGS84_经度_高精度":112.9413796,"WGS84_纬度_高精度":28.188965499999998}},{"type":"Feature","id":3,"geometry":{"type":"Point","coordinates":[112.94212390000007,28.188952200000074]},"properties":{"OBJECTID":3,"名称":"湖南师范大学五舍篮球场","类型":"体育休闲服务;运动场馆;篮球场馆","地址":"麓山路36号湖南师范大学","经度":112.94757799999999,"纬度":28.185451,"联系电话":"[]","人均消费":"[]","综合评分":"4.2","WGS84_经度_高精度":112.9421239,"WGS84_纬度_高精度":28.188952199999999}},{"type":"Feature","id":4,"geometry":{"type":"Point","coordinates":[112.94189840000001,28.189125600000068]},"properties":{"OBJECTID":4,"名称":"湖南师范大学(二里半校区)-二号篮球场","类型":"体育休闲服务;运动场馆;篮球场馆","地址":"木兰路与向阳路交叉口东20米","经度":112.947352,"纬度":28.185624000000001,"联系电话":"[]","人均消费":"[]","综合评分":"3.7","WGS84_经度_高精度":112.9418984,"WGS84_纬度_高精度":28.189125600000001}},{"type":"Feature","id":5,"geometry":{"type":"Point","coordinates":[112.94349280000006,28.187973700000043]},"properties":{"OBJECTID":5,"名称":"湖南师范大学江湾体育馆","类型":"体育休闲服务;运动场馆;综合体育馆","地址":"麓山路259号(湖南师大地铁站2号口步行130米)","经度":112.94895,"纬度":28.184474999999999,"联系电话":"0731-88872222","人均消费":"[]","综合评分":"4.6","WGS84_经度_高精度":112.9434928,"WGS84_纬度_高精度":28.187973700000001}},{"type":"Feature","id":6,"geometry":{"type":"Point","coordinates":[112.94088210000007,28.184199200000023]},"properties":{"OBJECTID":6,"名称":"湖南大学体育馆","类型":"体育休闲服务;运动场馆;综合体育馆","地址":"麓山南路(东方红广场附近)","经度":112.946333,"纬度":28.180696000000001,"联系电话":"0731-88821270","人均消费":"[]","综合评分":"4.6","WGS84_经度_高精度":112.9408821,"WGS84_纬度_高精度":28.184199199999998}},{"type":"Feature","id":7,"geometry":{"type":"Point","coordinates":[112.94103410000002,28.183972400000073]},"properties":{"OBJECTID":7,"名称":"湖南大学羽毛球馆","类型":"体育休闲服务;运动场馆;羽毛球场","地址":"登高路1号湖南大学(湖南大学地铁站4号口旁)","经度":112.946485258403,"纬度":28.180469469749301,"联系电话":"[]","人均消费":"[]","综合评分":"4.2","WGS84_经度_高精度":112.9410341,"WGS84_纬度_高精度":28.183972399999998}},{"type":"Feature","id":8,"geometry":{"type":"Point","coordinates":[112.93996420000008,28.183841700000073]},"properties":{"OBJECTID":8,"名称":"湖南大学体育场","类型":"体育休闲服务;运动场馆;运动场所","地址":"麓山南路2号湖南大学","经度":112.945413,"纬度":28.180337000000002,"联系电话":"[]","人均消费":"[]","综合评分":"4.5","WGS84_经度_高精度":112.93996420000001,"WGS84_纬度_高精度":28.183841699999999}},{"type":"Feature","id":9,"geometry":{"type":"Point","coordinates":[112.94571250000001,28.187469600000043]},"properties":{"OBJECTID":9,"名称":"徐家大院","类型":"体育休闲服务;休闲场所;休闲场所","地址":"桃子湖路与学堂坡路交叉口西200米","经度":112.95117500000001,"纬度":28.183975,"联系电话":"[]","人均消费":"[]","综合评分":"2.9","WGS84_经度_高精度":112.9457125,"WGS84_纬度_高精度":28.1874696}},{"type":"Feature","id":10,"geometry":{"type":"Point","coordinates":[112.94629900000007,28.187741500000072]},"properties":{"OBJECTID":10,"名称":"拾光(桃子湖店)","类型":"体育休闲服务;娱乐场所;酒吧|购物服务;服装鞋帽皮具店;服装鞋帽皮具店","地址":"橘子洲街道学堂坡路附2号","经度":112.951763,"纬度":28.184248,"联系电话":"18169412131","人均消费":"[]","综合评分":"2.9","WGS84_经度_高精度":112.946299,"WGS84_纬度_高精度":28.187741500000001}},{"type":"Feature","id":11,"geometry":{"type":"Point","coordinates":[112.94644170000004,28.187458200000037]},"properties":{"OBJECTID":11,"名称":"意志力24H健身","类型":"体育休闲服务;运动场馆;健身中心","地址":"湖南师范大学附属中学南门东70米","经度":112.95190599999999,"纬度":28.183965000000001,"联系电话":"13242301110","人均消费":"347.00","综合评分":"4.3","WGS84_经度_高精度":112.94644169999999,"WGS84_纬度_高精度":28.187458199999998}},{"type":"Feature","id":12,"geometry":{"type":"Point","coordinates":[112.9468098000001,28.18736750000005]},"properties":{"OBJECTID":12,"名称":"湖南师范大学师大田径场","类型":"体育休闲服务;运动场馆;运动场所","地址":"麓山路36号湖南师范大学","经度":112.952275,"纬度":28.183875,"联系电话":"[]","人均消费":"[]","综合评分":"4.6","WGS84_经度_高精度":112.9468098,"WGS84_纬度_高精度":28.187367500000001}},{"type":"Feature","id":13,"geometry":{"type":"Point","coordinates":[112.94800650000002,28.190365200000031]},"properties":{"OBJECTID":13,"名称":"英姿体育羽毛球培训(学堂坡校区)","类型":"体育休闲服务;运动场馆;羽毛球场","地址":"师大附中停车场","经度":112.953475,"纬度":28.186875000000001,"联系电话":"15874296028","人均消费":"99.00","综合评分":"4.3","WGS84_经度_高精度":112.94800650000001,"WGS84_纬度_高精度":28.190365199999999}},{"type":"Feature","id":14,"geometry":{"type":"Point","coordinates":[112.94824090000009,28.190568800000051]},"properties":{"OBJECTID":14,"名称":"湖南师大附中体育运动中心","类型":"体育休闲服务;运动场馆;运动场所","地址":"廉心公园西北门旁","经度":112.95371,"纬度":28.187079000000001,"联系电话":"[]","人均消费":"[]","综合评分":"4.1","WGS84_经度_高精度":112.9482409,"WGS84_纬度_高精度":28.190568800000001}},{"type":"Feature","id":15,"geometry":{"type":"Point","coordinates":[112.94828180000002,28.190594700000077]},"properties":{"OBJECTID":15,"名称":"远翔冠军高尔夫运动中心","类型":"体育休闲服务;运动场馆;运动场所|购物服务;体育用品店;体育用品店","地址":"爱民路115号","经度":112.953751,"纬度":28.187104999999999,"联系电话":"13974912795","人均消费":"[]","综合评分":"3.3","WGS84_经度_高精度":112.9482818,"WGS84_纬度_高精度":28.190594699999998}},{"type":"Feature","id":16,"geometry":{"type":"Point","coordinates":[112.9483097000001,28.190786600000024]},"properties":{"OBJECTID":16,"名称":"集美游泳健身(师大店)","类型":"体育休闲服务;运动场馆;健身中心","地址":"爱民路115号师大附中体育馆1楼-集美游泳健身馆","经度":112.953779,"纬度":28.187297000000001,"联系电话":"0731-88835959","人均消费":"452.00","综合评分":"4.7","WGS84_经度_高精度":112.9483097,"WGS84_纬度_高精度":28.190786599999999}},{"type":"Feature","id":17,"geometry":{"type":"Point","coordinates":[112.94502560000001,28.194680100000028]},"properties":{"OBJECTID":17,"名称":"翻窗SMOKE FREE PUB 精酿酒馆","类型":"体育休闲服务;娱乐场所;酒吧","地址":"新民小区3栋5门101号","经度":112.950487,"纬度":28.191184,"联系电话":"18874233993","人均消费":"54.00","综合评分":"4.6","WGS84_经度_高精度":112.94502559999999,"WGS84_纬度_高精度":28.194680099999999}},{"type":"Feature","id":18,"geometry":{"type":"Point","coordinates":[112.94543460000011,28.194579400000066]},"properties":{"OBJECTID":18,"名称":"顺鑫棋牌室","类型":"体育休闲服务;娱乐场所;棋牌室","地址":"新民小区","经度":112.950897,"纬度":28.191084,"联系电话":"[]","人均消费":"[]","综合评分":"1.8","WGS84_经度_高精度":112.9454346,"WGS84_纬度_高精度":28.194579399999999}},{"type":"Feature","id":19,"geometry":{"type":"Point","coordinates":[112.94639820000009,28.194696500000077]},"properties":{"OBJECTID":19,"名称":"文明棋牌室","类型":"体育休闲服务;娱乐场所;棋牌室","地址":"新民小区北门东80米","经度":112.951863,"纬度":28.191203000000002,"联系电话":"[]","人均消费":"[]","综合评分":"3.4","WGS84_经度_高精度":112.9463982,"WGS84_纬度_高精度":28.194696499999999}},{"type":"Feature","id":20,"geometry":{"type":"Point","coordinates":[112.94642120000003,28.194688500000041]},"properties":{"OBJECTID":20,"名称":"小李棋牌室","类型":"体育休闲服务;娱乐场所;棋牌室","地址":"新民小区北门东80米","经度":112.951886,"纬度":28.191195,"联系电话":"[]","人均消费":"24.00","综合评分":"3.4","WGS84_经度_高精度":112.9464212,"WGS84_纬度_高精度":28.194688500000002}},{"type":"Feature","id":21,"geometry":{"type":"Point","coordinates":[112.94296840000004,28.196225000000027]},"properties":{"OBJECTID":21,"名称":"麓山老年公寓3栋","类型":"体育休闲服务;度假疗养场所;疗养院","地址":"麓山路86号麓山老年公寓","经度":112.948425,"纬度":28.192724999999999,"联系电话":"[]","人均消费":"[]","综合评分":"[]","WGS84_经度_高精度":112.9429684,"WGS84_纬度_高精度":28.196224999999998}},{"type":"Feature","id":22,"geometry":{"type":"Point","coordinates":[112.94297140000003,28.196231000000068]},"properties":{"OBJECTID":22,"名称":"麓山老年公寓","类型":"体育休闲服务;度假疗养场所;疗养院","地址":"麓山路86号","经度":112.94842800000001,"纬度":28.192730999999998,"联系电话":"13974844375","人均消费":"[]","综合评分":"[]","WGS84_经度_高精度":112.9429714,"WGS84_纬度_高精度":28.196231000000001}},{"type":"Feature","id":23,"geometry":{"type":"Point","coordinates":[112.94975280000006,28.192641800000047]},"properties":{"OBJECTID":23,"名称":"健客健身","类型":"体育休闲服务;运动场馆;健身中心","地址":"橘子洲街道槐树坪201号","经度":112.955226,"纬度":28.189155,"联系电话":"0731-85070090","人均消费":"[]","综合评分":"2.6","WGS84_经度_高精度":112.9497528,"WGS84_纬度_高精度":28.192641800000001}},{"type":"Feature","id":24,"geometry":{"type":"Point","coordinates":[112.94441490000008,28.196772300000077]},"properties":{"OBJECTID":24,"名称":"岳麓山老年公寓1栋","类型":"体育休闲服务;度假疗养场所;疗养院","地址":"麓山路86号麓山老年公寓","经度":112.94987500000001,"纬度":28.193275,"联系电话":"[]","人均消费":"[]","综合评分":"[]","WGS84_经度_高精度":112.9444149,"WGS84_纬度_高精度":28.196772299999999}},{"type":"Feature","id":25,"geometry":{"type":"Point","coordinates":[112.93998170000009,28.17726440000007]},"properties":{"OBJECTID":25,"名称":"轰隆汪桌游店","类型":"体育休闲服务;娱乐场所;娱乐场所","地址":"麓山南路204号2层","经度":112.94543,"纬度":28.173760000000001,"联系电话":"18711126471","人均消费":"21.00","综合评分":"4.1","WGS84_经度_高精度":112.9399817,"WGS84_纬度_高精度":28.177264399999999}},{"type":"Feature","id":26,"geometry":{"type":"Point","coordinates":[112.94585640000003,28.196639600000026]},"properties":{"OBJECTID":26,"名称":"仙缘网咖(新民路店)","类型":"体育休闲服务;娱乐场所;网吧","地址":"新民路114号(溁湾镇地铁站7号口步行470米)","经度":112.95132,"纬度":28.193145000000001,"联系电话":"13974982686;13975182886","人均消费":"26.00","综合评分":"4.4","WGS84_经度_高精度":112.9458564,"WGS84_纬度_高精度":28.196639600000001}},{"type":"Feature","id":27,"geometry":{"type":"Point","coordinates":[112.93979510000008,28.176781700000049]},"properties":{"OBJECTID":27,"名称":"肆味游戏Bar餐酒吧","类型":"体育休闲服务;娱乐场所;酒吧","地址":"麓山南路与阜埠河路交叉口北380米","经度":112.945243,"纬度":28.173276999999999,"联系电话":"15116484790;16670491767","人均消费":"49.00","综合评分":"3.9","WGS84_经度_高精度":112.9397951,"WGS84_纬度_高精度":28.176781699999999}},{"type":"Feature","id":28,"geometry":{"type":"Point","coordinates":[112.93978220000008,28.176775700000064]},"properties":{"OBJECTID":28,"名称":"Star Pub(湖南大学店)","类型":"体育休闲服务;娱乐场所;酒吧","地址":"麓山南路228号(国家超级计算长沙中心旁)","经度":112.94523,"纬度":28.173271,"联系电话":"18108443155","人均消费":"41.00","综合评分":"4.5","WGS84_经度_高精度":112.9397822,"WGS84_纬度_高精度":28.1767757}},{"type":"Feature","id":29,"geometry":{"type":"Point","coordinates":[112.94486380000001,28.197571500000038]},"properties":{"OBJECTID":29,"名称":"ChangshaCityFourthHospital","类型":"体育休闲服务;体育休闲服务场所;体育休闲服务场所","地址":"麓山路与岳民巷交叉口西80米","经度":112.95032500000001,"纬度":28.194075000000002,"联系电话":"[]","人均消费":"[]","综合评分":"2.3","WGS84_经度_高精度":112.94486379999999,"WGS84_纬度_高精度":28.197571499999999}},{"type":"Feature","id":30,"geometry":{"type":"Point","coordinates":[112.94960700000001,28.194786100000044]},"properties":{"OBJECTID":30,"名称":"华侨","类型":"体育休闲服务;体育休闲服务场所;体育休闲服务场所","地址":"爱民路与新民路交叉口东南60米","经度":112.95508,"纬度":28.191299000000001,"联系电话":"[]","人均消费":"[]","综合评分":"3.3","WGS84_经度_高精度":112.949607,"WGS84_纬度_高精度":28.194786100000002}},{"type":"Feature","id":31,"geometry":{"type":"Point","coordinates":[112.9413856000001,28.176426000000049]},"properties":{"OBJECTID":31,"名称":"湖南大学游泳馆","类型":"体育休闲服务;运动场馆;游泳馆","地址":"登高路1号湖南大学","经度":112.946837,"纬度":28.172923999999998,"联系电话":"[]","人均消费":"[]","综合评分":"4.5","WGS84_经度_高精度":112.9413856,"WGS84_纬度_高精度":28.176425999999999}},{"type":"Feature","id":32,"geometry":{"type":"Point","coordinates":[112.94989420000002,28.195061600000031]},"properties":{"OBJECTID":32,"名称":"森林有鹿Lulu studio 河西新民路店","类型":"体育休闲服务;娱乐场所;酒吧","地址":"新民路9号森林有鹿Lulu studio女装店","经度":112.95536800000001,"纬度":28.191575,"联系电话":"15832627685","人均消费":"[]","综合评分":"4.3","WGS84_经度_高精度":112.9498942,"WGS84_纬度_高精度":28.195061599999999}},{"type":"Feature","id":33,"geometry":{"type":"Point","coordinates":[112.94907030000002,28.195953300000042]},"properties":{"OBJECTID":33,"名称":"42号雪茄馆","类型":"体育休闲服务;体育休闲服务场所;体育休闲服务场所","地址":"新民路42号","经度":112.954542,"纬度":28.192464999999999,"联系电话":"18692220201","人均消费":"112.00","综合评分":"4.6","WGS84_经度_高精度":112.9490703,"WGS84_纬度_高精度":28.195953299999999}},{"type":"Feature","id":34,"geometry":{"type":"Point","coordinates":[112.94951520000006,28.19566530000003]},"properties":{"OBJECTID":34,"名称":"安可瑜伽普拉提(河西店)","类型":"体育休闲服务;运动场馆;健身中心","地址":"久和物业大厦2栋二楼","经度":112.954988,"纬度":28.192177999999998,"联系电话":"15674921665","人均消费":"83.00","综合评分":"4.3","WGS84_经度_高精度":112.94951519999999,"WGS84_纬度_高精度":28.195665300000002}},{"type":"Feature","id":35,"geometry":{"type":"Point","coordinates":[112.94705240000008,28.197359300000073]},"properties":{"OBJECTID":35,"名称":"Vigor健身私教馆(麓山后街店)","类型":"体育休闲服务;运动场馆;健身中心","地址":"橘子洲街道新民路麓山后街2层212","经度":112.952519,"纬度":28.193867000000001,"联系电话":"[]","人均消费":"784.00","综合评分":"4.2","WGS84_经度_高精度":112.9470524,"WGS84_纬度_高精度":28.197359299999999}},{"type":"Feature","id":36,"geometry":{"type":"Point","coordinates":[112.94705830000009,28.197367300000053]},"properties":{"OBJECTID":36,"名称":"长沙尚武剑道馆河西道场","类型":"体育休闲服务;运动场馆;跆拳道场馆","地址":"溁湾镇麓山后街","经度":112.95252499999999,"纬度":28.193874999999998,"联系电话":"[]","人均消费":"[]","综合评分":"3.6","WGS84_经度_高精度":112.94705829999999,"WGS84_纬度_高精度":28.1973673}},{"type":"Feature","id":37,"geometry":{"type":"Point","coordinates":[112.94953510000005,28.195837300000051]},"properties":{"OBJECTID":37,"名称":"阖家·金圆","类型":"体育休闲服务;休闲场所;休闲场所","地址":"爱民路55号","经度":112.95500800000001,"纬度":28.192350000000001,"联系电话":"0731-88880009;13203111177","人均消费":"36.00","综合评分":"4.2","WGS84_经度_高精度":112.94953510000001,"WGS84_纬度_高精度":28.195837300000001}},{"type":"Feature","id":38,"geometry":{"type":"Point","coordinates":[112.94703740000011,28.197539400000039]},"properties":{"OBJECTID":38,"名称":"莱维呗呗24H健身馆","类型":"体育休闲服务;运动场馆;健身中心","地址":"岳民巷18号红枫大厦2层(如家酒店大厅电梯)270号","经度":112.952504,"纬度":28.194047000000001,"联系电话":"18229749454","人均消费":"719.00","综合评分":"3.8","WGS84_经度_高精度":112.9470374,"WGS84_纬度_高精度":28.1975394}},{"type":"Feature","id":39,"geometry":{"type":"Point","coordinates":[112.93160910000006,28.19601380000006]},"properties":{"OBJECTID":39,"名称":"麓山公社(岳麓山风景名胜区店)","类型":"体育休闲服务;体育休闲服务场所;体育休闲服务场所","地址":"茶场村一组道坡巷50号","经度":112.93704200000001,"纬度":28.192495999999998,"联系电话":"13036799499;13357212666","人均消费":"[]","综合评分":"4.5","WGS84_经度_高精度":112.9316091,"WGS84_纬度_高精度":28.196013799999999}},{"type":"Feature","id":40,"geometry":{"type":"Point","coordinates":[112.94747330000007,28.19739450000003]},"properties":{"OBJECTID":40,"名称":"星燃奥体健身运动中心(麓山后街店)","类型":"体育休闲服务;运动场馆;健身中心|购物服务;购物相关场所;购物相关场所","地址":"麓山后街4层","经度":112.952941,"纬度":28.193902999999999,"联系电话":"[]","人均消费":"624.00","综合评分":"2.9","WGS84_经度_高精度":112.9474733,"WGS84_纬度_高精度":28.197394500000001}},{"type":"Feature","id":41,"geometry":{"type":"Point","coordinates":[112.94631220000008,28.197975800000052]},"properties":{"OBJECTID":41,"名称":"靠山酒馆","类型":"体育休闲服务;娱乐场所;酒吧","地址":"桔子洲街道麓山路156号先导银行小区永盛楼101号","经度":112.95177700000001,"纬度":28.194482000000001,"联系电话":"19918878458","人均消费":"252.00","综合评分":"4.5","WGS84_经度_高精度":112.94631219999999,"WGS84_纬度_高精度":28.197975799999998}},{"type":"Feature","id":42,"geometry":{"type":"Point","coordinates":[112.95005870000011,28.195583200000044]},"properties":{"OBJECTID":42,"名称":"老胡牌24H自助棋牌室(新民路店)","类型":"体育休闲服务;娱乐场所;棋牌室","地址":"新民路8号沐山浔酒店院内","经度":112.955533,"纬度":28.192097,"联系电话":"17775819992","人均消费":"15.00","综合评分":"4.2","WGS84_经度_高精度":112.9500587,"WGS84_纬度_高精度":28.195583200000002}},{"type":"Feature","id":43,"geometry":{"type":"Point","coordinates":[112.93139240000005,28.196243100000061]},"properties":{"OBJECTID":43,"名称":"廖家的大院","类型":"体育休闲服务;休闲场所;休闲场所","地址":"白云路延长线与白云路交叉口东360米","经度":112.936825,"纬度":28.192724999999999,"联系电话":"[]","人均消费":"[]","综合评分":"3.0","WGS84_经度_高精度":112.93139239999999,"WGS84_纬度_高精度":28.1962431}},{"type":"Feature","id":44,"geometry":{"type":"Point","coordinates":[112.94701840000005,28.197953400000074]},"properties":{"OBJECTID":44,"名称":"乐碰酒馆","类型":"体育休闲服务;娱乐场所;酒吧","地址":"桔子洲街道麓山南路麓山后街Joy乔氏黑八台球旁边","经度":112.952485,"纬度":28.194461,"联系电话":"15173118446","人均消费":"84.00","综合评分":"4.0","WGS84_经度_高精度":112.9470184,"WGS84_纬度_高精度":28.197953399999999}},{"type":"Feature","id":45,"geometry":{"type":"Point","coordinates":[112.94701740000005,28.197986400000048]},"properties":{"OBJECTID":45,"名称":"乔氏黑八台球(新民路麓山后街店)","类型":"体育休闲服务;运动场馆;台球厅","地址":"新民路麓山后街同城网咖斜对面乔氏黑八台球","经度":112.952484,"纬度":28.194493999999999,"联系电话":"18975800896","人均消费":"[]","综合评分":"4.5","WGS84_经度_高精度":112.94701739999999,"WGS84_纬度_高精度":28.197986400000001}},{"type":"Feature","id":46,"geometry":{"type":"Point","coordinates":[112.93930330000001,28.175507500000037]},"properties":{"OBJECTID":46,"名称":"音巷R&B BAR","类型":"体育休闲服务;娱乐场所;酒吧","地址":"麓山南路276-3","经度":112.94475,"纬度":28.172001999999999,"联系电话":"18997380181","人均消费":"23.00","综合评分":"4.4","WGS84_经度_高精度":112.93930330000001,"WGS84_纬度_高精度":28.175507499999998}},{"type":"Feature","id":47,"geometry":{"type":"Point","coordinates":[112.93932930000005,28.175465400000064]},"properties":{"OBJECTID":47,"名称":"缘圈电玩","类型":"体育休闲服务;娱乐场所;游戏厅","地址":"麓山南路280号2楼缘圈电玩","经度":112.944776,"纬度":28.171959999999999,"联系电话":"19848005748","人均消费":"12.00","综合评分":"4.2","WGS84_经度_高精度":112.9393293,"WGS84_纬度_高精度":28.1754654}},{"type":"Feature","id":48,"geometry":{"type":"Point","coordinates":[112.94679890000009,28.198309900000027]},"properties":{"OBJECTID":48,"名称":"同成网咖(通程商业广场店)","类型":"体育休闲服务;娱乐场所;网吧","地址":"桔子洲街道枫林路2号通程商业广场B2层","经度":112.952265,"纬度":28.194817,"联系电话":"13327314849","人均消费":"[]","综合评分":"3.8","WGS84_经度_高精度":112.9467989,"WGS84_纬度_高精度":28.198309900000002}},{"type":"Feature","id":49,"geometry":{"type":"Point","coordinates":[112.93918860000008,28.17523360000007]},"properties":{"OBJECTID":49,"名称":"头等舱(七个小矮人店)","类型":"体育休闲服务;娱乐场所;娱乐场所","地址":"麓山南路与阜埠河路交叉口北200米","经度":112.94463500000001,"纬度":28.171728000000002,"联系电话":"15674961905","人均消费":"36.00","综合评分":"3.2","WGS84_经度_高精度":112.93918859999999,"WGS84_纬度_高精度":28.175233599999999}},{"type":"Feature","id":50,"geometry":{"type":"Point","coordinates":[112.94549710000001,28.199160400000039]},"properties":{"OBJECTID":50,"名称":"上机堂电竞馆(豪天分店)","类型":"体育休闲服务;娱乐场所;网吧","地址":"麓山路12号长沙低压开关厂原办公楼后栋一楼","经度":112.95095999999999,"纬度":28.195665000000002,"联系电话":"17373171621","人均消费":"23.00","综合评分":"4.4","WGS84_经度_高精度":112.9454971,"WGS84_纬度_高精度":28.1991604}},{"type":"Feature","id":51,"geometry":{"type":"Point","coordinates":[112.95115880000003,28.19573390000005]},"properties":{"OBJECTID":51,"名称":"岳麓山码头游船","类型":"体育休闲服务;体育休闲服务场所;体育休闲服务场所","地址":"潇湘中路87号","经度":112.956636,"纬度":28.192250000000001,"联系电话":"17708491580","人均消费":"[]","综合评分":"4.1","WGS84_经度_高精度":112.9511588,"WGS84_纬度_高精度":28.1957339}},{"type":"Feature","id":52,"geometry":{"type":"Point","coordinates":[112.94571560000009,28.199130000000025]},"properties":{"OBJECTID":52,"名称":"四个朋友·自助棋牌(岳麓山东门店)","类型":"体育休闲服务;娱乐场所;棋牌室","地址":"溁湾镇麓山路12号二层","经度":112.951179,"纬度":28.195634999999999,"联系电话":"13080557644","人均消费":"17.00","综合评分":"4.3","WGS84_经度_高精度":112.9457156,"WGS84_纬度_高精度":28.19913}},{"type":"Feature","id":53,"geometry":{"type":"Point","coordinates":[112.94571560000009,28.199130000000025]},"properties":{"OBJECTID":53,"名称":"快乐惠酒店棋牌","类型":"体育休闲服务;娱乐场所;棋牌室","地址":"麓山路14号(溁湾镇地铁站3号口步行370米)","经度":112.951179,"纬度":28.195634999999999,"联系电话":"[]","人均消费":"[]","综合评分":"3.2","WGS84_经度_高精度":112.9457156,"WGS84_纬度_高精度":28.19913}},{"type":"Feature","id":54,"geometry":{"type":"Point","coordinates":[112.92745720000005,28.182629400000053]},"properties":{"OBJECTID":54,"名称":"溜滑梯","类型":"体育休闲服务;体育休闲服务场所;体育休闲服务场所","地址":"登高路58号岳麓山国家重点风景名胜区长沙鸟语林内","经度":112.93288200000001,"纬度":28.179106999999998,"联系电话":"[]","人均消费":"[]","综合评分":"4.2","WGS84_经度_高精度":112.92745720000001,"WGS84_纬度_高精度":28.1826294}},{"type":"Feature","id":55,"geometry":{"type":"Point","coordinates":[112.94708220000007,28.198680300000035]},"properties":{"OBJECTID":55,"名称":"友约共享台球(通程商业广场店)","类型":"体育休闲服务;体育休闲服务场所;体育休闲服务场所","地址":"橘子洲街道枫林路2号通程商业广场B2层","经度":112.952549,"纬度":28.195188000000002,"联系电话":"18670311170","人均消费":"63.00","综合评分":"3.5","WGS84_经度_高精度":112.9470822,"WGS84_纬度_高精度":28.198680299999999}},{"type":"Feature","id":56,"geometry":{"type":"Point","coordinates":[112.94903230000011,28.197714400000052]},"properties":{"OBJECTID":56,"名称":"文艺复兴剧场","类型":"体育休闲服务;影剧院;剧场|购物服务;家居建材市场;家居建材市场","地址":"爱民路84号","经度":112.954504,"纬度":28.194226,"联系电话":"[]","人均消费":"87.00","综合评分":"3.9","WGS84_经度_高精度":112.9490323,"WGS84_纬度_高精度":28.197714399999999}},{"type":"Feature","id":57,"geometry":{"type":"Point","coordinates":[112.94735650000007,28.198695800000053]},"properties":{"OBJECTID":57,"名称":"虾健健24H共享自助健身(长沙通程麓山商业广场店)","类型":"体育休闲服务;运动场馆;健身中心","地址":"桔子洲街道枫林路2号通程商业广场F5层","经度":112.95282400000001,"纬度":28.195204,"联系电话":"[]","人均消费":"92.00","综合评分":"4.3","WGS84_经度_高精度":112.9473565,"WGS84_纬度_高精度":28.198695799999999}},{"type":"Feature","id":58,"geometry":{"type":"Point","coordinates":[112.95109790000004,28.196159100000045]},"properties":{"OBJECTID":58,"名称":"中云旅游高空观光","类型":"体育休闲服务;休闲场所;休闲场所","地址":"潇湘中路湘江江滩公园内(北侧)","经度":112.956575,"纬度":28.192675000000001,"联系电话":"[]","人均消费":"[]","综合评分":"2.7","WGS84_经度_高精度":112.95109789999999,"WGS84_纬度_高精度":28.196159099999999}},{"type":"Feature","id":59,"geometry":{"type":"Point","coordinates":[112.92822710000007,28.180804400000056]},"properties":{"OBJECTID":59,"名称":"武当师微功夫馆","类型":"体育休闲服务;运动场馆;运动场所","地址":"长沙市岳麓山风景区岳麓山云麓宫112栋","经度":112.93365300000001,"纬度":28.177282999999999,"联系电话":"0731-89729771;18874742755","人均消费":"[]","综合评分":"3.7","WGS84_经度_高精度":112.9282271,"WGS84_纬度_高精度":28.1808044}},{"type":"Feature","id":60,"geometry":{"type":"Point","coordinates":[112.94714800000008,28.198880200000076]},"properties":{"OBJECTID":60,"名称":"FACE PIER弹珠堂(通程商业广场枫林路店)","类型":"体育休闲服务;休闲场所;休闲场所","地址":"枫林路1号通程商业广场B1层","经度":112.95261499999999,"纬度":28.195388000000001,"联系电话":"[]","人均消费":"30.00","综合评分":"2.5","WGS84_经度_高精度":112.947148,"WGS84_纬度_高精度":28.198880200000001}},{"type":"Feature","id":61,"geometry":{"type":"Point","coordinates":[112.93902300000002,28.174730900000043]},"properties":{"OBJECTID":61,"名称":"嘻猫手作·撸猫馆","类型":"体育休闲服务;休闲场所;休闲场所","地址":"麓山南路330号二楼","经度":112.944469,"纬度":28.171225,"联系电话":"13086328380","人均消费":"[]","综合评分":"4.3","WGS84_经度_高精度":112.93902300000001,"WGS84_纬度_高精度":28.1747309}},{"type":"Feature","id":62,"geometry":{"type":"Point","coordinates":[112.95509660000005,28.187528100000065]},"properties":{"OBJECTID":62,"名称":"湘江游轮(橘子洲码头)","类型":"风景名胜;风景名胜;风景名胜|体育休闲服务;体育休闲服务场所;体育休闲服务场所","地址":"潇湘中路150号","经度":112.960584,"纬度":28.184052999999999,"联系电话":"0731-89805893","人均消费":"[]","综合评分":"4.3","WGS84_经度_高精度":112.9550966,"WGS84_纬度_高精度":28.187528100000002}},{"type":"Feature","id":63,"geometry":{"type":"Point","coordinates":[112.95509760000004,28.187308100000052]},"properties":{"OBJECTID":63,"名称":"九洲龙骧","类型":"体育休闲服务;休闲场所;休闲场所","地址":"橘子洲头2号岳麓山橘子洲旅游区内","经度":112.96058499999999,"纬度":28.183833,"联系电话":"0731-85520710","人均消费":"[]","综合评分":"1.6","WGS84_经度_高精度":112.9550976,"WGS84_纬度_高精度":28.187308099999999}},{"type":"Feature","id":64,"geometry":{"type":"Point","coordinates":[112.94744620000006,28.198817600000041]},"properties":{"OBJECTID":64,"名称":"亿鑫影城(麓山店)","类型":"体育休闲服务;影剧院;电影院","地址":"枫林路1号通程商业广场5层","经度":112.95291400000001,"纬度":28.195326000000001,"联系电话":"0731-82285085;0731-88854588","人均消费":"29.00","综合评分":"4.5","WGS84_经度_高精度":112.9474462,"WGS84_纬度_高精度":28.198817600000002}},{"type":"Feature","id":65,"geometry":{"type":"Point","coordinates":[112.94771460000004,28.198715100000072]},"properties":{"OBJECTID":65,"名称":"网鱼电竞(通程商业广场店)","类型":"体育休闲服务;娱乐场所;网吧","地址":"通程商业广场4楼401号星聚会旁边","经度":112.953183,"纬度":28.195224,"联系电话":"15575121295","人均消费":"[]","综合评分":"4.5","WGS84_经度_高精度":112.9477146,"WGS84_纬度_高精度":28.198715100000001}},{"type":"Feature","id":66,"geometry":{"type":"Point","coordinates":[112.93883340000002,28.174708200000055]},"properties":{"OBJECTID":66,"名称":"四个朋友·自助棋牌(天马潇湘影城店)","类型":"体育休闲服务;娱乐场所;棋牌室","地址":"麓山南路326号2楼","经度":112.94427899999999,"纬度":28.171202000000001,"联系电话":"13657431030;18774966999","人均消费":"20.00","综合评分":"4.3","WGS84_经度_高精度":112.93883339999999,"WGS84_纬度_高精度":28.174708200000001}},{"type":"Feature","id":67,"geometry":{"type":"Point","coordinates":[112.93992900000001,28.174375400000031]},"properties":{"OBJECTID":67,"名称":"湖南大学荫马塘运动场","类型":"体育休闲服务;运动场馆;运动场所","地址":"麓山南路201号","经度":112.94537699999999,"纬度":28.170871000000002,"联系电话":"[]","人均消费":"[]","综合评分":"4.6","WGS84_经度_高精度":112.93992900000001,"WGS84_纬度_高精度":28.174375399999999}},{"type":"Feature","id":68,"geometry":{"type":"Point","coordinates":[112.94770660000006,28.199016100000051]},"properties":{"OBJECTID":68,"名称":"星聚会KTV(溁湾镇麓山通程广场店)","类型":"体育休闲服务;娱乐场所;KTV","地址":"桔子洲街道枫林路2号通程麓山店4层部分场地","经度":112.953175,"纬度":28.195525,"联系电话":"13297490363","人均消费":"61.00","综合评分":"4.6","WGS84_经度_高精度":112.9477066,"WGS84_纬度_高精度":28.199016100000001}},{"type":"Feature","id":69,"geometry":{"type":"Point","coordinates":[112.94837180000002,28.199326800000051]},"properties":{"OBJECTID":69,"名称":"ACE全乔氏台球连锁(麓山通程店)","类型":"体育休闲服务;运动场馆;台球厅","地址":"麓山通程广场4楼(溁湾镇地铁站3号口步行420米)","经度":112.95384199999999,"纬度":28.195837000000001,"联系电话":"18570165777","人均消费":"[]","综合评分":"4.6","WGS84_经度_高精度":112.9483718,"WGS84_纬度_高精度":28.199326800000001}},{"type":"Feature","id":70,"geometry":{"type":"Point","coordinates":[112.95618420000005,28.190297700000031]},"properties":{"OBJECTID":70,"名称":"小鲤鱼寻宝记·AR亲子户外剧本闯关(长沙市橘子洲头公园店)","类型":"体育休闲服务;娱乐场所;娱乐场所","地址":"橘子洲头2号橘子洲风景名胜区内(南侧)","经度":112.961675,"纬度":28.186824999999999,"联系电话":"[]","人均消费":"91.00","综合评分":"3.4","WGS84_经度_高精度":112.9561842,"WGS84_纬度_高精度":28.190297699999999}},{"type":"Feature","id":71,"geometry":{"type":"Point","coordinates":[112.93795640000008,28.173526500000037]},"properties":{"OBJECTID":71,"名称":"构响亮·陶艺·银饰·DIY手工坊(大学城店)","类型":"体育休闲服务;休闲场所;休闲场所","地址":"桔子洲街道麓山南路刷把冲7号2层(麓山友居的左边)","经度":112.9434,"纬度":28.170019,"联系电话":"17775858709;18899776529","人均消费":"29.00","综合评分":"4.1","WGS84_经度_高精度":112.9379564,"WGS84_纬度_高精度":28.173526500000001}},{"type":"Feature","id":72,"geometry":{"type":"Point","coordinates":[112.93786650000004,28.173486700000069]},"properties":{"OBJECTID":72,"名称":"壹号屋剧本杀·桌游推理馆(河西大学城店)","类型":"体育休闲服务;娱乐场所;娱乐场所","地址":"麓山南路刷把冲巷8号","经度":112.94331,"纬度":28.169979000000001,"联系电话":"18684948491","人均消费":"76.00","综合评分":"4.3","WGS84_经度_高精度":112.9378665,"WGS84_纬度_高精度":28.173486700000002}},{"type":"Feature","id":73,"geometry":{"type":"Point","coordinates":[112.94620330000009,28.174150000000054]},"properties":{"OBJECTID":73,"名称":"天麓台球","类型":"体育休闲服务;运动场馆;台球厅","地址":"天马路与潇湘中路交叉口西120米","经度":112.951666,"纬度":28.170656999999999,"联系电话":"[]","人均消费":"[]","综合评分":"3.2","WGS84_经度_高精度":112.94620329999999,"WGS84_纬度_高精度":28.174150000000001}},{"type":"Feature","id":74,"geometry":{"type":"Point","coordinates":[112.93843440000001,28.173314800000071]},"properties":{"OBJECTID":74,"名称":"嘉文网咖(麓山南路)","类型":"体育休闲服务;娱乐场所;网吧","地址":"阜埠河地铁站6号口步行490米","经度":112.943879,"纬度":28.169808,"联系电话":"13647449588;19720605167","人均消费":"22.00","综合评分":"4.4","WGS84_经度_高精度":112.93843440000001,"WGS84_纬度_高精度":28.1733148}},{"type":"Feature","id":75,"geometry":{"type":"Point","coordinates":[112.9321278000001,28.199816200000043]},"properties":{"OBJECTID":75,"名称":"西湖烧烤露营基地","类型":"体育休闲服务;体育休闲服务场所;体育休闲服务场所","地址":"西湖街道白云路230号-2","经度":112.937562,"纬度":28.196299,"联系电话":"17335679742","人均消费":"[]","综合评分":"3.4","WGS84_经度_高精度":112.9321278,"WGS84_纬度_高精度":28.199816200000001}},{"type":"Feature","id":76,"geometry":{"type":"Point","coordinates":[112.93835850000005,28.173253900000077]},"properties":{"OBJECTID":76,"名称":"星与凡普拉提·瑜伽","类型":"体育休闲服务;运动场馆;健身中心","地址":"麓山南路416号三楼","经度":112.943803,"纬度":28.169747000000001,"联系电话":"13739111061","人均消费":"66.00","综合评分":"4.4","WGS84_经度_高精度":112.93835850000001,"WGS84_纬度_高精度":28.173253899999999}},{"type":"Feature","id":77,"geometry":{"type":"Point","coordinates":[112.93276560000004,28.200331300000073]},"properties":{"OBJECTID":77,"名称":"党校篮球场","类型":"体育休闲服务;运动场馆;篮球场馆","地址":"白云路53号","经度":112.93820100000001,"纬度":28.196815000000001,"联系电话":"[]","人均消费":"[]","综合评分":"3.5","WGS84_经度_高精度":112.9327656,"WGS84_纬度_高精度":28.200331299999998}},{"type":"Feature","id":78,"geometry":{"type":"Point","coordinates":[112.93824980000011,28.173082100000045]},"properties":{"OBJECTID":78,"名称":"小筑网红床吧私人影院(岳麓大学城店)","类型":"体育休闲服务;娱乐场所;娱乐场所","地址":"橘子洲街道麓山南路416号","经度":112.94369399999999,"纬度":28.169574999999998,"联系电话":"[]","人均消费":"[]","综合评分":"3.9","WGS84_经度_高精度":112.93824979999999,"WGS84_纬度_高精度":28.173082099999998}},{"type":"Feature","id":79,"geometry":{"type":"Point","coordinates":[112.93663410000011,28.17318460000007]},"properties":{"OBJECTID":79,"名称":"无事Jazz Bar(河西大学城店)","类型":"体育休闲服务;娱乐场所;酒吧","地址":"麓山南路刷把冲39号","经度":112.942075,"纬度":28.169675000000002,"联系电话":"[]","人均消费":"57.00","综合评分":"3.7","WGS84_经度_高精度":112.93663410000001,"WGS84_纬度_高精度":28.173184599999999}},{"type":"Feature","id":80,"geometry":{"type":"Point","coordinates":[112.93877870000006,28.172744200000068]},"properties":{"OBJECTID":80,"名称":"Helens海伦司小酒馆(长沙悦麓汇美食广场店)","类型":"体育休闲服务;娱乐场所;酒吧|餐饮服务;餐饮相关场所;餐饮相关","地址":"麓山南路悦麓汇美食广场2层01、02号(麓枫酒店进去第二个电梯二楼)","经度":112.94422400000001,"纬度":28.169238,"联系电话":"0731-88289953","人均消费":"54.00","综合评分":"4.4","WGS84_经度_高精度":112.9387787,"WGS84_纬度_高精度":28.1727442}},{"type":"Feature","id":81,"geometry":{"type":"Point","coordinates":[112.93285640000011,28.200913200000059]},"properties":{"OBJECTID":81,"名称":"好声音KTV(白云路店)","类型":"体育休闲服务;娱乐场所;KTV|科教文化服务;培训机构;培训机构|生活服务;生活服务场所;生活服务场所|购物服务;购物相关场所;购物相关场所","地址":"白云路176号","经度":112.938292,"纬度":28.197396999999999,"联系电话":"[]","人均消费":"48.00","综合评分":"4.3","WGS84_经度_高精度":112.93285640000001,"WGS84_纬度_高精度":28.200913199999999}},{"type":"Feature","id":82,"geometry":{"type":"Point","coordinates":[112.93619970000009,28.202051400000073]},"properties":{"OBJECTID":82,"名称":"和谐棋牌室(谭石路)","类型":"体育休闲服务;娱乐场所;棋牌室","地址":"高叶塘街道谭石路92号","经度":112.941642,"纬度":28.198540000000001,"联系电话":"[]","人均消费":"25.00","综合评分":"4.1","WGS84_经度_高精度":112.9361997,"WGS84_纬度_高精度":28.202051399999998}},{"type":"Feature","id":83,"geometry":{"type":"Point","coordinates":[112.93418000000008,28.173500300000057]},"properties":{"OBJECTID":83,"名称":"二立方","类型":"体育休闲服务;体育休闲服务场所;体育休闲服务场所","地址":"八字墙比拉伽谷马路对面巷子尽头","经度":112.939616,"纬度":28.169986999999999,"联系电话":"18508404322","人均消费":"[]","综合评分":"4.0","WGS84_经度_高精度":112.93418,"WGS84_纬度_高精度":28.173500300000001}},{"type":"Feature","id":84,"geometry":{"type":"Point","coordinates":[112.93572170000004,28.202176100000031]},"properties":{"OBJECTID":84,"名称":"心聚会","类型":"体育休闲服务;体育休闲服务场所;体育休闲服务场所","地址":"谭石路96-1号","经度":112.941163,"纬度":28.198664000000001,"联系电话":"[]","人均消费":"[]","综合评分":"4.0","WGS84_经度_高精度":112.9357217,"WGS84_纬度_高精度":28.202176099999999}},{"type":"Feature","id":85,"geometry":{"type":"Point","coordinates":[112.93852020000008,28.172340600000041]},"properties":{"OBJECTID":85,"名称":"巅峰电竞(渔湾码头时尚商业广场店)","类型":"体育休闲服务;娱乐场所;网吧","地址":"麓山南路299号渔湾码头时尚商业广场","经度":112.94396500000001,"纬度":28.168834,"联系电话":"[]","人均消费":"[]","综合评分":"3.7","WGS84_经度_高精度":112.9385202,"WGS84_纬度_高精度":28.172340599999998}},{"type":"Feature","id":86,"geometry":{"type":"Point","coordinates":[112.93879270000002,28.172268100000053]},"properties":{"OBJECTID":86,"名称":"PAI班级烧烤聚会KTV独栋别墅轰趴馆(河西大学城店)","类型":"体育休闲服务;体育休闲服务场所;体育休闲服务场所","地址":"麓山南路299号渔湾码头时尚商业广场F4层","经度":112.944238,"纬度":28.168762000000001,"联系电话":"18229961465;18273116305","人均消费":"85.00","综合评分":"2.4","WGS84_经度_高精度":112.93879269999999,"WGS84_纬度_高精度":28.1722681}},{"type":"Feature","id":87,"geometry":{"type":"Point","coordinates":[112.93855420000011,28.172287500000039]},"properties":{"OBJECTID":87,"名称":"潇湘国际影城(长沙天马店)","类型":"体育休闲服务;影剧院;电影院","地址":"麓山南路229号渔湾码头4层","经度":112.94399900000001,"纬度":28.168780999999999,"联系电话":"0731-82857555","人均消费":"44.00","综合评分":"4.5","WGS84_经度_高精度":112.9385542,"WGS84_纬度_高精度":28.172287499999999}},{"type":"Feature","id":88,"geometry":{"type":"Point","coordinates":[112.93921780000005,28.172225400000059]},"properties":{"OBJECTID":88,"名称":"258国粹馆(天马村渔湾市A栋店)","类型":"体育休闲服务;娱乐场所;棋牌室","地址":"渔湾市A栋3楼1号(阜埠河地铁站6号口步行370米)","经度":112.944664,"纬度":28.16872,"联系电话":"15388092678;18570032849","人均消费":"30.00","综合评分":"4.0","WGS84_经度_高精度":112.93921779999999,"WGS84_纬度_高精度":28.172225399999999}},{"type":"Feature","id":89,"geometry":{"type":"Point","coordinates":[112.93853020000006,28.172280600000079]},"properties":{"OBJECTID":89,"名称":"欢乐弹珠堂(大学城店)","类型":"体育休闲服务;体育休闲服务场所;体育休闲服务场所","地址":"麓山南路299号渔湾码头时尚商业广场F1层","经度":112.94397499999999,"纬度":28.168773999999999,"联系电话":"13107318799","人均消费":"14.00","综合评分":"3.8","WGS84_经度_高精度":112.9385302,"WGS84_纬度_高精度":28.172280600000001}},{"type":"Feature","id":90,"geometry":{"type":"Point","coordinates":[112.93868290000012,28.172188300000073]},"properties":{"OBJECTID":90,"名称":"雀游屋·潇湘夜雨·立直麻将·电玩主机·桌游","类型":"体育休闲服务;娱乐场所;棋牌室","地址":"渔湾码头商业广场2层28号","经度":112.94412800000001,"纬度":28.168682,"联系电话":"[]","人均消费":"43.00","综合评分":"4.3","WGS84_经度_高精度":112.9386829,"WGS84_纬度_高精度":28.172188299999998}},{"type":"Feature","id":91,"geometry":{"type":"Point","coordinates":[112.93817200000001,28.172140100000036]},"properties":{"OBJECTID":91,"名称":"巴尔德台球俱乐部","类型":"体育休闲服务;运动场馆;台球厅","地址":"麓山南路悦麓汇美食广场2楼15号","经度":112.94361600000001,"纬度":28.168633,"联系电话":"0731-88397871;13548963538","人均消费":"[]","综合评分":"4.3","WGS84_经度_高精度":112.93817199999999,"WGS84_纬度_高精度":28.1721401}},{"type":"Feature","id":92,"geometry":{"type":"Point","coordinates":[112.93939140000009,28.171990100000073]},"properties":{"OBJECTID":92,"名称":"日富一日观茶室(棋牌)","类型":"体育休闲服务;娱乐场所;棋牌室","地址":"阜埠河路渔湾码头A栋二楼相遇影院酒店旁","经度":112.944838,"纬度":28.168485,"联系电话":"18607313265","人均消费":"13.00","综合评分":"4.0","WGS84_经度_高精度":112.93939140000001,"WGS84_纬度_高精度":28.171990099999999}},{"type":"Feature","id":93,"geometry":{"type":"Point","coordinates":[112.93743260000008,28.172133300000041]},"properties":{"OBJECTID":93,"名称":"雀发潮棋牌(渔湾码头店)","类型":"体育休闲服务;娱乐场所;棋牌室","地址":"麓山南路与阜埠河路交叉口西南140米","经度":112.942875,"纬度":28.168624999999999,"联系电话":"18873907813","人均消费":"15.00","综合评分":"4.0","WGS84_经度_高精度":112.93743259999999,"WGS84_纬度_高精度":28.172133299999999}},{"type":"Feature","id":94,"geometry":{"type":"Point","coordinates":[112.94696450000004,28.172925500000076]},"properties":{"OBJECTID":94,"名称":"玖聚阁(潇湘中路店)","类型":"体育休闲服务;体育休闲服务场所;体育休闲服务场所","地址":"天麓苑2栋1号门面","经度":112.952429,"纬度":28.169433999999999,"联系电话":"18873125091","人均消费":"[]","综合评分":"[]","WGS84_经度_高精度":112.94696450000001,"WGS84_纬度_高精度":28.172925500000002}},{"type":"Feature","id":95,"geometry":{"type":"Point","coordinates":[112.93506300000001,28.202390100000059]},"properties":{"OBJECTID":95,"名称":"鲜果侦探","类型":"体育休闲服务;娱乐场所;娱乐场所","地址":"谭石路95号枫林小区门面","经度":112.94050300000001,"纬度":28.198877,"联系电话":"13507498230","人均消费":"[]","综合评分":"3.7","WGS84_经度_高精度":112.935063,"WGS84_纬度_高精度":28.202390099999999}},{"type":"Feature","id":96,"geometry":{"type":"Point","coordinates":[112.94110760000001,28.171784200000047]},"properties":{"OBJECTID":96,"名称":"湖师大天马公寓-羽毛球场","类型":"体育休闲服务;运动场馆;羽毛球场","地址":"天马路210号","经度":112.946558,"纬度":28.168282000000001,"联系电话":"[]","人均消费":"[]","综合评分":"4.1","WGS84_经度_高精度":112.9411076,"WGS84_纬度_高精度":28.171784200000001}},{"type":"Feature","id":97,"geometry":{"type":"Point","coordinates":[112.93318870000007,28.201840600000025]},"properties":{"OBJECTID":97,"名称":"步行者·南洲湖山庄烧烤沙滩车骑马露营团建拓展亲子游","类型":"体育休闲服务;休闲场所;休闲场所","地址":"白云路与谭石路交叉口西南120米","经度":112.938625,"纬度":28.198325000000001,"联系电话":"[]","人均消费":"[]","综合评分":"3.4","WGS84_经度_高精度":112.9331887,"WGS84_纬度_高精度":28.201840600000001}},{"type":"Feature","id":98,"geometry":{"type":"Point","coordinates":[112.94621240000004,28.172567900000047]},"properties":{"OBJECTID":98,"名称":"天麓苑音乐棋牌室","类型":"体育休闲服务;娱乐场所;棋牌室","地址":"天麓苑8栋三单元一楼","经度":112.95167499999999,"纬度":28.169074999999999,"联系电话":"[]","人均消费":"26.00","综合评分":"2.8","WGS84_经度_高精度":112.94621239999999,"WGS84_纬度_高精度":28.172567900000001}},{"type":"Feature","id":99,"geometry":{"type":"Point","coordinates":[112.94170130000009,28.17173420000006]},"properties":{"OBJECTID":99,"名称":"璞瑜健身(天马店)","类型":"体育休闲服务;体育休闲服务场所;体育休闲服务场所","地址":"天马路216路师大天马美食广场三楼","经度":112.947153,"纬度":28.168233000000001,"联系电话":"15821136885","人均消费":"976.00","综合评分":"4.4","WGS84_经度_高精度":112.94170130000001,"WGS84_纬度_高精度":28.1717342}},{"type":"Feature","id":100,"geometry":{"type":"Point","coordinates":[112.93536340000003,28.202727700000025]},"properties":{"OBJECTID":100,"名称":"四个朋友·自助棋牌(枫林小区店)","类型":"体育休闲服务;娱乐场所;游戏厅","地址":"谭石路与白云路交叉口东140米","经度":112.940804,"纬度":28.199214999999999,"联系电话":"[]","人均消费":"17.00","综合评分":"3.7","WGS84_经度_高精度":112.9353634,"WGS84_纬度_高精度":28.202727700000001}},{"type":"Feature","id":101,"geometry":{"type":"Point","coordinates":[112.93861360000005,28.203358600000058]},"properties":{"OBJECTID":101,"名称":"婷婷棋牌室","类型":"体育休闲服务;娱乐场所;棋牌室","地址":"老长宁路与谭石路交叉口西120米","经度":112.944061,"纬度":28.199850999999999,"联系电话":"[]","人均消费":"[]","综合评分":"2.9","WGS84_经度_高精度":112.9386136,"WGS84_纬度_高精度":28.203358600000001}},{"type":"Feature","id":102,"geometry":{"type":"Point","coordinates":[112.94286260000001,28.171636100000057]},"properties":{"OBJECTID":102,"名称":"艺间艺术","类型":"体育休闲服务;休闲场所;休闲场所","地址":"长沙矿山研究院检测中心东侧70米","经度":112.948317,"纬度":28.168137000000002,"联系电话":"[]","人均消费":"[]","综合评分":"3.1","WGS84_经度_高精度":112.9428626,"WGS84_纬度_高精度":28.171636100000001}},{"type":"Feature","id":103,"geometry":{"type":"Point","coordinates":[112.94285060000004,28.17150410000005]},"properties":{"OBJECTID":103,"名称":"超力台球电玩俱乐部(天马店)","类型":"体育休闲服务;运动场馆;台球厅","地址":"天马山路107-3天马大酒店旁","经度":112.948305,"纬度":28.168005000000001,"联系电话":"15874079910","人均消费":"[]","综合评分":"4.5","WGS84_经度_高精度":112.9428506,"WGS84_纬度_高精度":28.1715041}},{"type":"Feature","id":104,"geometry":{"type":"Point","coordinates":[112.93370960000004,28.202530100000047]},"properties":{"OBJECTID":104,"名称":"长沙市·四哥乔氏台球工作室","类型":"体育休闲服务;运动场馆;台球厅","地址":"长沙市岳麓区白云路104-1号","经度":112.93914700000001,"纬度":28.199014999999999,"联系电话":"13347218333","人均消费":"[]","综合评分":"3.8","WGS84_经度_高精度":112.9337096,"WGS84_纬度_高精度":28.202530100000001}},{"type":"Feature","id":105,"geometry":{"type":"Point","coordinates":[112.93347410000001,28.202661400000068]},"properties":{"OBJECTID":105,"名称":"白云电竞","类型":"体育休闲服务;娱乐场所;网吧","地址":"谭石路131号","经度":112.938911,"纬度":28.199145999999999,"联系电话":"18973183104","人均消费":"[]","综合评分":"4.4","WGS84_经度_高精度":112.9334741,"WGS84_纬度_高精度":28.2026614}},{"type":"Feature","id":106,"geometry":{"type":"Point","coordinates":[112.93371660000003,28.202902100000074]},"properties":{"OBJECTID":106,"名称":"超冠棋牌","类型":"体育休闲服务;娱乐场所;棋牌室","地址":"谭石路120-2(西湖公园地铁站2号口步行490米)","经度":112.939154,"纬度":28.199387000000002,"联系电话":"15084998319","人均消费":"114.00","综合评分":"3.8","WGS84_经度_高精度":112.9337166,"WGS84_纬度_高精度":28.202902099999999}},{"type":"Feature","id":107,"geometry":{"type":"Point","coordinates":[112.93358080000007,28.202889300000038]},"properties":{"OBJECTID":107,"名称":"果敢台球","类型":"体育休闲服务;运动场馆;台球厅","地址":"白云路134附近","经度":112.939018,"纬度":28.199373999999999,"联系电话":"18627317471","人均消费":"[]","综合评分":"4.3","WGS84_经度_高精度":112.9335808,"WGS84_纬度_高精度":28.202889299999999}},{"type":"Feature","id":108,"geometry":{"type":"Point","coordinates":[112.93768210000007,28.171032900000057]},"properties":{"OBJECTID":108,"名称":"梦游时间精酿酒馆","类型":"体育休闲服务;体育休闲服务场所;体育休闲服务场所","地址":"湘江新区桔子洲街道麓山南路236号LG-01号(大冰小屋旁)","经度":112.94312499999999,"纬度":28.167525000000001,"联系电话":"19107018506","人均消费":"40.00","综合评分":"4.4","WGS84_经度_高精度":112.9376821,"WGS84_纬度_高精度":28.1710329}},{"type":"Feature","id":109,"geometry":{"type":"Point","coordinates":[112.94062880000001,28.170832000000075]},"properties":{"OBJECTID":109,"名称":"帅帅电竞网咖(潇湘大厦店)","类型":"体育休闲服务;娱乐场所;网吧","地址":"阜埠河路潇湘大厦2层(阜埠河地铁站6号口步行140米)","经度":112.946078,"纬度":28.167328999999999,"联系电话":"18570671222","人均消费":"24.00","综合评分":"4.4","WGS84_经度_高精度":112.9406288,"WGS84_纬度_高精度":28.170832000000001}},{"type":"Feature","id":110,"geometry":{"type":"Point","coordinates":[112.94851420000009,28.202646600000037]},"properties":{"OBJECTID":110,"名称":"冠游体育","类型":"体育休闲服务;运动场馆;健身中心","地址":"绿地缤纷绘4楼","经度":112.953985,"纬度":28.199157,"联系电话":"18673154852","人均消费":"[]","综合评分":"4.6","WGS84_经度_高精度":112.94851420000001,"WGS84_纬度_高精度":28.202646600000001}},{"type":"Feature","id":111,"geometry":{"type":"Point","coordinates":[112.94917450000003,28.202362200000039]},"properties":{"OBJECTID":111,"名称":"碰碰发自助棋牌(溁湾镇缤纷荟店)","类型":"体育休闲服务;娱乐场所;棋牌室","地址":"望月湖街道绿地湖湘中心第1.2345栋裙楼及B1层1224-1226号","经度":112.95464699999999,"纬度":28.198874,"联系电话":"15084791287","人均消费":"20.00","综合评分":"4.5","WGS84_经度_高精度":112.9491745,"WGS84_纬度_高精度":28.2023622}},{"type":"Feature","id":112,"geometry":{"type":"Point","coordinates":[112.94064370000001,28.170777000000044]},"properties":{"OBJECTID":112,"名称":"星诺DIY烘焙(潇湘大厦店)","类型":"餐饮服务;糕饼店;糕饼店|体育休闲服务;休闲场所;休闲场所","地址":"桔子洲街道潇湘大厦二楼渔湾市233号","经度":112.946093,"纬度":28.167273999999999,"联系电话":"13787009283","人均消费":"59.00","综合评分":"4.1","WGS84_经度_高精度":112.9406437,"WGS84_纬度_高精度":28.170777000000001}},{"type":"Feature","id":113,"geometry":{"type":"Point","coordinates":[112.9485092000001,28.202689600000042]},"properties":{"OBJECTID":113,"名称":"蒂梵尘瑜伽(缤纷荟店)","类型":"体育休闲服务;运动场馆;健身中心","地址":"银盆南路155号缤纷荟4楼","经度":112.95398,"纬度":28.199200000000001,"联系电话":"[]","人均消费":"[]","综合评分":"2.7","WGS84_经度_高精度":112.9485092,"WGS84_纬度_高精度":28.202689599999999}},{"type":"Feature","id":114,"geometry":{"type":"Point","coordinates":[112.94861300000002,28.202658400000075]},"properties":{"OBJECTID":114,"名称":"乐旋乒乓球(长沙缤纷荟店)","类型":"体育休闲服务;运动场馆;乒乓球馆","地址":"溁湾路与银盆南路交叉口西北120米","经度":112.95408399999999,"纬度":28.199169000000001,"联系电话":"[]","人均消费":"377.00","综合评分":"2.6","WGS84_经度_高精度":112.94861299999999,"WGS84_纬度_高精度":28.202658400000001}},{"type":"Feature","id":115,"geometry":{"type":"Point","coordinates":[112.94861300000002,28.202658400000075]},"properties":{"OBJECTID":115,"名称":"寰球体育乒乓球俱乐部(长沙缤纷荟店)","类型":"体育休闲服务;体育休闲服务场所;体育休闲服务场所","地址":"望月湖街道缤纷荟商场二楼","经度":112.95408399999999,"纬度":28.199169000000001,"联系电话":"17860509711","人均消费":"361.00","综合评分":"3.9","WGS84_经度_高精度":112.94861299999999,"WGS84_纬度_高精度":28.202658400000001}},{"type":"Feature","id":116,"geometry":{"type":"Point","coordinates":[112.94149980000009,28.170760500000029]},"properties":{"OBJECTID":116,"名称":"猫町DIY手作工作室","类型":"体育休闲服务;休闲场所;休闲场所","地址":"长沙矿山研究院陈家湖小区西南门旁","经度":112.946951,"纬度":28.167259000000001,"联系电话":"15111232846","人均消费":"58.00","综合评分":"4.4","WGS84_经度_高精度":112.9414998,"WGS84_纬度_高精度":28.1707605}},{"type":"Feature","id":117,"geometry":{"type":"Point","coordinates":[112.94057690000011,28.170714100000055]},"properties":{"OBJECTID":117,"名称":"闲得慌diy手工坊(潇湘大厦店)","类型":"体育休闲服务;体育休闲服务场所;体育休闲服务场所","地址":"潇湘大厦(阜埠河路)2楼206号","经度":112.946026,"纬度":28.167211000000002,"联系电话":"[]","人均消费":"56.00","综合评分":"4.1","WGS84_经度_高精度":112.9405769,"WGS84_纬度_高精度":28.170714100000001}},{"type":"Feature","id":118,"geometry":{"type":"Point","coordinates":[112.94080940000003,28.170711700000027]},"properties":{"OBJECTID":118,"名称":"碰碰发24H自助棋牌室(潇湘大厦店)","类型":"体育休闲服务;体育休闲服务场所;体育休闲服务场所","地址":"桔子洲街道阜埠河路274号潇湘大厦2楼","经度":112.946259,"纬度":28.167209,"联系电话":"13667499406","人均消费":"18.00","综合评分":"4.4","WGS84_经度_高精度":112.94080940000001,"WGS84_纬度_高精度":28.170711699999998}},{"type":"Feature","id":119,"geometry":{"type":"Point","coordinates":[112.93743470000004,28.170916200000079]},"properties":{"OBJECTID":119,"名称":"碳酸CLUB社交酒馆(长沙首店)","类型":"体育休闲服务;娱乐场所;酒吧","地址":"桔子洲街道麓山南路236号","经度":112.942877,"纬度":28.167407999999998,"联系电话":"15898404542","人均消费":"87.00","综合评分":"3.9","WGS84_经度_高精度":112.9374347,"WGS84_纬度_高精度":28.170916200000001}},{"type":"Feature","id":120,"geometry":{"type":"Point","coordinates":[112.94085630000006,28.170659600000079]},"properties":{"OBJECTID":120,"名称":"星火乔氏台球俱乐部(大学城店)","类型":"体育休闲服务;运动场馆;台球厅","地址":"潇湘大厦东北门旁(阜埠河地铁站1号口步行130米)","经度":112.94630600000001,"纬度":28.167157,"联系电话":"19198040777","人均消费":"[]","综合评分":"4.4","WGS84_经度_高精度":112.94085629999999,"WGS84_纬度_高精度":28.1706596}},{"type":"Feature","id":121,"geometry":{"type":"Point","coordinates":[112.94057690000011,28.170714100000055]},"properties":{"OBJECTID":121,"名称":"闲得慌diy手工坊(潇湘大厦店)","类型":"体育休闲服务;体育休闲服务场所;体育休闲服务场所","地址":"潇湘大厦(阜埠河路)2楼206号","经度":112.946026,"纬度":28.167211000000002,"联系电话":"[]","人均消费":"56.00","综合评分":"4.1","WGS84_经度_高精度":112.9405769,"WGS84_纬度_高精度":28.170714100000001}},{"type":"Feature","id":122,"geometry":{"type":"Point","coordinates":[112.94080940000003,28.170711700000027]},"properties":{"OBJECTID":122,"名称":"碰碰发24H自助棋牌室(潇湘大厦店)","类型":"体育休闲服务;体育休闲服务场所;体育休闲服务场所","地址":"桔子洲街道阜埠河路274号潇湘大厦2楼","经度":112.946259,"纬度":28.167209,"联系电话":"13667499406","人均消费":"18.00","综合评分":"4.4","WGS84_经度_高精度":112.94080940000001,"WGS84_纬度_高精度":28.170711699999998}},{"type":"Feature","id":123,"geometry":{"type":"Point","coordinates":[112.93743470000004,28.170916200000079]},"properties":{"OBJECTID":123,"名称":"碳酸CLUB社交酒馆(长沙首店)","类型":"体育休闲服务;娱乐场所;酒吧","地址":"桔子洲街道麓山南路236号","经度":112.942877,"纬度":28.167407999999998,"联系电话":"15898404542","人均消费":"87.00","综合评分":"3.9","WGS84_经度_高精度":112.9374347,"WGS84_纬度_高精度":28.170916200000001}},{"type":"Feature","id":124,"geometry":{"type":"Point","coordinates":[112.94085630000006,28.170659600000079]},"properties":{"OBJECTID":124,"名称":"星火乔氏台球俱乐部(大学城店)","类型":"体育休闲服务;运动场馆;台球厅","地址":"潇湘大厦东北门旁(阜埠河地铁站1号口步行130米)","经度":112.94630600000001,"纬度":28.167157,"联系电话":"19198040777","人均消费":"[]","综合评分":"4.4","WGS84_经度_高精度":112.94085629999999,"WGS84_纬度_高精度":28.1706596}},{"type":"Feature","id":125,"geometry":{"type":"Point","coordinates":[112.93672210000011,28.17099840000003]},"properties":{"OBJECTID":125,"名称":"麻咖MaKa·高端棋牌室","类型":"体育休闲服务;娱乐场所;棋牌室","地址":"麓山南路与矿山路交叉口东北120米","经度":112.94216299999999,"纬度":28.167489,"联系电话":"15616229495","人均消费":"26.00","综合评分":"4.3","WGS84_经度_高精度":112.9367221,"WGS84_纬度_高精度":28.170998399999998}},{"type":"Feature","id":126,"geometry":{"type":"Point","coordinates":[112.93670220000001,28.170980400000076]},"properties":{"OBJECTID":126,"名称":"遇见后院游戏小屋Switch·Ps4·Ps5电玩(大学城店)","类型":"体育休闲服务;体育休闲服务场所;体育休闲服务场所","地址":"麓山南路与矿山路交叉口东北100米","经度":112.942143,"纬度":28.167470999999999,"联系电话":"0731-85778840","人均消费":"72.00","综合评分":"3.9","WGS84_经度_高精度":112.9367022,"WGS84_纬度_高精度":28.170980400000001}},{"type":"Feature","id":127,"geometry":{"type":"Point","coordinates":[112.93737680000004,28.170845300000053]},"properties":{"OBJECTID":127,"名称":"【壹鼎玩潮】7元桌游","类型":"体育休闲服务;娱乐场所;娱乐场所","地址":"向阳而生青年成长驿站","经度":112.942819,"纬度":28.167337,"联系电话":"13975844606","人均消费":"[]","综合评分":"3.2","WGS84_经度_高精度":112.9373768,"WGS84_纬度_高精度":28.1708453}},{"type":"Feature","id":128,"geometry":{"type":"Point","coordinates":[112.94094410000002,28.170583400000055]},"properties":{"OBJECTID":128,"名称":"大学生台球活动中心","类型":"体育休闲服务;运动场馆;台球厅","地址":"潇湘大厦东北门旁(阜埠河地铁站6号口步行180米)","经度":112.946394,"纬度":28.167081,"联系电话":"[]","人均消费":"[]","综合评分":"2.8","WGS84_经度_高精度":112.9409441,"WGS84_纬度_高精度":28.170583400000002}},{"type":"Feature","id":129,"geometry":{"type":"Point","coordinates":[112.93663430000004,28.170934500000044]},"properties":{"OBJECTID":129,"名称":"某某日游戏小屋","类型":"体育休闲服务;娱乐场所;游戏厅","地址":"麓山南路与矿山路交叉口东北100米","经度":112.942075,"纬度":28.167425000000001,"联系电话":"[]","人均消费":"41.00","综合评分":"3.7","WGS84_经度_高精度":112.93663429999999,"WGS84_纬度_高精度":28.170934500000001}},{"type":"Feature","id":130,"geometry":{"type":"Point","coordinates":[112.94910270000003,28.202813400000025]},"properties":{"OBJECTID":130,"名称":"妄境·沉浸式剧本体验馆(缤纷荟店)","类型":"体育休闲服务;娱乐场所;娱乐场所","地址":"银盆南路155号长沙绿地缤纷荟三楼","经度":112.95457500000001,"纬度":28.199325000000002,"联系电话":"17570308688","人均消费":"164.00","综合评分":"4.6","WGS84_经度_高精度":112.9491027,"WGS84_纬度_高精度":28.2028134}},{"type":"Feature","id":131,"geometry":{"type":"Point","coordinates":[112.93656750000002,28.170740600000045]},"properties":{"OBJECTID":131,"名称":"胡哒二店(原麻咖)","类型":"体育休闲服务;娱乐场所;娱乐场所","地址":"麓山南路与矿山路交叉口东北80米","经度":112.942008,"纬度":28.167231000000001,"联系电话":"[]","人均消费":"[]","综合评分":"3.0","WGS84_经度_高精度":112.9365675,"WGS84_纬度_高精度":28.170740599999998}},{"type":"Feature","id":132,"geometry":{"type":"Point","coordinates":[112.92221910000001,28.193473200000028]},"properties":{"OBJECTID":132,"名称":"麓山小隐","类型":"体育休闲服务;休闲场所;休闲场所","地址":"白云路茶场村2组","经度":112.927637,"纬度":28.189945000000002,"联系电话":"[]","人均消费":"[]","综合评分":"4.1","WGS84_经度_高精度":112.92221910000001,"WGS84_纬度_高精度":28.1934732}},{"type":"Feature","id":133,"geometry":{"type":"Point","coordinates":[112.94118550000007,28.170215000000042]},"properties":{"OBJECTID":133,"名称":"Z+健身(湖大天马店)","类型":"体育休闲服务;运动场馆;健身中心","地址":"阜埠河路天穆大酒店三楼","经度":112.946636,"纬度":28.166713000000001,"联系电话":"17098238686","人均消费":"735.00","综合评分":"4.4","WGS84_经度_高精度":112.9411855,"WGS84_纬度_高精度":28.170214999999999}},{"type":"Feature","id":134,"geometry":{"type":"Point","coordinates":[112.93152710000004,28.172141900000042]},"properties":{"OBJECTID":134,"名称":"火凤凰演艺","类型":"体育休闲服务;体育休闲服务场所;体育休闲服务场所","地址":"麓山南路与师南路交叉口西北380米","经度":112.936958,"纬度":28.168624999999999,"联系电话":"[]","人均消费":"[]","综合评分":"3.9","WGS84_经度_高精度":112.9315271,"WGS84_纬度_高精度":28.1721419}},{"type":"Feature","id":135,"geometry":{"type":"Point","coordinates":[112.9412913000001,28.170177800000033]},"properties":{"OBJECTID":135,"名称":"云弈自助台球俱乐部","类型":"体育休闲服务;运动场馆;台球厅","地址":"阜埠河路179号大学科技港F1层","经度":112.946742,"纬度":28.166675999999999,"联系电话":"[]","人均消费":"[]","综合评分":"4.2","WGS84_经度_高精度":112.9412913,"WGS84_纬度_高精度":28.170177800000001}},{"type":"Feature","id":136,"geometry":{"type":"Point","coordinates":[112.94914150000011,28.20317330000006]},"properties":{"OBJECTID":136,"名称":"小小沐台球棋牌俱乐部","类型":"体育休闲服务;运动场馆;台球厅","地址":"白沙液街麓山才苑南栋门面","经度":112.95461400000001,"纬度":28.199684999999999,"联系电话":"13874874158","人均消费":"[]","综合评分":"4.2","WGS84_经度_高精度":112.9491415,"WGS84_纬度_高精度":28.2031733}},{"type":"Feature","id":137,"geometry":{"type":"Point","coordinates":[112.9369617000001,28.170334900000057]},"properties":{"OBJECTID":137,"名称":"Sunny家小院","类型":"体育休闲服务;体育休闲服务场所;体育休闲服务场所","地址":"麓山南路345号矿山研究院一村2栋101","经度":112.942403,"纬度":28.166826,"联系电话":"[]","人均消费":"[]","综合评分":"3.5","WGS84_经度_高精度":112.9369617,"WGS84_纬度_高精度":28.1703349}},{"type":"Feature","id":138,"geometry":{"type":"Point","coordinates":[112.95666530000005,28.197582900000043]},"properties":{"OBJECTID":138,"名称":"恰同学少年青春剧场","类型":"体育休闲服务;影剧院;剧场","地址":"橘洲路2号(橘子洲·青莲地铁站入口步行180米)","经度":112.962158,"纬度":28.194110999999999,"联系电话":"16670157268","人均消费":"114.00","综合评分":"4.6","WGS84_经度_高精度":112.9566653,"WGS84_纬度_高精度":28.1975829}},{"type":"Feature","id":139,"geometry":{"type":"Point","coordinates":[112.95095380000009,28.202524600000061]},"properties":{"OBJECTID":139,"名称":"闪饮酒仓","类型":"体育休闲服务;娱乐场所;酒吧","地址":"湘江新区望月湖街道银盆南路江岸锦城商住小区7栋-1336","经度":112.95643099999999,"纬度":28.19904,"联系电话":"15107355733","人均消费":"[]","综合评分":"4.1","WGS84_经度_高精度":112.95095379999999,"WGS84_纬度_高精度":28.2025246}},{"type":"Feature","id":140,"geometry":{"type":"Point","coordinates":[112.93568830000004,28.170292900000049]},"properties":{"OBJECTID":140,"名称":"鸿宇台球俱乐部","类型":"体育休闲服务;运动场馆;台球厅","地址":"麓山南路560号二楼","经度":112.94112699999999,"纬度":28.166782000000001,"联系电话":"15576649059","人均消费":"20.00","综合评分":"4.3","WGS84_经度_高精度":112.9356883,"WGS84_纬度_高精度":28.1702929}},{"type":"Feature","id":141,"geometry":{"type":"Point","coordinates":[112.93644680000011,28.170100700000035]},"properties":{"OBJECTID":141,"名称":"长木手作","类型":"体育休闲服务;休闲场所;休闲场所","地址":"麓山南路与矿山路交叉口东60米","经度":112.94188699999999,"纬度":28.166591,"联系电话":"17673162892","人均消费":"75.00","综合评分":"4.2","WGS84_经度_高精度":112.9364468,"WGS84_纬度_高精度":28.170100699999999}},{"type":"Feature","id":142,"geometry":{"type":"Point","coordinates":[112.94189700000004,28.169640700000059]},"properties":{"OBJECTID":142,"名称":"三和台球馆(阜埠河店)","类型":"体育休闲服务;运动场馆;台球厅","地址":"大学科技港东北门东南100米(阜埠河地铁站1号口旁)","经度":112.947349,"纬度":28.166139999999999,"联系电话":"15115390209","人均消费":"[]","综合评分":"4.2","WGS84_经度_高精度":112.941897,"WGS84_纬度_高精度":28.169640699999999}},{"type":"Feature","id":143,"geometry":{"type":"Point","coordinates":[112.94971800000008,28.203532100000075]},"properties":{"OBJECTID":143,"名称":"狮语家瑜伽工作室","类型":"体育休闲服务;运动场馆;健身中心","地址":"望月湖街道银盆南路199号麓山才苑D栋15019室","经度":112.955192,"纬度":28.200044999999999,"联系电话":"15274878603;18507483737","人均消费":"140.00","综合评分":"3.8","WGS84_经度_高精度":112.949718,"WGS84_纬度_高精度":28.2035321}},{"type":"Feature","id":144,"geometry":{"type":"Point","coordinates":[112.95035430000007,28.20323680000007]},"properties":{"OBJECTID":144,"名称":"七悠球24h自助台球·棋牌(新外滩店)","类型":"体育休闲服务;运动场馆;台球厅","地址":"望月湖街道银盆南路新外滩江岸锦苑7栋2002号","经度":112.95583000000001,"纬度":28.199750999999999,"联系电话":"15111197927","人均消费":"[]","综合评分":"3.9","WGS84_经度_高精度":112.9503543,"WGS84_纬度_高精度":28.203236799999999}},{"type":"Feature","id":145,"geometry":{"type":"Point","coordinates":[112.93496870000001,28.170134000000076]},"properties":{"OBJECTID":145,"名称":"隐食居桌游派对","类型":"体育休闲服务;体育休闲服务场所;体育休闲服务场所","地址":"麓山南路580号长沙银行5楼","经度":112.940406,"纬度":28.166622,"联系电话":"15367904860","人均消费":"30.00","综合评分":"4.4","WGS84_经度_高精度":112.9349687,"WGS84_纬度_高精度":28.170134000000001}},{"type":"Feature","id":146,"geometry":{"type":"Point","coordinates":[112.93486000000007,28.170090100000039]},"properties":{"OBJECTID":146,"名称":"彩虹无忧运动康复中心","类型":"体育休闲服务;运动场馆;健身中心","地址":"麓山南路187号四楼","经度":112.940297,"纬度":28.166578000000001,"联系电话":"13272496421","人均消费":"[]","综合评分":"[]","WGS84_经度_高精度":112.93486,"WGS84_纬度_高精度":28.170090099999999}},{"type":"Feature","id":147,"geometry":{"type":"Point","coordinates":[112.94768820000002,28.204507300000046]},"properties":{"OBJECTID":147,"名称":"绿茵蓝天","类型":"体育休闲服务;休闲场所;休闲场所","地址":"望月湖街道白沙液街80号","经度":112.953157,"纬度":28.201015999999999,"联系电话":"13397515579","人均消费":"[]","综合评分":"3.8","WGS84_经度_高精度":112.9476882,"WGS84_纬度_高精度":28.2045073}},{"type":"Feature","id":148,"geometry":{"type":"Point","coordinates":[112.92683480000005,28.201061800000048]},"properties":{"OBJECTID":148,"名称":"湖南大学财院校区操场","类型":"体育休闲服务;运动场馆;运动场所","地址":"石佳冲路109号湖南大学(财院校区)","经度":112.93226,"纬度":28.197538000000002,"联系电话":"[]","人均消费":"[]","综合评分":"4.4","WGS84_经度_高精度":112.92683479999999,"WGS84_纬度_高精度":28.201061800000002}},{"type":"Feature","id":149,"geometry":{"type":"Point","coordinates":[112.93476020000003,28.169939200000044]},"properties":{"OBJECTID":149,"名称":"金属狗健身(长沙河西大学店)","类型":"体育休闲服务;运动场馆;健身中心","地址":"麓山南路584号2楼","经度":112.940197,"纬度":28.166426999999999,"联系电话":"[]","人均消费":"150.00","综合评分":"4.5","WGS84_经度_高精度":112.9347602,"WGS84_纬度_高精度":28.169939200000002}},{"type":"Feature","id":150,"geometry":{"type":"Point","coordinates":[112.94003120000002,28.16912590000004]},"properties":{"OBJECTID":150,"名称":"天马小剧场","类型":"体育休闲服务;影剧院;剧场","地址":"阜埠河路177号湖南大学天马学生公寓二食堂三楼","经度":112.94547900000001,"纬度":28.165621999999999,"联系电话":"[]","人均消费":"[]","综合评分":"4.0","WGS84_经度_高精度":112.94003120000001,"WGS84_纬度_高精度":28.169125900000001}},{"type":"Feature","id":151,"geometry":{"type":"Point","coordinates":[112.93492290000006,28.169723000000033]},"properties":{"OBJECTID":151,"名称":"Aqua阿夸·bar","类型":"体育休闲服务;娱乐场所;酒吧","地址":"麓山南路437号二楼","经度":112.94036,"纬度":28.166211000000001,"联系电话":"13581910923","人均消费":"78.00","综合评分":"4.5","WGS84_经度_高精度":112.9349229,"WGS84_纬度_高精度":28.169723000000001}},{"type":"Feature","id":152,"geometry":{"type":"Point","coordinates":[112.94342350000011,28.169187000000079]},"properties":{"OBJECTID":152,"名称":"忆年PS4·Switch游戏馆(天马大学城店)","类型":"体育休闲服务;娱乐场所;娱乐场所","地址":"天马路109号岳麓科教新村","经度":112.94887900000001,"纬度":28.165689,"联系电话":"17352813364","人均消费":"41.00","综合评分":"4.0","WGS84_经度_高精度":112.94342349999999,"WGS84_纬度_高精度":28.169187000000001}},{"type":"Feature","id":153,"geometry":{"type":"Point","coordinates":[112.94964320000008,28.20415330000003]},"properties":{"OBJECTID":153,"名称":"菲童乐园(溁湾镇店)","类型":"体育休闲服务;体育休闲服务场所;体育休闲服务场所","地址":"望月湖街道银盆南路199号新外滩","经度":112.955117,"纬度":28.200665999999998,"联系电话":"[]","人均消费":"[]","综合评分":"3.2","WGS84_经度_高精度":112.9496432,"WGS84_纬度_高精度":28.204153300000002}},{"type":"Feature","id":154,"geometry":{"type":"Point","coordinates":[112.93473820000008,28.169637300000034]},"properties":{"OBJECTID":154,"名称":"Bar potting破亭子酒吧(大学城店)","类型":"体育休闲服务;娱乐场所;酒吧","地址":"麓山南路与师南路交叉口东100米","经度":112.940175,"纬度":28.166125000000001,"联系电话":"[]","人均消费":"[]","综合评分":"4.0","WGS84_经度_高精度":112.9347382,"WGS84_纬度_高精度":28.169637300000002}},{"type":"Feature","id":155,"geometry":{"type":"Point","coordinates":[112.94841030000009,28.204754800000046]},"properties":{"OBJECTID":155,"名称":"麻将娱乐","类型":"体育休闲服务;娱乐场所;棋牌室","地址":"月宫街与杜家塘路交叉口西南40米","经度":112.953881,"纬度":28.201264999999999,"联系电话":"[]","人均消费":"[]","综合评分":"2.4","WGS84_经度_高精度":112.94841030000001,"WGS84_纬度_高精度":28.2047548}},{"type":"Feature","id":156,"geometry":{"type":"Point","coordinates":[112.93427010000005,28.169686900000045]},"properties":{"OBJECTID":156,"名称":"四个朋友(师大体育学院店)","类型":"体育休闲服务;娱乐场所;棋牌室","地址":"麓山南路616号","经度":112.939706,"纬度":28.166174000000002,"联系电话":"[]","人均消费":"28.00","综合评分":"4.2","WGS84_经度_高精度":112.93427010000001,"WGS84_纬度_高精度":28.169686899999999}},{"type":"Feature","id":157,"geometry":{"type":"Point","coordinates":[112.93420030000004,28.169698000000039]},"properties":{"OBJECTID":157,"名称":"南山南pub音乐酒馆","类型":"体育休闲服务;体育休闲服务场所;体育休闲服务场所","地址":"麓山南路614号三楼","经度":112.93963599999999,"纬度":28.166184999999999,"联系电话":"18569321377","人均消费":"[]","综合评分":"2.6","WGS84_经度_高精度":112.9342003,"WGS84_纬度_高精度":28.169698}},{"type":"Feature","id":158,"geometry":{"type":"Point","coordinates":[112.94885020000004,28.204845900000066]},"properties":{"OBJECTID":158,"名称":"富香棋牌室","类型":"体育休闲服务;娱乐场所;棋牌室","地址":"望月湖第二小学东北1门西南150米","经度":112.954322,"纬度":28.201357000000002,"联系电话":"13142022856","人均消费":"[]","综合评分":"2.6","WGS84_经度_高精度":112.9488502,"WGS84_纬度_高精度":28.204845899999999}},{"type":"Feature","id":159,"geometry":{"type":"Point","coordinates":[112.92130940000004,28.179203500000028]},"properties":{"OBJECTID":159,"名称":"碰碰發自助棋牌室","类型":"体育休闲服务;娱乐场所;棋牌室","地址":"玉兰路与学海路交叉口西北280米","经度":112.926725,"纬度":28.175674999999998,"联系电话":"[]","人均消费":"21.00","综合评分":"2.5","WGS84_经度_高精度":112.9213094,"WGS84_纬度_高精度":28.1792035}},{"type":"Feature","id":160,"geometry":{"type":"Point","coordinates":[112.93650680000007,28.206120000000055]},"properties":{"OBJECTID":160,"名称":"WOLLUP滑板公园","类型":"体育休闲服务;体育休闲服务场所;体育休闲服务场所","地址":"咸嘉湖景区(西湖公园地铁站2号口步行130米)","经度":112.94195000000001,"纬度":28.202608999999999,"联系电话":"13723877536","人均消费":"[]","综合评分":"4.1","WGS84_经度_高精度":112.9365068,"WGS84_纬度_高精度":28.206119999999999}},{"type":"Feature","id":161,"geometry":{"type":"Point","coordinates":[112.93650680000007,28.206120000000055]},"properties":{"OBJECTID":161,"名称":"WOLLUP滑板公园","类型":"体育休闲服务;体育休闲服务场所;体育休闲服务场所","地址":"咸嘉湖景区(西湖公园地铁站2号口步行130米)","经度":112.94195000000001,"纬度":28.202608999999999,"联系电话":"13723877536","人均消费":"[]","综合评分":"4.1","WGS84_经度_高精度":112.9365068,"WGS84_纬度_高精度":28.206119999999999}},{"type":"Feature","id":162,"geometry":{"type":"Point","coordinates":[112.94946760000005,28.204838700000039]},"properties":{"OBJECTID":162,"名称":"曼8台球俱乐部(溁湾镇店)","类型":"体育休闲服务;运动场馆;台球厅","地址":"银盆南路229号岳麓现代城PX10","经度":112.95494100000001,"纬度":28.201350999999999,"联系电话":"19174111124","人均消费":"[]","综合评分":"4.2","WGS84_经度_高精度":112.94946760000001,"WGS84_纬度_高精度":28.2048387}},{"type":"Feature","id":163,"geometry":{"type":"Point","coordinates":[112.94632550000006,28.205909000000077]},"properties":{"OBJECTID":163,"名称":"溁嚞楼","类型":"体育休闲服务;体育休闲服务场所;体育休闲服务场所","地址":"望月湖街道望月湖小区附25号","经度":112.951791,"纬度":28.202414999999998,"联系电话":"[]","人均消费":"[]","综合评分":"4.2","WGS84_经度_高精度":112.9463255,"WGS84_纬度_高精度":28.205908999999998}},{"type":"Feature","id":164,"geometry":{"type":"Point","coordinates":[112.9267837000001,28.202331900000047]},"properties":{"OBJECTID":164,"名称":"湖南大学财院校区体育馆","类型":"体育休闲服务;运动场馆;综合体育馆","地址":"石佳冲路109湖南大学北校区内","经度":112.932209,"纬度":28.198808,"联系电话":"[]","人均消费":"[]","综合评分":"4.5","WGS84_经度_高精度":112.9267837,"WGS84_纬度_高精度":28.202331900000001}},{"type":"Feature","id":165,"geometry":{"type":"Point","coordinates":[112.94730990000005,28.169265600000074]},"properties":{"OBJECTID":165,"名称":"千体体育","类型":"体育休闲服务;体育休闲服务场所;体育休闲服务场所","地址":"潇湘中路与南湖路隧道交叉口西北200米","经度":112.952775,"纬度":28.165775,"联系电话":"[]","人均消费":"[]","综合评分":"2.6","WGS84_经度_高精度":112.94730989999999,"WGS84_纬度_高精度":28.169265599999999}},{"type":"Feature","id":166,"geometry":{"type":"Point","coordinates":[112.92318720000003,28.175985600000047]},"properties":{"OBJECTID":166,"名称":"中南健身","类型":"体育休闲服务;运动场馆;健身中心","地址":"中南大学三舍对面","经度":112.928605,"纬度":28.172459,"联系电话":"[]","人均消费":"[]","综合评分":"4.4","WGS84_经度_高精度":112.9231872,"WGS84_纬度_高精度":28.175985600000001}},{"type":"Feature","id":167,"geometry":{"type":"Point","coordinates":[112.92155920000005,28.178153200000054]},"properties":{"OBJECTID":167,"名称":"Rlt瑞雷特台球","类型":"体育休闲服务;运动场馆;台球厅","地址":"玉兰路与学海路交叉口西北180米","经度":112.926975,"纬度":28.174624999999999,"联系电话":"[]","人均消费":"[]","综合评分":"3.1","WGS84_经度_高精度":112.9215592,"WGS84_纬度_高精度":28.178153200000001}},{"type":"Feature","id":168,"geometry":{"type":"Point","coordinates":[112.93369630000007,28.169198700000038]},"properties":{"OBJECTID":168,"名称":"野·自由24小时健身(麓山南路店)","类型":"体育休闲服务;运动场馆;健身中心","地址":"麓山南路与德智园路交叉口体育学院北2门","经度":112.939131,"纬度":28.165685,"联系电话":"16674221777","人均消费":"35.00","综合评分":"4.5","WGS84_经度_高精度":112.93369629999999,"WGS84_纬度_高精度":28.169198699999999}},{"type":"Feature","id":169,"geometry":{"type":"Point","coordinates":[112.93345770000008,28.169200100000069]},"properties":{"OBJECTID":169,"名称":"梦幻缘电竞馆(悦购广场店)","类型":"体育休闲服务;娱乐场所;网吧","地址":"麓山南路505号","经度":112.938892,"纬度":28.165686000000001,"联系电话":"17375789738","人均消费":"16.00","综合评分":"4.3","WGS84_经度_高精度":112.93345770000001,"WGS84_纬度_高精度":28.169200100000001}},{"type":"Feature","id":170,"geometry":{"type":"Point","coordinates":[112.93722630000002,28.206657900000039]},"properties":{"OBJECTID":170,"名称":"CAMP4岩肆","类型":"体育休闲服务;娱乐场所;酒吧","地址":"西湖公园inpark商场一层D03-2","经度":112.942671,"纬度":28.203147999999999,"联系电话":"17773160630","人均消费":"[]","综合评分":"4.6","WGS84_经度_高精度":112.93722630000001,"WGS84_纬度_高精度":28.2066579}},{"type":"Feature","id":171,"geometry":{"type":"Point","coordinates":[112.93430610000007,28.168873900000051]},"properties":{"OBJECTID":171,"名称":"湖南师范大学(南院校区)体育学院体育馆","类型":"体育休闲服务;运动场馆;综合体育馆","地址":"湖南师范大学体育学院德智园","经度":112.939742,"纬度":28.165361000000001,"联系电话":"[]","人均消费":"46.00","综合评分":"4.3","WGS84_经度_高精度":112.9343061,"WGS84_纬度_高精度":28.168873900000001}},{"type":"Feature","id":172,"geometry":{"type":"Point","coordinates":[112.93369030000008,28.169018700000038]},"properties":{"OBJECTID":172,"名称":"鸿宇台球俱乐部(德智园店)","类型":"体育休闲服务;运动场馆;台球厅","地址":"湘江新区桔子洲街道德智园街4号门面","经度":112.939125,"纬度":28.165505,"联系电话":"15576649059","人均消费":"[]","综合评分":"4.4","WGS84_经度_高精度":112.93369029999999,"WGS84_纬度_高精度":28.169018699999999}},{"type":"Feature","id":173,"geometry":{"type":"Point","coordinates":[112.94441410000002,28.206672600000047]},"properties":{"OBJECTID":173,"名称":"小戴棋牌室","类型":"体育休闲服务;娱乐场所;棋牌室","地址":"白沙液街与先锋街交叉口东南40米","经度":112.94987500000001,"纬度":28.203175000000002,"联系电话":"[]","人均消费":"[]","综合评分":"2.2","WGS84_经度_高精度":112.9444141,"WGS84_纬度_高精度":28.206672600000001}},{"type":"Feature","id":174,"geometry":{"type":"Point","coordinates":[112.93613750000009,28.206681600000024]},"properties":{"OBJECTID":174,"名称":"EchoTennis裕强网球馆(西湖公园店)","类型":"体育休闲服务;运动场馆;网球场","地址":"西湖文化园南侧大汉友阿INPark一层C31","经度":112.94158,"纬度":28.20317,"联系电话":"19310107389","人均消费":"[]","综合评分":"4.4","WGS84_经度_高精度":112.9361375,"WGS84_纬度_高精度":28.2066816}},{"type":"Feature","id":175,"geometry":{"type":"Point","coordinates":[112.93530220000002,28.168470400000047]},"properties":{"OBJECTID":175,"名称":"湖南师范大学(南院校区)田径场","类型":"体育休闲服务;运动场馆;运动场所","地址":"师南路湖南师范大学体育学院","经度":112.94074000000001,"纬度":28.164959,"联系电话":"13272073883","人均消费":"[]","综合评分":"4.4","WGS84_经度_高精度":112.9353022,"WGS84_纬度_高精度":28.1684704}},{"type":"Feature","id":176,"geometry":{"type":"Point","coordinates":[112.93312040000001,28.169031500000074]},"properties":{"OBJECTID":176,"名称":"label音乐吧(悦购广场店)","类型":"体育休闲服务;体育休闲服务场所;体育休闲服务场所","地址":"麓山南路521号","经度":112.938554,"纬度":28.165517000000001,"联系电话":"18274845548","人均消费":"43.00","综合评分":"4.6","WGS84_经度_高精度":112.93312040000001,"WGS84_纬度_高精度":28.169031499999999}},{"type":"Feature","id":177,"geometry":{"type":"Point","coordinates":[112.91877920000002,28.183628800000065]},"properties":{"OBJECTID":177,"名称":"奇遇定向","类型":"体育休闲服务;休闲场所;休闲场所|购物服务;购物相关场所;购物相关场所","地址":"西二环一段760号桃花村瓜瓢山","经度":112.92419200000001,"纬度":28.180098000000001,"联系电话":"18627577577","人均消费":"[]","综合评分":"3.5","WGS84_经度_高精度":112.9187792,"WGS84_纬度_高精度":28.183628800000001}},{"type":"Feature","id":178,"geometry":{"type":"Point","coordinates":[112.93660550000004,28.206866900000023]},"properties":{"OBJECTID":178,"名称":"莫问酒集·不止精酿(西湖店)","类型":"体育休闲服务;娱乐场所;酒吧","地址":"湘江新区西湖街道嘉欣社区枫林一路720号咸嘉湖景区5号底下车库及配套商业大汉友阿D区1层D01、D02A前1区","经度":112.942049,"纬度":28.203355999999999,"联系电话":"[]","人均消费":"88.00","综合评分":"3.2","WGS84_经度_高精度":112.9366055,"WGS84_纬度_高精度":28.206866900000001}},{"type":"Feature","id":179,"geometry":{"type":"Point","coordinates":[112.93201940000006,28.169322600000044]},"properties":{"OBJECTID":179,"名称":"智娱智乐·24h自助棋牌(麓山南路店)","类型":"体育休闲服务;娱乐场所;棋牌室","地址":"麓山南路147号","经度":112.937451,"纬度":28.165807000000001,"联系电话":"17673141633","人均消费":"9.00","综合评分":"3.9","WGS84_经度_高精度":112.9320194,"WGS84_纬度_高精度":28.169322600000001}},{"type":"Feature","id":180,"geometry":{"type":"Point","coordinates":[112.93660250000005,28.206950900000038]},"properties":{"OBJECTID":180,"名称":"赤焰拳巢","类型":"体育休闲服务;运动场馆;运动场所","地址":"咸嘉湖景区内(南侧)","经度":112.942046,"纬度":28.203440000000001,"联系电话":"13237479631;15243633772","人均消费":"[]","综合评分":"4.1","WGS84_经度_高精度":112.93660250000001,"WGS84_纬度_高精度":28.206950899999999}},{"type":"Feature","id":181,"geometry":{"type":"Point","coordinates":[112.93660250000005,28.206950900000038]},"properties":{"OBJECTID":181,"名称":"赤焰拳巢","类型":"体育休闲服务;运动场馆;运动场所","地址":"咸嘉湖景区内(南侧)","经度":112.942046,"纬度":28.203440000000001,"联系电话":"13237479631;15243633772","人均消费":"[]","综合评分":"4.1","WGS84_经度_高精度":112.93660250000001,"WGS84_纬度_高精度":28.206950899999999}},{"type":"Feature","id":182,"geometry":{"type":"Point","coordinates":[112.93665240000007,28.206971800000076]},"properties":{"OBJECTID":182,"名称":"嗨烦·HEY FAN BAR","类型":"体育休闲服务;娱乐场所;酒吧","地址":"枫林一路720号大汉友阿C19号","经度":112.94209600000001,"纬度":28.203461000000001,"联系电话":"18890358485","人均消费":"91.00","综合评分":"2.8","WGS84_经度_高精度":112.9366524,"WGS84_纬度_高精度":28.206971800000002}},{"type":"Feature","id":183,"geometry":{"type":"Point","coordinates":[112.94342360000007,28.167888900000037]},"properties":{"OBJECTID":183,"名称":"琉星手作灯工玻璃艺术手工坊","类型":"体育休闲服务;休闲场所;休闲场所","地址":"桔子洲街道阜埠河139锦绣潇湘文化创意产业园北车西头B1-1","经度":112.94887900000001,"纬度":28.164390999999998,"联系电话":"15657951377","人均消费":"128.00","综合评分":"4.2","WGS84_经度_高精度":112.9434236,"WGS84_纬度_高精度":28.167888900000001}},{"type":"Feature","id":184,"geometry":{"type":"Point","coordinates":[112.93503470000007,28.206688200000031]},"properties":{"OBJECTID":184,"名称":"昔年燕雨沉浸式剧场","类型":"体育休闲服务;影剧院;剧场","地址":"枫林一路与白云路交叉口北100米(西湖公园3号地铁口出口对面)","经度":112.94047500000001,"纬度":28.203175000000002,"联系电话":"15574880898","人均消费":"[]","综合评分":"4.1","WGS84_经度_高精度":112.9350347,"WGS84_纬度_高精度":28.206688199999999}},{"type":"Feature","id":185,"geometry":{"type":"Point","coordinates":[112.92101290000005,28.17783570000006]},"properties":{"OBJECTID":185,"名称":"四个朋友·24h自助棋牌室(中南大学后街店)","类型":"体育休闲服务;娱乐场所;棋牌室","地址":"麓山南路932号北校区143号二楼","经度":112.926428,"纬度":28.174306999999999,"联系电话":"15616808500","人均消费":"20.00","综合评分":"4.1","WGS84_经度_高精度":112.92101289999999,"WGS84_纬度_高精度":28.177835699999999}},{"type":"Feature","id":186,"geometry":{"type":"Point","coordinates":[112.94427140000005,28.207020900000032]},"properties":{"OBJECTID":186,"名称":"寻梦网咖(先锋街店)","类型":"体育休闲服务;娱乐场所;网吧","地址":"白沙液街226号","经度":112.949732,"纬度":28.203523000000001,"联系电话":"13308481840","人均消费":"14.00","综合评分":"4.4","WGS84_经度_高精度":112.94427140000001,"WGS84_纬度_高精度":28.2070209}},{"type":"Feature","id":187,"geometry":{"type":"Point","coordinates":[112.92089910000004,28.177982800000052]},"properties":{"OBJECTID":187,"名称":"新世界网吧(中南大学店)","类型":"体育休闲服务;娱乐场所;网吧","地址":"西二环桃花村瓜瓢山组出租房143号","经度":112.926314,"纬度":28.174454000000001,"联系电话":"[]","人均消费":"[]","综合评分":"3.8","WGS84_经度_高精度":112.9208991,"WGS84_纬度_高精度":28.177982799999999}},{"type":"Feature","id":188,"geometry":{"type":"Point","coordinates":[112.9182737000001,28.185016200000064]},"properties":{"OBJECTID":188,"名称":"石里奥农家乐","类型":"体育休闲服务;休闲场所;休闲场所|餐饮服务;餐饮相关场所;餐饮相关","地址":"西二环桃花村石岭坳组","经度":112.923686,"纬度":28.181484999999999,"联系电话":"13975857422;15387527989","人均消费":"75.00","综合评分":"4.4","WGS84_经度_高精度":112.9182737,"WGS84_纬度_高精度":28.1850162}},{"type":"Feature","id":189,"geometry":{"type":"Point","coordinates":[112.92089210000006,28.177844800000059]},"properties":{"OBJECTID":189,"名称":"麻界24H自助棋牌(中南学友店)","类型":"体育休闲服务;娱乐场所;棋牌室","地址":"桃花岭村瓜瓢山组68号二楼","经度":112.92630699999999,"纬度":28.174316000000001,"联系电话":"[]","人均消费":"[]","综合评分":"4.1","WGS84_经度_高精度":112.9208921,"WGS84_纬度_高精度":28.177844799999999}},{"type":"Feature","id":190,"geometry":{"type":"Point","coordinates":[112.9210389000001,28.177570700000047]},"properties":{"OBJECTID":190,"名称":"新天地左左网吧","类型":"体育休闲服务;娱乐场所;网吧","地址":"913终点站坡上中南大学后街","经度":112.92645400000001,"纬度":28.174042,"联系电话":"[]","人均消费":"[]","综合评分":"4.1","WGS84_经度_高精度":112.9210389,"WGS84_纬度_高精度":28.1775707}},{"type":"Feature","id":191,"geometry":{"type":"Point","coordinates":[112.93195950000006,28.169089100000065]},"properties":{"OBJECTID":191,"名称":"飞跃switch·ps5游戏馆(大学城店)","类型":"体育休闲服务;娱乐场所;游戏厅","地址":"麓山南路与楚怡路交叉口东北100米694","经度":112.93739100000001,"纬度":28.165572999999998,"联系电话":"15386429727","人均消费":"27.00","综合评分":"4.1","WGS84_经度_高精度":112.9319595,"WGS84_纬度_高精度":28.169089100000001}},{"type":"Feature","id":192,"geometry":{"type":"Point","coordinates":[112.93136360000005,28.169226900000069]},"properties":{"OBJECTID":192,"名称":"今日暴富棋牌室","类型":"体育休闲服务;娱乐场所;棋牌室","地址":"麓山南路724号二楼(CoCo奶茶店正对面巷内)","经度":112.93679400000001,"纬度":28.165710000000001,"联系电话":"19892887896","人均消费":"22.00","综合评分":"2.6","WGS84_经度_高精度":112.9313636,"WGS84_纬度_高精度":28.169226900000002}},{"type":"Feature","id":193,"geometry":{"type":"Point","coordinates":[112.9348351000001,28.206938500000035]},"properties":{"OBJECTID":193,"名称":"IRONMAN(铁人)运动康复(西湖公园店)","类型":"体育休闲服务;运动场馆;健身中心","地址":"西湖街道嘉兴社区枫林一路720号5号地下车库及配套商业-101大汉友阿B区一层B04-2号商铺","经度":112.940275,"纬度":28.203424999999999,"联系电话":"[]","人均消费":"[]","综合评分":"4.1","WGS84_经度_高精度":112.9348351,"WGS84_纬度_高精度":28.2069385}},{"type":"Feature","id":194,"geometry":{"type":"Point","coordinates":[112.91886030000001,28.193700100000058]},"properties":{"OBJECTID":194,"名称":"麓山泉湘西之家","类型":"体育休闲服务;体育休闲服务场所;体育休闲服务场所","地址":"西湖街道茶场村白云路805号","经度":112.924274,"纬度":28.190169000000001,"联系电话":"13237482000;13922233116","人均消费":"67.00","综合评分":"4.1","WGS84_经度_高精度":112.91886030000001,"WGS84_纬度_高精度":28.193700100000001}},{"type":"Feature","id":195,"geometry":{"type":"Point","coordinates":[112.93993460000002,28.167385000000024]},"properties":{"OBJECTID":195,"名称":"不够艺术咖啡馆","类型":"体育休闲服务;休闲场所;休闲场所|餐饮服务;餐饮相关场所;餐饮相关","地址":"后湖国际艺术园A区10栋2号典藏映像艺术馆旁","经度":112.945382,"纬度":28.163881,"联系电话":"15226382046","人均消费":"28.00","综合评分":"4.5","WGS84_经度_高精度":112.9399346,"WGS84_纬度_高精度":28.167384999999999}},{"type":"Feature","id":196,"geometry":{"type":"Point","coordinates":[112.91987730000005,28.178977700000075]},"properties":{"OBJECTID":196,"名称":"湘麓电竞馆(桃花岭店)","类型":"体育休闲服务;娱乐场所;网吧","地址":"岳麓街道桃花岭村瓜飘山组116号(中南大学本部后街)附近","经度":112.925291,"纬度":28.175447999999999,"联系电话":"15802555988;18173165721","人均消费":"[]","综合评分":"4.3","WGS84_经度_高精度":112.9198773,"WGS84_纬度_高精度":28.178977700000001}},{"type":"Feature","id":197,"geometry":{"type":"Point","coordinates":[112.9508538,28.205500800000038]},"properties":{"OBJECTID":197,"名称":"英子麻将馆","类型":"体育休闲服务;娱乐场所;棋牌室","地址":"溁湾镇湖东社区三片区","经度":112.95633100000001,"纬度":28.202016,"联系电话":"15200904226","人均消费":"27.00","综合评分":"3.0","WGS84_经度_高精度":112.9508538,"WGS84_纬度_高精度":28.205500799999999}},{"type":"Feature","id":198,"geometry":{"type":"Point","coordinates":[112.93543390000002,28.207187700000077]},"properties":{"OBJECTID":198,"名称":"FUN-BOOM运动生活空间","类型":"体育休闲服务;运动场馆;健身中心","地址":"咸嘉湖景区(西湖公园地铁站3号口步行280米)","经度":112.94087500000001,"纬度":28.203675,"联系电话":"[]","人均消费":"[]","综合评分":"3.5","WGS84_经度_高精度":112.93543390000001,"WGS84_纬度_高精度":28.207187699999999}},{"type":"Feature","id":199,"geometry":{"type":"Point","coordinates":[112.93516340000008,28.207191100000045]},"properties":{"OBJECTID":199,"名称":"领客西湖全民水上运动基地","类型":"体育休闲服务;休闲场所;水上活动中心","地址":"西湖公园地铁站4号口步行260米","经度":112.94060399999999,"纬度":28.203678,"联系电话":"18874878866","人均消费":"[]","综合评分":"4.4","WGS84_经度_高精度":112.93516339999999,"WGS84_纬度_高精度":28.207191099999999}},{"type":"Feature","id":200,"geometry":{"type":"Point","coordinates":[112.93075780000004,28.205831100000069]},"properties":{"OBJECTID":200,"名称":"长沙市讲武堂散打搏击健身馆","类型":"体育休闲服务;运动场馆;运动场所","地址":"枫林一路575号(西湖公园地铁站4号口步行380米)","经度":112.93619,"纬度":28.202311999999999,"联系电话":"[]","人均消费":"[]","综合评分":"3.9","WGS84_经度_高精度":112.93075779999999,"WGS84_纬度_高精度":28.205831100000001}}]
}