{"type":"FeatureCollection","features":[{"type":"Feature","id":0,"geometry":{"type":"Point","coordinates":[112.94030710000004,28.188733400000046]},"properties":{"FID":0,"名称":"陶妹餐馆","类型":"餐饮服务;餐饮相关场所;餐饮相关","地址":"向阳路与桂花路交叉口西南100米","联系电":"[]","人均消":"26","综合评":4.4000000000000004,"WGS84_经":112.9403071,"WGS84_纬":28.1887334,"图片":"./images/shop/陶妹餐馆.jpg"}},{"type":"Feature","id":1,"geometry":{"type":"Point","coordinates":[112.94144870000002,28.186499300000037]},"properties":{"FID":1,"名称":"好吃粉面馆","类型":"餐饮服务;中餐厅;中餐厅","地址":"木兰路与麓山路交叉口西80米","联系电":"[]","人均消":"[]","综合评":2.5,"WGS84_经":112.9414487,"WGS84_纬":28.186499300000001,"图片":"./images/shop/好吃粉面馆.jpg"}},{"type":"Feature","id":2,"geometry":{"type":"Point","coordinates":[112.94018930000004,28.188790600000061]},"properties":{"FID":2,"名称":"爱怡花甲","类型":"餐饮服务;餐饮相关场所;餐饮相关","地址":"向阳路与桂花路交叉口西南100米","联系电":"[]","人均消":"21","综合评":2.1000000000000001,"WGS84_经":112.9401893,"WGS84_纬":28.188790600000001,"图片":"./images/shop/爱怡花甲.jpg"}},{"type":"Feature","id":3,"geometry":{"type":"Point","coordinates":[112.94164610000007,28.188478000000032]},"properties":{"FID":3,"名称":"湖南师范大学-清真餐厅","类型":"餐饮服务;中餐厅;湖南菜(湘菜)","地址":"木兰路与向阳路交叉口南80米","联系电":"18620637771","人均消":"15","综合评":4.0999999999999996,"WGS84_经":112.9416461,"WGS84_纬":28.188478,"图片":"./images/shop/湖南师范大学-清真餐厅.jpg"}},{"type":"Feature","id":4,"geometry":{"type":"Point","coordinates":[112.94160020000004,28.188563100000067]},"properties":{"FID":4,"名称":"瑞幸咖啡(湖南师范大学学生活动中心店)","类型":"餐饮服务;咖啡厅;咖啡厅","地址":"麓山路36号湖南师范大学活动中心底商","联系电":"4000100100","人均消":"12","综合评":4.2999999999999998,"WGS84_经":112.9416002,"WGS84_纬":28.1885631,"图片":"./images/shop/瑞幸咖啡(湖南师范大学学生活动中心店).jpg"}},{"type":"Feature","id":5,"geometry":{"type":"Point","coordinates":[112.9402252000001,28.188979500000073]},"properties":{"FID":5,"名称":"师大湘味人间餐厅","类型":"餐饮服务;中餐厅;中餐厅","地址":"湖南师范大学师大幼儿园向阳村29号","联系电":"15898509759;19911301499","人均消":"22","综合评":3.7999999999999998,"WGS84_经":112.9402252,"WGS84_纬":28.188979499999999,"图片":"./images/shop/师大湘味人间餐厅.jpg"}},{"type":"Feature","id":6,"geometry":{"type":"Point","coordinates":[112.94152230000009,28.188777300000027]},"properties":{"FID":6,"名称":"泡椒米线","类型":"餐饮服务;中餐厅;中餐厅","地址":"木兰路与向阳路交叉口南40米","联系电":"[]","人均消":"[]","综合评":2.8999999999999999,"WGS84_经":112.9415223,"WGS84_纬":28.188777300000002,"图片":"./images/shop/泡椒米线.jpg"}},{"type":"Feature","id":7,"geometry":{"type":"Point","coordinates":[112.94156620000001,28.188793200000077]},"properties":{"FID":7,"名称":"湖南师范大学(二里半校区)-兰桂苑炒锅土豆粉","类型":"餐饮服务;餐饮相关场所;餐饮相关","地址":"麓山路36号湖南师范大学","联系电":"[]","人均消":"[]","综合评":3.5,"WGS84_经":112.9415662,"WGS84_纬":28.188793199999999,"图片":"./images/shop/湖南师范大学(二里半校区)-兰桂苑炒锅土豆粉.jpg"}},{"type":"Feature","id":8,"geometry":{"type":"Point","coordinates":[112.94152230000009,28.188827300000071]},"properties":{"FID":8,"名称":"卤德漫热卤拌饭","类型":"餐饮服务;快餐厅;快餐厅|餐饮服务;中餐厅;中餐厅","地址":"木兰路与向阳路交叉口西南40米","联系电":"[]","人均消":"14","综合评":2.5,"WGS84_经":112.9415223,"WGS84_纬":28.1888273,"图片":"./images/shop/卤德漫热卤拌饭.jpg"}},{"type":"Feature","id":9,"geometry":{"type":"Point","coordinates":[112.94047460000002,28.189129100000059]},"properties":{"FID":9,"名称":"闻香不赖辣椒炒肉","类型":"餐饮服务;中餐厅;中餐厅","地址":"向阳路与桂花路交叉口西南60米","联系电":"[]","人均消":"[]","综合评":3.1000000000000001,"WGS84_经":112.9404746,"WGS84_纬":28.189129099999999,"图片":"./images/shop/闻香不赖辣椒炒肉.jpg"}},{"type":"Feature","id":10,"geometry":{"type":"Point","coordinates":[112.94155320000004,28.18889020000006]},"properties":{"FID":10,"名称":"民族餐厅","类型":"餐饮服务;快餐厅;快餐厅","地址":"木兰路与向阳路交叉口西南20米","联系电":"[]","人均消":"[]","综合评":3,"WGS84_经":112.9415532,"WGS84_纬":28.188890199999999,"图片":"./images/shop/民族餐厅.jpg"}},{"type":"Feature","id":11,"geometry":{"type":"Point","coordinates":[112.94060830000001,28.189164900000037]},"properties":{"FID":11,"名称":"学友饭店","类型":"餐饮服务;中餐厅;中餐厅","地址":"湖南师范大学本部(近幼儿园/佳园餐厅)","联系电":"[]","人均消":"29","综合评":4.0999999999999996,"WGS84_经":112.94060829999999,"WGS84_纬":28.189164900000002,"图片":"./images/shop/学友饭店.jpg"}},{"type":"Feature","id":12,"geometry":{"type":"Point","coordinates":[112.9415901000001,28.188920200000041]},"properties":{"FID":12,"名称":"肯德基(湖南师范大学店)","类型":"餐饮服务;快餐厅;肯德基","地址":"麓山路36号湖南师范大学兰桂苑食堂1层","联系电":"[]","人均消":"17","综合评":3.8999999999999999,"WGS84_经":112.9415901,"WGS84_纬":28.188920199999998,"图片":"./images/shop/肯德基(湖南师范大学店).jpg"}},{"type":"Feature","id":13,"geometry":{"type":"Point","coordinates":[112.94047460000002,28.189279100000078]},"properties":{"FID":13,"名称":"川渝凉面","类型":"餐饮服务;中餐厅;中餐厅","地址":"麓山南路205号(湖南师大地铁站2号口步行310米)","联系电":"[]","人均消":"[]","综合评":2.7999999999999998,"WGS84_经":112.9404746,"WGS84_纬":28.1892791,"图片":"./images/shop/川渝凉面.jpg"}},{"type":"Feature","id":14,"geometry":{"type":"Point","coordinates":[112.94220590000009,28.186282000000062]},"properties":{"FID":14,"名称":"瑞幸咖啡(湖南师大凤凰山店)","类型":"餐饮服务;咖啡厅;咖啡厅","地址":"麓山路第22栋一层102号商铺","联系电":"4000100100","人均消":"13","综合评":4.4000000000000004,"WGS84_经":112.9422059,"WGS84_纬":28.186281999999999,"图片":"./images/shop/瑞幸咖啡(湖南师大凤凰山店).jpg"}},{"type":"Feature","id":15,"geometry":{"type":"Point","coordinates":[112.9421152000001,28.186174100000073]},"properties":{"FID":15,"名称":"柒号粉铺(湖南师范大学湖南大学地铁站长沙玖慕悦颜酒店店)","类型":"餐饮服务;中餐厅;中餐厅","地址":"麓山路291号(湖南大学地铁站4号口步行220米)","联系电":"18973159677","人均消":"23","综合评":4.2000000000000002,"WGS84_经":112.9421152,"WGS84_纬":28.186174099999999,"图片":"./images/shop/柒号粉铺(湖南师范大学湖南大学地铁站长沙玖慕悦颜酒店店).jpg"}},{"type":"Feature","id":16,"geometry":{"type":"Point","coordinates":[112.94210720000001,28.186123100000032]},"properties":{"FID":16,"名称":"热卤现捞","类型":"餐饮服务;餐饮相关场所;餐饮相关","地址":"麓山路与木兰路交叉口南60米","联系电":"[]","人均消":"[]","综合评":2.1000000000000001,"WGS84_经":112.9421072,"WGS84_纬":28.1861231,"图片":"./images/shop/热卤现捞.jpg"}},{"type":"Feature","id":17,"geometry":{"type":"Point","coordinates":[112.94210720000001,28.186000100000058]},"properties":{"FID":17,"名称":"本色酸奶屋","类型":"餐饮服务;甜品店;甜品店","地址":"麓山路265号","联系电":"19074958392","人均消":"8","综合评":3.7000000000000002,"WGS84_经":112.9421072,"WGS84_纬":28.186000100000001,"图片":"./images/shop/本色酸奶屋.jpg"}},{"type":"Feature","id":18,"geometry":{"type":"Point","coordinates":[112.94175800000005,28.185720700000047]},"properties":{"FID":18,"名称":"兰州牛肉拉面(麓山路店)","类型":"餐饮服务;中餐厅;清真菜馆","地址":"湖南师范大学工程与设计学院服装设计系东南门旁","联系电":"13054082424;15167998375","人均消":"27","综合评":3.8999999999999999,"WGS84_经":112.94175799999999,"WGS84_纬":28.185720700000001,"图片":"./images/shop/兰州牛肉拉面(麓山路店).jpg"}},{"type":"Feature","id":19,"geometry":{"type":"Point","coordinates":[112.94155720000003,28.189378200000078]},"properties":{"FID":19,"名称":"次元茶咖","类型":"餐饮服务;冷饮店;冷饮店","地址":"湖南师范大学教育阳光服务中心西门南80米","联系电":"[]","人均消":"18","综合评":3.2000000000000002,"WGS84_经":112.94155720000001,"WGS84_纬":28.1893782,"图片":"./images/shop/次元茶咖.jpg"}},{"type":"Feature","id":20,"geometry":{"type":"Point","coordinates":[112.93928160000007,28.185510900000054]},"properties":{"FID":20,"名称":"湖南大学第四食堂","类型":"餐饮服务;中餐厅;中餐厅","地址":"麓山南路2号湖南大学15舍一楼","联系电":"[]","人均消":"19","综合评":4.5,"WGS84_经":112.9392816,"WGS84_纬":28.185510900000001,"图片":"./images/shop/湖南大学第四食堂.jpg"}},{"type":"Feature","id":21,"geometry":{"type":"Point","coordinates":[112.94154550000007,28.18526410000004]},"properties":{"FID":21,"名称":"have acake(湖大店)","类型":"餐饮服务;糕饼店;糕饼店","地址":"麓山路313号(湖南大学地铁站4号口步行90米)","联系电":"15873726875","人均消":"39","综合评":4.4000000000000004,"WGS84_经":112.9415455,"WGS84_纬":28.185264100000001,"图片":"./images/shop/have acake(湖大店).jpg"}},{"type":"Feature","id":22,"geometry":{"type":"Point","coordinates":[112.94422310000004,28.187121400000024]},"properties":{"FID":22,"名称":"星巴克(长沙桃子湖店)","类型":"餐饮服务;咖啡厅;星巴克咖啡","地址":"桃子湖路47号桃子湖文化创意产业园A1栋第一层","联系电":"0731-85594770","人均消":"30","综合评":4.5999999999999996,"WGS84_经":112.9442231,"WGS84_纬":28.187121399999999,"图片":"./images/shop/星巴克(长沙桃子湖店).jpg"}},{"type":"Feature","id":23,"geometry":{"type":"Point","coordinates":[112.94397760000004,28.188992900000073]},"properties":{"FID":23,"名称":"红火家菜馆(师大店)","类型":"餐饮服务;中餐厅;中餐厅","地址":"湖南师范大学图书馆后街","联系电":"18390848150","人均消":"80","综合评":4.5999999999999996,"WGS84_经":112.9439776,"WGS84_纬":28.188992899999999,"图片":"./images/shop/红火家菜馆(师大店).jpg"}},{"type":"Feature","id":24,"geometry":{"type":"Point","coordinates":[112.94406040000001,28.188838700000076]},"properties":{"FID":24,"名称":"邵阳餐馆","类型":"餐饮服务;中餐厅;中餐厅","地址":"桃子湖路与麓山路交叉口东北180米","联系电":"18207414679","人均消":"23","综合评":3.8999999999999999,"WGS84_经":112.9440604,"WGS84_纬":28.188838700000002,"图片":"./images/shop/邵阳餐馆.jpg"}},{"type":"Feature","id":25,"geometry":{"type":"Point","coordinates":[112.9423263000001,28.190556900000047]},"properties":{"FID":25,"名称":"印象校园咖啡摄影","类型":"餐饮服务;咖啡厅;咖啡厅|餐饮服务;冷饮店;冷饮店","地址":"麓山路278号湖南师范大学地铁线1号出口处","联系电":"13723866799","人均消":"38","综合评":4.0999999999999996,"WGS84_经":112.9423263,"WGS84_纬":28.190556900000001,"图片":"./images/shop/印象校园咖啡摄影.jpg"}},{"type":"Feature","id":26,"geometry":{"type":"Point","coordinates":[112.94415120000008,28.188795600000049]},"properties":{"FID":26,"名称":"幸福园家菜馆","类型":"餐饮服务;中餐厅;中餐厅","地址":"湖南师大江湾体育场东门","联系电":"13667366425","人均消":"23","综合评":3.7999999999999998,"WGS84_经":112.94415119999999,"WGS84_纬":28.188795599999999,"图片":"./images/shop/幸福园家菜馆.jpg"}},{"type":"Feature","id":27,"geometry":{"type":"Point","coordinates":[112.93663010000012,28.186184200000071]},"properties":{"FID":27,"名称":"老屋家厨","类型":"餐饮服务;餐饮相关场所;餐饮相关","地址":"湖南大学红叶楼14栋后","联系电":"18008437381","人均消":"63","综合评":4.4000000000000004,"WGS84_经":112.9366301,"WGS84_纬":28.1861842,"图片":"./images/shop/老屋家厨.jpg"}},{"type":"Feature","id":28,"geometry":{"type":"Point","coordinates":[112.93666510000003,28.186088200000029]},"properties":{"FID":28,"名称":"煦小院·茶","类型":"餐饮服务;中餐厅;中餐厅","地址":"湖南大学红叶楼13号楼102","联系电":"18975840527","人均消":"77","综合评":4.2999999999999998,"WGS84_经":112.9366651,"WGS84_纬":28.1860882,"图片":"./images/shop/煦小院·茶.jpg"}},{"type":"Feature","id":29,"geometry":{"type":"Point","coordinates":[112.94481470000005,28.186771200000067]},"properties":{"FID":29,"名称":"佳宜咖啡","类型":"餐饮服务;咖啡厅;咖啡厅","地址":"桃子湖路与麓山路交叉口东220米","联系电":"[]","人均消":"34","综合评":2.7000000000000002,"WGS84_经":112.94481469999999,"WGS84_纬":28.186771199999999,"图片":"./images/shop/佳宜咖啡.jpg"}},{"type":"Feature","id":30,"geometry":{"type":"Point","coordinates":[112.94461230000002,28.186052600000039]},"properties":{"FID":30,"名称":"求是茶咖(湖南师大店)","类型":"餐饮服务;茶艺馆;茶艺馆","地址":"桔子洲街道湖南师大桃子湖双创基地A3-4-2","联系电":"19907329456","人均消":"14","综合评":4.2000000000000002,"WGS84_经":112.9446123,"WGS84_纬":28.1860526,"图片":"./images/shop/求是茶咖(湖南师大店).jpg"}},{"type":"Feature","id":31,"geometry":{"type":"Point","coordinates":[112.94402130000003,28.190673900000036]},"properties":{"FID":31,"名称":"匠心卤(湖南师范大学江边食堂店)","类型":"餐饮服务;快餐厅;快餐厅","地址":"麓山路36号湖南师范大学二里半校区","联系电":"4006898598","人均消":"15","综合评":3.6000000000000001,"WGS84_经":112.9440213,"WGS84_纬":28.1906739,"图片":"./images/shop/匠心卤(湖南师范大学江边食堂店).jpg"}},{"type":"Feature","id":32,"geometry":{"type":"Point","coordinates":[112.94568850000007,28.187450600000034]},"properties":{"FID":32,"名称":"乐麓山·芒果饮品(湖南师大店)","类型":"餐饮服务;冷饮店;冷饮店","地址":"桃子图路50号(湖南师大附属中学旁)","联系电":"15084918572","人均消":"73","综合评":4,"WGS84_经":112.9456885,"WGS84_纬":28.187450599999998,"图片":"./images/shop/乐麓山·芒果饮品(湖南师大店).jpg"}},{"type":"Feature","id":33,"geometry":{"type":"Point","coordinates":[112.94569050000007,28.187379600000043]},"properties":{"FID":33,"名称":"蜜雪冰城(湖南师范大学店)","类型":"餐饮服务;冷饮店;冷饮店","地址":"湖南师范大学附属中学南门旁","联系电":"[]","人均消":"14","综合评":4.0999999999999996,"WGS84_经":112.9456905,"WGS84_纬":28.1873796,"图片":"./images/shop/蜜雪冰城(湖南师范大学店).jpg"}},{"type":"Feature","id":34,"geometry":{"type":"Point","coordinates":[112.94599580000011,28.187429000000066]},"properties":{"FID":34,"名称":"书亦烧仙草(长沙师大附中店)","类型":"餐饮服务;冷饮店;冷饮店","地址":"桃子湖路48号(湖南师大地铁站2号口步行480米)","联系电":"18673172705","人均消":"12","综合评":4.5,"WGS84_经":112.94599580000001,"WGS84_纬":28.187429000000002,"图片":"./images/shop/书亦烧仙草(长沙师大附中店).jpg"}},{"type":"Feature","id":35,"geometry":{"type":"Point","coordinates":[112.94611250000003,28.18784080000006]},"properties":{"FID":35,"名称":"思恬豆花(师大店)","类型":"餐饮服务;中餐厅;中餐厅","地址":"青山路永青路10号","联系电":"[]","人均消":"12","综合评":3.6000000000000001,"WGS84_经":112.9461125,"WGS84_纬":28.1878408,"图片":"./images/shop/思恬豆花(师大店).jpg"}},{"type":"Feature","id":36,"geometry":{"type":"Point","coordinates":[112.94612140000004,28.187777800000049]},"properties":{"FID":36,"名称":"天怡寿司师大附中店","类型":"餐饮服务;外国餐厅;日本料理","地址":"桃子湖路与学堂坡路交叉口西北180米","联系电":"[]","人均消":"[]","综合评":2.6000000000000001,"WGS84_经":112.9461214,"WGS84_纬":28.187777799999999,"图片":"./images/shop/天怡寿司师大附中店.jpg"}},{"type":"Feature","id":37,"geometry":{"type":"Point","coordinates":[112.94616040000005,28.187503700000036]},"properties":{"FID":37,"名称":"老王饼屋","类型":"餐饮服务;餐饮相关场所;餐饮相关","地址":"湖南师范大学附属中学南门旁","联系电":"[]","人均消":"[]","综合评":2.5,"WGS84_经":112.9461604,"WGS84_纬":28.187503700000001,"图片":"./images/shop/老王饼屋.jpg"}},{"type":"Feature","id":38,"geometry":{"type":"Point","coordinates":[112.94616740000004,28.187548700000036]},"properties":{"FID":38,"名称":"瑞幸咖啡(湖南师大附中店)","类型":"餐饮服务;咖啡厅;咖啡厅","地址":"桃子湖路44号","联系电":"4000100100","人均消":"13","综合评":4.2000000000000002,"WGS84_经":112.94616739999999,"WGS84_纬":28.187548700000001,"图片":"./images/shop/瑞幸咖啡(湖南师大附中店).jpg"}},{"type":"Feature","id":39,"geometry":{"type":"Point","coordinates":[112.94616330000008,28.187815700000044]},"properties":{"FID":39,"名称":"老北京煎饼果子","类型":"餐饮服务;中餐厅;中餐厅","地址":"桃子湖路与学堂坡路交叉口西北180米","联系电":"[]","人均消":"10","综合评":2,"WGS84_经":112.94616329999999,"WGS84_纬":28.187815700000002,"图片":"./images/shop/老北京煎饼果子.jpg"}},{"type":"Feature","id":40,"geometry":{"type":"Point","coordinates":[112.94620120000002,28.187827700000071]},"properties":{"FID":40,"名称":"湖南师范大学(二里半校区)-煎饼果子","类型":"餐饮服务;中餐厅;中餐厅","地址":"桃子湖路与学堂坡路交叉口西北180米","联系电":"[]","人均消":"14","综合评":3.8999999999999999,"WGS84_经":112.9462012,"WGS84_纬":28.1878277,"图片":"./images/shop/湖南师范大学(二里半校区)-煎饼果子.jpg"}},{"type":"Feature","id":41,"geometry":{"type":"Point","coordinates":[112.94627910000008,28.187594500000046]},"properties":{"FID":41,"名称":"渝霖炸鸡腿(师大附中店)","类型":"餐饮服务;快餐厅;快餐厅","地址":"橘子洲街道学堂坡巷2-5号","联系电":"[]","人均消":"[]","综合评":2.7999999999999998,"WGS84_经":112.9462791,"WGS84_纬":28.187594499999999,"图片":"./images/shop/渝霖炸鸡腿(师大附中店).jpg"}},{"type":"Feature","id":42,"geometry":{"type":"Point","coordinates":[112.94631000000004,28.187724400000036]},"properties":{"FID":42,"名称":"卤味套餐饭","类型":"餐饮服务;快餐厅;快餐厅","地址":"桔子洲街道学堂坡巷10号南向第五间","联系电":"15388083580","人均消":"[]","综合评":2.7000000000000002,"WGS84_经":112.94631,"WGS84_纬":28.1877244,"图片":"./images/shop/卤味套餐饭.jpg"}},{"type":"Feature","id":43,"geometry":{"type":"Point","coordinates":[112.94637180000007,28.188136300000053]},"properties":{"FID":43,"名称":"膳当家黄焖鸡米饭(湖南师大店)","类型":"餐饮服务;中餐厅;中餐厅","地址":"橘子洲街道张家坪68号","联系电":"15367829976","人均消":"22","综合评":4,"WGS84_经":112.94637179999999,"WGS84_纬":28.1881363,"图片":"./images/shop/膳当家黄焖鸡米饭(湖南师大店).jpg"}},{"type":"Feature","id":44,"geometry":{"type":"Point","coordinates":[112.94642770000007,28.187658200000044]},"properties":{"FID":44,"名称":"樱桃小丸子餐厅(师大店)","类型":"餐饮服务;中餐厅;中餐厅","地址":"湖南师范大学附属中学南门东70米","联系电":"18373142853","人均消":"15","综合评":3.8999999999999999,"WGS84_经":112.9464277,"WGS84_纬":28.187658200000001,"图片":"./images/shop/樱桃小丸子餐厅(师大店).jpg"}},{"type":"Feature","id":45,"geometry":{"type":"Point","coordinates":[112.94640070000003,28.188166300000034]},"properties":{"FID":45,"名称":"开心铁板屋(师大店)","类型":"餐饮服务;中餐厅;中餐厅","地址":"桃子湖路与学堂坡路交叉口西北180米","联系电":"15575107214","人均消":"13","综合评":3.3999999999999999,"WGS84_经":112.9464007,"WGS84_纬":28.188166299999999,"图片":"./images/shop/开心铁板屋(师大店).jpg"}},{"type":"Feature","id":46,"geometry":{"type":"Point","coordinates":[112.94647160000011,28.187853100000041]},"properties":{"FID":46,"名称":"鲁阿姨淮南牛肉汤(师大店)","类型":"餐饮服务;中餐厅;中餐厅","地址":"师范大学附属中学旁边小吃街80米","联系电":"13278871238;17755524983","人均消":"13","综合评":4.2000000000000002,"WGS84_经":112.9464716,"WGS84_纬":28.187853100000002,"图片":"./images/shop/鲁阿姨淮南牛肉汤(师大店).jpg"}},{"type":"Feature","id":47,"geometry":{"type":"Point","coordinates":[112.94647250000003,28.188095100000055]},"properties":{"FID":47,"名称":"兰州牛肉拉面新疆大盘鸡","类型":"餐饮服务;中餐厅;清真菜馆","地址":"桔子洲街道张家平68号","联系电":"15597290543","人均消":"22","综合评":3.7000000000000002,"WGS84_经":112.9464725,"WGS84_纬":28.188095100000002,"图片":"./images/shop/兰州牛肉拉面新疆大盘鸡.jpg"}},{"type":"Feature","id":48,"geometry":{"type":"Point","coordinates":[112.94638070000008,28.188639300000034]},"properties":{"FID":48,"名称":"辣风芹新疆炒米粉","类型":"餐饮服务;餐饮相关场所;餐饮相关","地址":"桃子湖路42号","联系电":"19091942015","人均消":"24","综合评":4.2999999999999998,"WGS84_经":112.94638070000001,"WGS84_纬":28.188639299999998,"图片":"./images/shop/辣风芹新疆炒米粉.jpg"}},{"type":"Feature","id":49,"geometry":{"type":"Point","coordinates":[112.94646460000001,28.188267200000041]},"properties":{"FID":49,"名称":"正忠盐酥鸡猪脚饭","类型":"餐饮服务;中餐厅;中餐厅","地址":"桔子洲街道张家坪38号","联系电":"13469070140","人均消":"15","综合评":3.3999999999999999,"WGS84_经":112.9464646,"WGS84_纬":28.188267199999999,"图片":"./images/shop/正忠盐酥鸡猪脚饭.jpg"}},{"type":"Feature","id":50,"geometry":{"type":"Point","coordinates":[112.9464895000001,28.188153100000079]},"properties":{"FID":50,"名称":"小地锅传奇(湖南师范大学店)","类型":"餐饮服务;中餐厅;中餐厅","地址":"桃子湖路与学堂坡路交叉口西北180米","联系电":"[]","人均消":"32","综合评":3.2000000000000002,"WGS84_经":112.9464895,"WGS84_纬":28.188153100000001,"图片":"./images/shop/小地锅传奇(湖南师范大学店).jpg"}},{"type":"Feature","id":51,"geometry":{"type":"Point","coordinates":[112.94647250000003,28.18833520000004]},"properties":{"FID":51,"名称":"红鼎小火锅","类型":"餐饮服务;中餐厅;火锅店","地址":"学堂坡路与爱民路交叉口西南180米","联系电":"[]","人均消":"[]","综合评":1.8999999999999999,"WGS84_经":112.9464725,"WGS84_纬":28.188335200000001,"图片":"./images/shop/红鼎小火锅.jpg"}},{"type":"Feature","id":52,"geometry":{"type":"Point","coordinates":[112.94647050000003,28.188350200000059]},"properties":{"FID":52,"名称":"斗鸣鸡公煲(师大店)","类型":"餐饮服务;餐饮相关场所;餐饮相关","地址":"桔子洲街道学堂坡社区张家坪3号附2号","联系电":"13517314362","人均消":"26","综合评":3.7999999999999998,"WGS84_经":112.9464705,"WGS84_纬":28.188350199999999,"图片":"./images/shop/斗鸣鸡公煲(师大店).jpg"}},{"type":"Feature","id":53,"geometry":{"type":"Point","coordinates":[112.94649350000009,28.188395100000037]},"properties":{"FID":53,"名称":"老长沙炒卤","类型":"餐饮服务;餐饮相关场所;餐饮相关","地址":"学堂坡15号附3号","联系电":"[]","人均消":"[]","综合评":3.6000000000000001,"WGS84_经":112.9464935,"WGS84_纬":28.188395100000001,"图片":"./images/shop/老长沙炒卤.jpg"}},{"type":"Feature","id":54,"geometry":{"type":"Point","coordinates":[112.94646250000005,28.188561200000038]},"properties":{"FID":54,"名称":"滋谣(湖南师范大学店)","类型":"餐饮服务;中餐厅;中餐厅","地址":"学堂坡巷16号","联系电":"15111470987","人均消":"16","综合评":2.3999999999999999,"WGS84_经":112.9464625,"WGS84_纬":28.188561199999999,"图片":"./images/shop/滋谣(湖南师范大学店).jpg"}},{"type":"Feature","id":55,"geometry":{"type":"Point","coordinates":[112.94652740000004,28.188464100000033]},"properties":{"FID":55,"名称":"隆兴烧鹅饭(师大店)","类型":"餐饮服务;中餐厅;中餐厅","地址":"橘子洲街道张家坪3号附6号门店","联系电":"18086365272","人均消":"18","综合评":3.3999999999999999,"WGS84_经":112.94652739999999,"WGS84_纬":28.188464100000001,"图片":"./images/shop/隆兴烧鹅饭(师大店).jpg"}},{"type":"Feature","id":56,"geometry":{"type":"Point","coordinates":[112.9465613000001,28.188551000000075]},"properties":{"FID":56,"名称":"阿元螺蛳粉(湖南师范大学店)","类型":"餐饮服务;中餐厅;中餐厅","地址":"桔子洲街道师大合作村张家坪7号七港九","联系电":"18674803525","人均消":"18","综合评":4.0999999999999996,"WGS84_经":112.9465613,"WGS84_纬":28.188551,"图片":"./images/shop/阿元螺蛳粉(湖南师范大学店).jpg"}},{"type":"Feature","id":57,"geometry":{"type":"Point","coordinates":[112.94658620000007,28.188659900000061]},"properties":{"FID":57,"名称":"重庆酸辣粉(师大附中店)","类型":"餐饮服务;中餐厅;四川菜(川菜)","地址":"桃子湖路湖南师大附中学堂坡巷21号","联系电":"[]","人均消":"[]","综合评":2.1000000000000001,"WGS84_经":112.9465862,"WGS84_纬":28.188659900000001,"图片":"./images/shop/重庆酸辣粉(师大附中店).jpg"}},{"type":"Feature","id":58,"geometry":{"type":"Point","coordinates":[112.93765730000007,28.182621500000039]},"properties":{"FID":58,"名称":"肯德基(长沙登高路店)","类型":"餐饮服务;快餐厅;肯德基","地址":"登高路(东方红广场后面岳麓山登山路口)","联系电":"4008823823","人均消":"29","综合评":4.5999999999999996,"WGS84_经":112.9376573,"WGS84_纬":28.1826215,"图片":"./images/shop/肯德基(长沙登高路店).jpg"}},{"type":"Feature","id":59,"geometry":{"type":"Point","coordinates":[112.9466321000001,28.188770900000065]},"properties":{"FID":59,"名称":"杨国福麻辣烫(湖南师范大学店)","类型":"餐饮服务;餐饮相关场所;餐饮相关","地址":"湖南师范大学附属中学油烟街爱民路125号","联系电":"[]","人均消":"25","综合评":4,"WGS84_经":112.9466321,"WGS84_纬":28.188770900000002,"图片":"./images/shop/杨国福麻辣烫(湖南师范大学店).jpg"}},{"type":"Feature","id":60,"geometry":{"type":"Point","coordinates":[112.94661910000002,28.188839900000062]},"properties":{"FID":60,"名称":"宋氏重庆鸡公煲(师大附中店)","类型":"餐饮服务;中餐厅;中餐厅","地址":"桔子洲街道麓山村张家坪42号一楼5号门面","联系电":"15679412885","人均消":"22","综合评":4.0999999999999996,"WGS84_经":112.94661910000001,"WGS84_纬":28.188839900000001,"图片":"./images/shop/宋氏重庆鸡公煲(师大附中店).jpg"}},{"type":"Feature","id":61,"geometry":{"type":"Point","coordinates":[112.93764830000009,28.182596500000045]},"properties":{"FID":61,"名称":"肯悦咖啡登高路店","类型":"餐饮服务;咖啡厅;咖啡厅","地址":"登高路10号一层商铺","联系电":"0731-85585297","人均消":"10","综合评":3.7000000000000002,"WGS84_经":112.93764830000001,"WGS84_纬":28.182596499999999,"图片":"./images/shop/肯悦咖啡登高路店.jpg"}},{"type":"Feature","id":62,"geometry":{"type":"Point","coordinates":[112.94669290000002,28.18886370000007]},"properties":{"FID":62,"名称":"正新鸡排(湖南师范大学店)","类型":"餐饮服务;餐饮相关场所;餐饮相关","地址":"桔子洲街道学堂坡社区居委会学堂坡巷23号","联系电":"15273315698","人均消":"13","综合评":3.7000000000000002,"WGS84_经":112.9466929,"WGS84_纬":28.188863699999999,"图片":"./images/shop/正新鸡排(湖南师范大学店).jpg"}},{"type":"Feature","id":63,"geometry":{"type":"Point","coordinates":[112.94670190000011,28.188872700000047]},"properties":{"FID":63,"名称":"湾仔广式糖水","类型":"餐饮服务;甜品店;甜品店","地址":"学堂坡路与爱民路交叉口西140米","联系电":"[]","人均消":"[]","综合评":2.7999999999999998,"WGS84_经":112.94670189999999,"WGS84_纬":28.188872700000001,"图片":"./images/shop/湾仔广式糖水.jpg"}},{"type":"Feature","id":64,"geometry":{"type":"Point","coordinates":[112.93758140000011,28.182541600000036]},"properties":{"FID":64,"名称":"柠季·手打柠檬茶(湖南大学店)","类型":"餐饮服务;休闲餐饮场所;休闲餐饮场所","地址":"登高路10号一层商铺","联系电":"13755052072","人均消":"14","综合评":3.8999999999999999,"WGS84_经":112.9375814,"WGS84_纬":28.1825416,"图片":"./images/shop/柠季·手打柠檬茶(湖南大学店).jpg"}},{"type":"Feature","id":65,"geometry":{"type":"Point","coordinates":[112.94301240000004,28.182290400000056]},"properties":{"FID":65,"名称":"湖南大学第三食堂","类型":"餐饮服务;餐饮相关场所;餐饮相关","地址":"牌楼路与麓山路交叉口东180米","联系电":"[]","人均消":"19","综合评":4.4000000000000004,"WGS84_经":112.9430124,"WGS84_纬":28.182290399999999,"图片":"./images/shop/湖南大学第三食堂.jpg"}},{"type":"Feature","id":66,"geometry":{"type":"Point","coordinates":[112.9375295000001,28.182504700000038]},"properties":{"FID":66,"名称":"金陵糍粑","类型":"餐饮服务;餐饮相关场所;餐饮相关","地址":"岳麓山南门登高路10号(工商银行旁)","联系电":"[]","人均消":"14","综合评":3.7000000000000002,"WGS84_经":112.9375295,"WGS84_纬":28.182504699999999,"图片":"./images/shop/金陵糍粑.jpg"}},{"type":"Feature","id":67,"geometry":{"type":"Point","coordinates":[112.93747770000004,28.182466700000077]},"properties":{"FID":67,"名称":"西北郎中国兰州拉面(湖南长沙登高路店)","类型":"餐饮服务;中餐厅;清真菜馆","地址":"湖南大学登高路西16号","联系电":"[]","人均消":"18","综合评":3.7999999999999998,"WGS84_经":112.9374777,"WGS84_纬":28.182466699999999,"图片":"./images/shop/西北郎中国兰州拉面(湖南长沙登高路店).jpg"}},{"type":"Feature","id":68,"geometry":{"type":"Point","coordinates":[112.93746570000008,28.182423700000072]},"properties":{"FID":68,"名称":"老上海馄饨铺(湖南大学店)","类型":"餐饮服务;中餐厅;中餐厅","地址":"橘子洲街道登高路12号","联系电":"13187039898","人均消":"23","综合评":3.7000000000000002,"WGS84_经":112.9374657,"WGS84_纬":28.182423700000001,"图片":"./images/shop/老上海馄饨铺(湖南大学店).jpg"}},{"type":"Feature","id":69,"geometry":{"type":"Point","coordinates":[112.93767720000005,28.182324400000027]},"properties":{"FID":69,"名称":"重庆酸辣粉(登高路店)","类型":"餐饮服务;中餐厅;四川菜(川菜)","地址":"登高路15号(湖南大学地铁站2号口步行350米)","联系电":"[]","人均消":"14","综合评":3.7999999999999998,"WGS84_经":112.9376772,"WGS84_纬":28.182324399999999,"图片":"./images/shop/重庆酸辣粉(登高路店).jpg"}},{"type":"Feature","id":70,"geometry":{"type":"Point","coordinates":[112.94685950000007,28.189017400000068]},"properties":{"FID":70,"名称":"永州米粉·卤粉·鱼粉","类型":"餐饮服务;中餐厅;中餐厅","地址":"学堂坡路与爱民路交叉口西120米","联系电":"[]","人均消":"[]","综合评":2.6000000000000001,"WGS84_经":112.9468595,"WGS84_纬":28.189017400000001,"图片":"./images/shop/永州米粉·卤粉·鱼粉.jpg"}},{"type":"Feature","id":71,"geometry":{"type":"Point","coordinates":[112.94309220000002,28.182171200000028]},"properties":{"FID":71,"名称":"瑞幸咖啡(湖南大学五食堂店)","类型":"餐饮服务;咖啡厅;咖啡厅","地址":"麓山南路2号湖南大学第五食堂三层101号","联系电":"4000100100","人均消":"12","综合评":4.2000000000000002,"WGS84_经":112.9430922,"WGS84_纬":28.182171199999999,"图片":"./images/shop/瑞幸咖啡(湖南大学五食堂店).jpg"}},{"type":"Feature","id":72,"geometry":{"type":"Point","coordinates":[112.94309220000002,28.182171200000028]},"properties":{"FID":72,"名称":"湖南大学第五食堂","类型":"餐饮服务;中餐厅;中餐厅","地址":"麓山南路2号湖南大学法学院附近","联系电":"13928417508","人均消":"14","综合评":4.5999999999999996,"WGS84_经":112.9430922,"WGS84_纬":28.182171199999999,"图片":"./images/shop/湖南大学第五食堂.jpg"}},{"type":"Feature","id":73,"geometry":{"type":"Point","coordinates":[112.94309620000001,28.18215820000006]},"properties":{"FID":73,"名称":"湖南大学学生六食堂","类型":"餐饮服务;餐饮相关场所;餐饮相关","地址":"牌楼路与麓山路交叉口东180米","联系电":"[]","人均消":"18","综合评":4.0999999999999996,"WGS84_经":112.9430962,"WGS84_纬":28.1821582,"图片":"./images/shop/湖南大学学生六食堂.jpg"}},{"type":"Feature","id":74,"geometry":{"type":"Point","coordinates":[112.94688640000004,28.189005400000042]},"properties":{"FID":74,"名称":"李记粥铺","类型":"餐饮服务;中餐厅;中餐厅","地址":"桔子洲街道勇哥麻辣烫大王(学堂坡店)湖南师范大学","联系电":"[]","人均消":"31","综合评":3.6000000000000001,"WGS84_经":112.9468864,"WGS84_纬":28.189005399999999,"图片":"./images/shop/李记粥铺.jpg"}},{"type":"Feature","id":75,"geometry":{"type":"Point","coordinates":[112.93762740000011,28.182296500000064]},"properties":{"FID":75,"名称":"醉爱鸭","类型":"餐饮服务;餐饮相关场所;餐饮相关","地址":"登高路27号(湖南大学地铁站2号口步行350米)","联系电":"[]","人均消":"36","综合评":3.3999999999999999,"WGS84_经":112.9376274,"WGS84_纬":28.1822965,"图片":"./images/shop/醉爱鸭.jpg"}},{"type":"Feature","id":76,"geometry":{"type":"Point","coordinates":[112.94702310000002,28.189081100000067]},"properties":{"FID":76,"名称":"倾心麻糍铺","类型":"餐饮服务;餐饮相关场所;餐饮相关","地址":"学堂坡巷25-6号","联系电":"[]","人均消":"[]","综合评":3.3999999999999999,"WGS84_经":112.9470231,"WGS84_纬":28.189081099999999,"图片":"./images/shop/倾心麻糍铺.jpg"}},{"type":"Feature","id":77,"geometry":{"type":"Point","coordinates":[112.94385060000002,28.192715300000032]},"properties":{"FID":77,"名称":"浅井泽田日料(师大店)","类型":"餐饮服务;外国餐厅;日本料理","地址":"麓山路175号(湖南师大地铁站1号口步行280米)","联系电":"17749688377","人均消":"30","综合评":4.2999999999999998,"WGS84_经":112.9438506,"WGS84_纬":28.1927153,"图片":"./images/shop/浅井泽田日料(师大店).jpg"}},{"type":"Feature","id":78,"geometry":{"type":"Point","coordinates":[112.94705500000009,28.189169100000072]},"properties":{"FID":78,"名称":"湘味小碗菜","类型":"餐饮服务;中餐厅;湖南菜(湘菜)","地址":"爱民路与学堂坡路交叉口西100米","联系电":"[]","人均消":"[]","综合评":3.2999999999999998,"WGS84_经":112.94705500000001,"WGS84_纬":28.189169100000001,"图片":"./images/shop/湘味小碗菜.jpg"}},{"type":"Feature","id":79,"geometry":{"type":"Point","coordinates":[112.93762340000001,28.182038500000033]},"properties":{"FID":79,"名称":"百泉一家打印社(湖南大学店)","类型":"餐饮服务;中餐厅;中餐厅","地址":"岳麓山风景名胜区南1门东140米","联系电":"[]","人均消":"[]","综合评":4.0999999999999996,"WGS84_经":112.93762340000001,"WGS84_纬":28.182038500000001,"图片":"./images/shop/百泉一家打印社(湖南大学店).jpg"}},{"type":"Feature","id":80,"geometry":{"type":"Point","coordinates":[112.93743280000001,28.182096800000068]},"properties":{"FID":80,"名称":"罗家臭豆腐","类型":"餐饮服务;餐饮相关场所;餐饮相关","地址":"登高路与麓山南路交叉口西南180米","联系电":"[]","人均消":"16","综合评":3.8999999999999999,"WGS84_经":112.9374328,"WGS84_纬":28.1820968,"图片":"./images/shop/罗家臭豆腐.jpg"}},{"type":"Feature","id":81,"geometry":{"type":"Point","coordinates":[112.93734700000005,28.182132900000056]},"properties":{"FID":81,"名称":"湘春酱板鸭(登高路店)","类型":"餐饮服务;餐饮相关场所;餐饮相关","地址":"登高路21-1(湖南大学地铁站2号口步行390米)","联系电":"17788916887","人均消":"68","综合评":3.8999999999999999,"WGS84_经":112.937347,"WGS84_纬":28.182132899999999,"图片":"./images/shop/湘春酱板鸭(登高路店).jpg"}},{"type":"Feature","id":82,"geometry":{"type":"Point","coordinates":[112.93710740000006,28.182227300000079]},"properties":{"FID":82,"名称":"虾鲜仙&手工虾滑(登高路店)","类型":"餐饮服务;中餐厅;中餐厅","地址":"桔子洲街道登高路24号","联系电":"18684686351","人均消":"23","综合评":3.7000000000000002,"WGS84_经":112.9371074,"WGS84_纬":28.182227300000001,"图片":"./images/shop/虾鲜仙&手工虾滑(登高路店).jpg"}},{"type":"Feature","id":83,"geometry":{"type":"Point","coordinates":[112.93712340000002,28.18221630000005]},"properties":{"FID":83,"名称":"杨裕兴(岳麓山店)","类型":"餐饮服务;中餐厅;老字号","地址":"湖南大学地铁站2号口步行400米","联系电":"[]","人均消":"28","综合评":4.2000000000000002,"WGS84_经":112.9371234,"WGS84_纬":28.1822163,"图片":"./images/shop/杨裕兴(岳麓山店).jpg"}},{"type":"Feature","id":84,"geometry":{"type":"Point","coordinates":[112.93736990000002,28.182075900000029]},"properties":{"FID":84,"名称":"帅哥烧饼","类型":"餐饮服务;中餐厅;中餐厅","地址":"登高路7号(中国工商银行对面)","联系电":"13782959957;18507315951","人均消":"13","综合评":4.5,"WGS84_经":112.93736989999999,"WGS84_纬":28.182075900000001,"图片":"./images/shop/帅哥烧饼.jpg"}},{"type":"Feature","id":85,"geometry":{"type":"Point","coordinates":[112.94719360000011,28.18928980000004]},"properties":{"FID":85,"名称":"胖子浏阳蒸菜馆(师大店)","类型":"餐饮服务;中餐厅;中餐厅","地址":"橘子洲街道学堂坡(江边宿舍对面)","联系电":"15084879290","人均消":"16","综合评":3.8999999999999999,"WGS84_经":112.94719360000001,"WGS84_纬":28.189289800000001,"图片":"./images/shop/胖子浏阳蒸菜馆(师大店).jpg"}},{"type":"Feature","id":86,"geometry":{"type":"Point","coordinates":[112.94729840000002,28.18908760000005]},"properties":{"FID":86,"名称":"勇哥麻辣烫大王(师大店)","类型":"餐饮服务;中餐厅;特色/地方风味餐厅","地址":"学堂坡路湖南师范大学","联系电":"17375739052;18874747321","人均消":"13","综合评":4.0999999999999996,"WGS84_经":112.94729839999999,"WGS84_纬":28.189087600000001,"图片":"./images/shop/勇哥麻辣烫大王(师大店).jpg"}},{"type":"Feature","id":87,"geometry":{"type":"Point","coordinates":[112.9373250000001,28.182003000000066]},"properties":{"FID":87,"名称":"湘菜馆","类型":"餐饮服务;中餐厅;湖南菜(湘菜)","地址":"登高路23号(湖南大学地铁站2号口步行400米)","联系电":"13739065985","人均消":"38","综合评":4.4000000000000004,"WGS84_经":112.937325,"WGS84_纬":28.182003000000002,"图片":"./images/shop/湘菜馆.jpg"}},{"type":"Feature","id":88,"geometry":{"type":"Point","coordinates":[112.93739690000007,28.181967800000052]},"properties":{"FID":88,"名称":"冰糖葫芦店","类型":"餐饮服务;餐饮相关场所;餐饮相关","地址":"登高路与麓山南路交叉口西南180米","联系电":"[]","人均消":"[]","综合评":0.29999999999999999,"WGS84_经":112.9373969,"WGS84_纬":28.181967799999999,"图片":"./images/shop/冰糖葫芦店.jpg"}},{"type":"Feature","id":89,"geometry":{"type":"Point","coordinates":[112.93729110000004,28.181998000000078]},"properties":{"FID":89,"名称":"湘年华金丝牛肉饼(岳麓店)","类型":"餐饮服务;中餐厅;中餐厅","地址":"湖南大学医院东南门东120米","联系电":"18373759886","人均消":"14","综合评":3.7999999999999998,"WGS84_经":112.9372911,"WGS84_纬":28.181998,"图片":"./images/shop/湘年华金丝牛肉饼(岳麓店).jpg"}},{"type":"Feature","id":90,"geometry":{"type":"Point","coordinates":[112.93699470000001,28.182132500000023]},"properties":{"FID":90,"名称":"瑞幸咖啡(岳麓山登高路店)","类型":"餐饮服务;餐饮相关场所;餐饮相关","地址":"登高路24号一层商铺","联系电":"4000100100","人均消":"13","综合评":4.5,"WGS84_经":112.9369947,"WGS84_纬":28.182132500000002,"图片":"./images/shop/瑞幸咖啡(岳麓山登高路店).jpg"}},{"type":"Feature","id":91,"geometry":{"type":"Point","coordinates":[112.93728210000006,28.181984000000057]},"properties":{"FID":91,"名称":"老湘菜","类型":"餐饮服务;中餐厅;湖南菜(湘菜)","地址":"登高路42号(湖南大学地铁站2号口步行450米)","联系电":"15388008835","人均消":"44","综合评":4.2999999999999998,"WGS84_经":112.9372821,"WGS84_纬":28.181984,"图片":"./images/shop/老湘菜.jpg"}},{"type":"Feature","id":92,"geometry":{"type":"Point","coordinates":[112.93725120000011,28.181971100000055]},"properties":{"FID":92,"名称":"茶颜悦色(登高路店)","类型":"餐饮服务;餐饮相关场所;餐饮相关","地址":"桔子洲街道登高路10号","联系电":"19176653032","人均消":"20","综合评":4.5999999999999996,"WGS84_经":112.93725120000001,"WGS84_纬":28.181971099999998,"图片":"./images/shop/茶颜悦色(登高路店).jpg"}},{"type":"Feature","id":93,"geometry":{"type":"Point","coordinates":[112.9371963000001,28.181984200000045]},"properties":{"FID":93,"名称":"臭名远扬臭豆腐登高路店","类型":"餐饮服务;餐饮相关场所;餐饮相关","地址":"桔子州街道登高路千惠超市旁25-1号","联系电":"18373759886;19108478688","人均消":"12","综合评":4.5,"WGS84_经":112.9371963,"WGS84_纬":28.181984199999999,"图片":"./images/shop/臭名远扬臭豆腐登高路店.jpg"}},{"type":"Feature","id":94,"geometry":{"type":"Point","coordinates":[112.93723920000002,28.181950100000051]},"properties":{"FID":94,"名称":"李喜欢手工虾滑(登高路店)","类型":"餐饮服务;餐饮相关场所;餐饮相关","地址":"登高路29号(湖南大学地铁站2号口步行410米)","联系电":"18207406816","人均消":"18","综合评":3.7999999999999998,"WGS84_经":112.93723919999999,"WGS84_纬":28.181950100000002,"图片":"./images/shop/李喜欢手工虾滑(登高路店).jpg"}},{"type":"Feature","id":95,"geometry":{"type":"Point","coordinates":[112.93724220000001,28.181926100000055]},"properties":{"FID":95,"名称":"麦当劳(登高路店)","类型":"餐饮服务;快餐厅;麦当劳","地址":"登高路45栋(湖南大学地铁站2号口步行410米)","联系电":"4008517517","人均消":"28","综合评":4.5,"WGS84_经":112.9372422,"WGS84_纬":28.181926099999998,"图片":"./images/shop/麦当劳(登高路店).jpg"}},{"type":"Feature","id":96,"geometry":{"type":"Point","coordinates":[112.93716340000003,28.181909200000064]},"properties":{"FID":96,"名称":"贵哥卤肉卷(岳麓山店)","类型":"餐饮服务;餐饮相关场所;餐饮相关","地址":"登高路45号(湖南大学地铁站2号口步行410米)","联系电":"[]","人均消":"14","综合评":3.8999999999999999,"WGS84_经":112.9371634,"WGS84_纬":28.1819092,"图片":"./images/shop/贵哥卤肉卷(岳麓山店).jpg"}},{"type":"Feature","id":97,"geometry":{"type":"Point","coordinates":[112.9475139000001,28.189056100000073]},"properties":{"FID":97,"名称":"火红经典炒饭(师大附中店)","类型":"餐饮服务;中餐厅;中餐厅","地址":"湖南师范大学马克思主义学院东南门西南240米","联系电":"13667339201","人均消":"14","综合评":3.2999999999999998,"WGS84_经":112.9475139,"WGS84_纬":28.189056099999998,"图片":"./images/shop/火红经典炒饭(师大附中店).jpg"}},{"type":"Feature","id":98,"geometry":{"type":"Point","coordinates":[112.93688290000011,28.182034600000065]},"properties":{"FID":98,"名称":"CHAGEE霸王茶姬(湖南大学登高路店)","类型":"餐饮服务;冷饮店;冷饮店","地址":"登高路4号","联系电":"19176691130","人均消":"20","综合评":4.2999999999999998,"WGS84_经":112.9368829,"WGS84_纬":28.182034600000001,"图片":"./images/shop/CHAGEE霸王茶姬(湖南大学登高路店).jpg"}},{"type":"Feature","id":99,"geometry":{"type":"Point","coordinates":[112.93682210000009,28.182042700000068]},"properties":{"FID":99,"名称":"和记美食(湖南大学医院急诊东)","类型":"餐饮服务;中餐厅;中餐厅","地址":"登高路36号(湖南大学地铁站2号口步行430米)","联系电":"[]","人均消":"23","综合评":3.7999999999999998,"WGS84_经":112.9368221,"WGS84_纬":28.1820427,"图片":"./images/shop/和记美食(湖南大学医院急诊东).jpg"}},{"type":"Feature","id":100,"geometry":{"type":"Point","coordinates":[112.93710350000003,28.181896300000062]},"properties":{"FID":100,"名称":"白色精品臭豆腐总店","类型":"餐饮服务;餐饮相关场所;餐饮相关","地址":"岳麓山南路登高路033号","联系电":"0731-82291338;15111106638","人均消":"11","综合评":4.0999999999999996,"WGS84_经":112.93710350000001,"WGS84_纬":28.181896299999998,"图片":"./images/shop/白色精品臭豆腐总店.jpg"}},{"type":"Feature","id":101,"geometry":{"type":"Point","coordinates":[112.93681910000009,28.182023700000059]},"properties":{"FID":101,"名称":"向群锅饺(登高路店)","类型":"餐饮服务;中餐厅;特色/地方风味餐厅","地址":"湖南大学登高路36号","联系电":"[]","人均消":"19","综合评":4.0999999999999996,"WGS84_经":112.93681909999999,"WGS84_纬":28.182023699999998,"图片":"./images/shop/向群锅饺(登高路店).jpg"}},{"type":"Feature","id":102,"geometry":{"type":"Point","coordinates":[112.94766350000009,28.189031900000032]},"properties":{"FID":102,"名称":"重庆抄手炸酱面(师大店)","类型":"餐饮服务;中餐厅;四川菜(川菜)","地址":"江边学生宿舍","联系电":"13017385028;15573150989","人均消":"13","综合评":3.8999999999999999,"WGS84_经":112.9476635,"WGS84_纬":28.1890319,"图片":"./images/shop/重庆抄手炸酱面(师大店).jpg"}},{"type":"Feature","id":103,"geometry":{"type":"Point","coordinates":[112.9476724000001,28.18905680000006]},"properties":{"FID":103,"名称":"三津汤包","类型":"餐饮服务;餐饮相关场所;餐饮相关","地址":"学堂坡路与爱民路交叉口西40米","联系电":"[]","人均消":"9","综合评":0.90000000000000002,"WGS84_经":112.9476724,"WGS84_纬":28.189056799999999,"图片":"./images/shop/三津汤包.jpg"}},{"type":"Feature","id":104,"geometry":{"type":"Point","coordinates":[112.93671730000005,28.181967900000075]},"properties":{"FID":104,"名称":"黑白电视(长沙大学城登高路店)","类型":"餐饮服务;餐饮相关场所;餐饮相关","地址":"登高路38号(湖南大学地铁站2号口步行450米)","联系电":"[]","人均消":"14","综合评":3.6000000000000001,"WGS84_经":112.9367173,"WGS84_纬":28.1819679,"图片":"./images/shop/黑白电视(长沙大学城登高路店).jpg"}},{"type":"Feature","id":105,"geometry":{"type":"Point","coordinates":[112.93674020000003,28.181899900000076]},"properties":{"FID":105,"名称":"蜜雪冰城(登高路店)","类型":"餐饮服务;餐饮相关场所;餐饮相关","地址":"桔子洲街道登高路42号","联系电":"[]","人均消":"8","综合评":4.5,"WGS84_经":112.9367402,"WGS84_纬":28.181899900000001,"图片":"./images/shop/蜜雪冰城(登高路店).jpg"}},{"type":"Feature","id":106,"geometry":{"type":"Point","coordinates":[112.94775920000006,28.18901070000004]},"properties":{"FID":106,"名称":"蜜雪冰城(湖南师范大学店)","类型":"餐饮服务;冷饮店;冷饮店","地址":"桔子洲街道学堂坡路26号师大田径场旁","联系电":"13691136930","人均消":"14","综合评":3.8999999999999999,"WGS84_经":112.94775919999999,"WGS84_纬":28.189010700000001,"图片":"./images/shop/蜜雪冰城(湖南师范大学店).jpg"}},{"type":"Feature","id":107,"geometry":{"type":"Point","coordinates":[112.93690490000006,28.181758600000023]},"properties":{"FID":107,"名称":"湘西小串(登高路店)","类型":"餐饮服务;中餐厅;中餐厅","地址":"东方红广场登高路37号","联系电":"17680154358;18973324818","人均消":"18","综合评":3.7000000000000002,"WGS84_经":112.9369049,"WGS84_纬":28.181758599999998,"图片":"./images/shop/湘西小串(登高路店).jpg"}},{"type":"Feature","id":108,"geometry":{"type":"Point","coordinates":[112.93690490000006,28.181758600000023]},"properties":{"FID":108,"名称":"老长沙小吃","类型":"餐饮服务;中餐厅;中餐厅","地址":"湖南大学医院东南门东80米","联系电":"[]","人均消":"18","综合评":1.7,"WGS84_经":112.9369049,"WGS84_纬":28.181758599999998,"图片":"./images/shop/老长沙小吃.jpg"}},{"type":"Feature","id":109,"geometry":{"type":"Point","coordinates":[112.93685600000003,28.181738700000039]},"properties":{"FID":109,"名称":"晓黄爷老长沙臭豆腐","类型":"餐饮服务;快餐厅;快餐厅","地址":"登高路39号","联系电":"13117516668","人均消":"13","综合评":4.0999999999999996,"WGS84_经":112.93685600000001,"WGS84_纬":28.1817387,"图片":"./images/shop/晓黄爷老长沙臭豆腐.jpg"}},{"type":"Feature","id":110,"geometry":{"type":"Point","coordinates":[112.93548770000007,28.182605800000033]},"properties":{"FID":110,"名称":"友谊斋","类型":"餐饮服务;中餐厅;中餐厅","地址":"登高路58号湖南大学博士后公寓","联系电":"[]","人均消":"16","综合评":3.8999999999999999,"WGS84_经":112.9354877,"WGS84_纬":28.182605800000001,"图片":"./images/shop/友谊斋.jpg"}},{"type":"Feature","id":111,"geometry":{"type":"Point","coordinates":[112.93294330000003,28.18649060000007]},"properties":{"FID":111,"名称":"湖湘能量谷","类型":"餐饮服务;餐饮相关场所;餐饮相关","地址":"登高路58号岳麓山风景名胜区内(东侧)","联系电":"[]","人均消":"[]","综合评":3.7000000000000002,"WGS84_经":112.93294330000001,"WGS84_纬":28.186490599999999,"图片":"./images/shop/湖湘能量谷.jpg"}},{"type":"Feature","id":112,"geometry":{"type":"Point","coordinates":[112.93367310000008,28.184447500000033]},"properties":{"FID":112,"名称":"爱晚亭记","类型":"餐饮服务;中餐厅;中餐厅","地址":"登高路58号(岳麓书院后门)","联系电":"13786161333","人均消":"[]","综合评":4.5999999999999996,"WGS84_经":112.93367309999999,"WGS84_纬":28.184447500000001,"图片":"./images/shop/爱晚亭记.jpg"}},{"type":"Feature","id":113,"geometry":{"type":"Point","coordinates":[112.94369880000011,28.18119310000003]},"properties":{"FID":113,"名称":"忆家餐馆","类型":"餐饮服务;快餐厅;快餐厅","地址":"牌楼路与麓山路交叉口东南300米","联系电":"[]","人均消":"28","综合评":3.7999999999999998,"WGS84_经":112.94369880000001,"WGS84_纬":28.181193100000002,"图片":"./images/shop/忆家餐馆.jpg"}},{"type":"Feature","id":114,"geometry":{"type":"Point","coordinates":[112.93274070000007,28.186390600000038]},"properties":{"FID":114,"名称":"能量谷·枫林阁(岳麓山店)","类型":"餐饮服务;中餐厅;湖南菜(湘菜)","地址":"岳麓山景区能量谷兰涧经营区","联系电":"15367962669","人均消":"149","综合评":4.2999999999999998,"WGS84_经":112.9327407,"WGS84_纬":28.186390599999999,"图片":"./images/shop/能量谷·枫林阁(岳麓山店).jpg"}},{"type":"Feature","id":115,"geometry":{"type":"Point","coordinates":[112.93270780000012,28.186443600000075]},"properties":{"FID":115,"名称":"湖湘缘","类型":"餐饮服务;餐饮相关场所;餐饮相关","地址":"登高路58号能量谷内","联系电":"18684830789","人均消":"46","综合评":3,"WGS84_经":112.9327078,"WGS84_纬":28.1864436,"图片":"./images/shop/湖湘缘.jpg"}},{"type":"Feature","id":116,"geometry":{"type":"Point","coordinates":[112.9483676000001,28.190295500000047]},"properties":{"FID":116,"名称":"湖南师范大学江边食堂特色餐厅","类型":"餐饮服务;中餐厅;中餐厅","地址":"学堂坡新民路","联系电":"[]","人均消":"[]","综合评":3.7999999999999998,"WGS84_经":112.9483676,"WGS84_纬":28.190295500000001,"图片":"./images/shop/湖南师范大学江边食堂特色餐厅.jpg"}},{"type":"Feature","id":117,"geometry":{"type":"Point","coordinates":[112.94469740000011,28.193998700000066]},"properties":{"FID":117,"名称":"树下咖啡","类型":"餐饮服务;咖啡厅;咖啡厅","地址":"桔子洲街道学堂坡社区二里半村五栋101","联系电":"18166216028;18207483219","人均消":"45","综合评":4.5,"WGS84_经":112.9446974,"WGS84_纬":28.193998700000002,"图片":"./images/shop/树下咖啡.jpg"}},{"type":"Feature","id":118,"geometry":{"type":"Point","coordinates":[112.94838850000008,28.190303500000027]},"properties":{"FID":118,"名称":"浏阳蒸菜馆(油烟街店)","类型":"餐饮服务;中餐厅;中餐厅","地址":"学堂坡路与爱民路交叉口北140米","联系电":"[]","人均消":"16","综合评":3.5,"WGS84_经":112.94838849999999,"WGS84_纬":28.190303499999999,"图片":"./images/shop/浏阳蒸菜馆(油烟街店).jpg"}},{"type":"Feature","id":119,"geometry":{"type":"Point","coordinates":[112.94526310000003,28.193720700000029]},"properties":{"FID":119,"名称":"酱满哥热卤拌饭","类型":"餐饮服务;中餐厅;中餐厅|餐饮服务;快餐厅;快餐厅","地址":"湖南师大二里半村东北门旁","联系电":"[]","人均消":"16","综合评":3.7000000000000002,"WGS84_经":112.94526310000001,"WGS84_纬":28.1937207,"图片":"./images/shop/酱满哥热卤拌饭.jpg"}},{"type":"Feature","id":120,"geometry":{"type":"Point","coordinates":[112.94838850000008,28.190303500000027]},"properties":{"FID":120,"名称":"浏阳蒸菜馆(油烟街店)","类型":"餐饮服务;中餐厅;中餐厅","地址":"学堂坡路与爱民路交叉口北140米","联系电":"[]","人均消":"16","综合评":3.5,"WGS84_经":112.94838849999999,"WGS84_纬":28.190303499999999,"图片":"./images/shop/浏阳蒸菜馆(油烟街店).jpg"}},{"type":"Feature","id":121,"geometry":{"type":"Point","coordinates":[112.94526310000003,28.193720700000029]},"properties":{"FID":121,"名称":"酱满哥热卤拌饭","类型":"餐饮服务;中餐厅;中餐厅|餐饮服务;快餐厅;快餐厅","地址":"湖南师大二里半村东北门旁","联系电":"[]","人均消":"16","综合评":3.7000000000000002,"WGS84_经":112.94526310000001,"WGS84_纬":28.1937207,"图片":"./images/shop/酱满哥热卤拌饭.jpg"}},{"type":"Feature","id":122,"geometry":{"type":"Point","coordinates":[112.94837260000008,28.190399500000069]},"properties":{"FID":122,"名称":"宁乡宁手工鸡蛋面(学堂坡店)","类型":"餐饮服务;中餐厅;中餐厅","地址":"廉心公园西北门南50米","联系电":"15074954903","人均消":"13","综合评":4.4000000000000004,"WGS84_经":112.9483726,"WGS84_纬":28.190399500000002,"图片":"./images/shop/宁乡宁手工鸡蛋面(学堂坡店).jpg"}},{"type":"Feature","id":123,"geometry":{"type":"Point","coordinates":[112.94507550000003,28.193888000000072]},"properties":{"FID":123,"名称":"上茶·茶馆","类型":"餐饮服务;茶艺馆;茶艺馆","地址":"二里半村五栋108室","联系电":"15886443216;18274967314","人均消":"[]","综合评":4,"WGS84_经":112.9450755,"WGS84_纬":28.193888000000001,"图片":"./images/shop/上茶·茶馆.jpg"}},{"type":"Feature","id":124,"geometry":{"type":"Point","coordinates":[112.94431530000008,28.194522500000062]},"properties":{"FID":124,"名称":"瑞幸咖啡(湖南师大麓山路店)","类型":"餐饮服务;咖啡厅;咖啡厅","地址":"鹤华源东南门旁(湖南师大地铁站1号口步行490米)","联系电":"4000100100","人均消":"13","综合评":4.0999999999999996,"WGS84_经":112.9443153,"WGS84_纬":28.194522500000001,"图片":"./images/shop/瑞幸咖啡(湖南师大麓山路店).jpg"}},{"type":"Feature","id":125,"geometry":{"type":"Point","coordinates":[112.94025390000002,28.179684100000031]},"properties":{"FID":125,"名称":"小野咖啡","类型":"餐饮服务;餐饮相关场所;餐饮相关","地址":"湖南大学民主村7栋102","联系电":"18900740781","人均消":"23","综合评":4.5,"WGS84_经":112.9402539,"WGS84_纬":28.179684099999999,"图片":"./images/shop/小野咖啡.jpg"}},{"type":"Feature","id":126,"geometry":{"type":"Point","coordinates":[112.94479720000004,28.194401600000049]},"properties":{"FID":126,"名称":"罗蒂公主(麓山路店)","类型":"餐饮服务;冷饮店;冷饮店|餐饮服务;糕饼店;糕饼店","地址":"岳麓街道麓山路149号","联系电":"18890383518;18907482527","人均消":"13","综合评":4.5,"WGS84_经":112.9447972,"WGS84_纬":28.194401599999999,"图片":"./images/shop/罗蒂公主(麓山路店).jpg"}},{"type":"Feature","id":127,"geometry":{"type":"Point","coordinates":[112.94445600000006,28.194559200000072]},"properties":{"FID":127,"名称":"百味粉店·家常菜","类型":"餐饮服务;中餐厅;中餐厅","地址":"麓山路192号鹤华源","联系电":"[]","人均消":"30","综合评":3.7000000000000002,"WGS84_经":112.944456,"WGS84_纬":28.1945592,"图片":"./images/shop/百味粉店·家常菜.jpg"}},{"type":"Feature","id":128,"geometry":{"type":"Point","coordinates":[112.94478520000007,28.194447600000046]},"properties":{"FID":128,"名称":"老上海馄饨铺","类型":"餐饮服务;中餐厅;中餐厅","地址":"桔子州街道麓山路145号","联系电":"15388904185;19083143940","人均消":"12","综合评":3.7999999999999998,"WGS84_经":112.9447852,"WGS84_纬":28.1944476,"图片":"./images/shop/老上海馄饨铺.jpg"}},{"type":"Feature","id":129,"geometry":{"type":"Point","coordinates":[112.94479820000004,28.194449600000041]},"properties":{"FID":129,"名称":"书亦烧仙草(湖南师大二店)","类型":"餐饮服务;冷饮店;冷饮店","地址":"麓山路147号(湖南师大地铁站1号口步行490米)","联系电":"13207270583","人均消":"10","综合评":3.6000000000000001,"WGS84_经":112.94479819999999,"WGS84_纬":28.194449599999999,"图片":"./images/shop/书亦烧仙草(湖南师大二店).jpg"}},{"type":"Feature","id":130,"geometry":{"type":"Point","coordinates":[112.94478720000006,28.194457600000078]},"properties":{"FID":130,"名称":"七里香东北麻辣烫(新民小区店)","类型":"餐饮服务;中餐厅;中餐厅","地址":"新民小区西1门旁(湖南师大地铁站1号口步行490米)","联系电":"[]","人均消":"28","综合评":3.7999999999999998,"WGS84_经":112.94478719999999,"WGS84_纬":28.1944576,"图片":"./images/shop/七里香东北麻辣烫(新民小区店).jpg"}},{"type":"Feature","id":131,"geometry":{"type":"Point","coordinates":[112.94468740000002,28.194507800000054]},"properties":{"FID":131,"名称":"曾好吃煲仔饭(岳麓山东门店)","类型":"餐饮服务;中餐厅;中餐厅","地址":"麓山路143号(岳麓山东大门往南150米)","联系电":"17708455709","人均消":"22","综合评":3.8999999999999999,"WGS84_经":112.94468740000001,"WGS84_纬":28.1945078,"图片":"./images/shop/曾好吃煲仔饭(岳麓山东门店).jpg"}},{"type":"Feature","id":132,"geometry":{"type":"Point","coordinates":[112.93252630000006,28.183963600000027]},"properties":{"FID":132,"名称":"茶颜悦色(爱晚亭店)","类型":"餐饮服务;餐饮相关场所;餐饮相关","地址":"爱晚亭","联系电":"19176686959","人均消":"20","综合评":4.5,"WGS84_经":112.93252630000001,"WGS84_纬":28.183963599999998,"图片":"./images/shop/茶颜悦色(爱晚亭店).jpg"}},{"type":"Feature","id":133,"geometry":{"type":"Point","coordinates":[112.94479720000004,28.194501600000024]},"properties":{"FID":133,"名称":"黄家盖码饭","类型":"餐饮服务;中餐厅;中餐厅","地址":"新民小区一栋2单元盖码饭家菜馆","联系电":"13187057399;15873151656","人均消":"[]","综合评":3.3999999999999999,"WGS84_经":112.9447972,"WGS84_纬":28.194501599999999,"图片":"./images/shop/黄家盖码饭.jpg"}},{"type":"Feature","id":134,"geometry":{"type":"Point","coordinates":[112.94537780000007,28.194209500000056]},"properties":{"FID":134,"名称":"美美粉店","类型":"餐饮服务;餐饮相关场所;餐饮相关","地址":"新民小区","联系电":"[]","人均消":"13","综合评":3.7000000000000002,"WGS84_经":112.9453778,"WGS84_纬":28.194209499999999,"图片":"./images/shop/美美粉店.jpg"}},{"type":"Feature","id":135,"geometry":{"type":"Point","coordinates":[112.94448890000001,28.194748100000027]},"properties":{"FID":135,"名称":"中国兰州拉面(麓山店)","类型":"餐饮服务;中餐厅;清真菜馆","地址":"鹤华源东南门旁","联系电":"[]","人均消":"[]","综合评":1.3999999999999999,"WGS84_经":112.9444889,"WGS84_纬":28.194748100000002,"图片":"./images/shop/中国兰州拉面(麓山店).jpg"}},{"type":"Feature","id":136,"geometry":{"type":"Point","coordinates":[112.94484300000011,28.194633500000066]},"properties":{"FID":136,"名称":"统桶发卤粉王(新民小区店)","类型":"餐饮服务;中餐厅;中餐厅","地址":"麓山路133号","联系电":"19173907583","人均消":"13","综合评":3.8999999999999999,"WGS84_经":112.94484300000001,"WGS84_纬":28.194633499999998,"图片":"./images/shop/统桶发卤粉王(新民小区店).jpg"}},{"type":"Feature","id":137,"geometry":{"type":"Point","coordinates":[112.94464050000011,28.194734900000071]},"properties":{"FID":137,"名称":"三十年老口味麻辣烫","类型":"餐饮服务;中餐厅;火锅店","地址":"桔子洲街道新民开发区门面B栋106号门面","联系电":"18673188801","人均消":"[]","综合评":3.5,"WGS84_经":112.94464050000001,"WGS84_纬":28.1947349,"图片":"./images/shop/三十年老口味麻辣烫.jpg"}},{"type":"Feature","id":138,"geometry":{"type":"Point","coordinates":[112.94483510000009,28.194662500000049]},"properties":{"FID":138,"名称":"沙县小吃(麓山路店)","类型":"餐饮服务;中餐厅;中餐厅","地址":"麓山路131号","联系电":"15990710997;19892841233","人均消":"16","综合评":3.8999999999999999,"WGS84_经":112.94483510000001,"WGS84_纬":28.1946625,"图片":"./images/shop/沙县小吃(麓山路店).jpg"}},{"type":"Feature","id":139,"geometry":{"type":"Point","coordinates":[112.94485300000008,28.194732500000043]},"properties":{"FID":139,"名称":"蜜雪冰城(新民小区店)","类型":"餐饮服务;冷饮店;冷饮店","地址":"桔子洲街道麓山路129号","联系电":"19386980670","人均消":"11","综合评":4.5,"WGS84_经":112.94485299999999,"WGS84_纬":28.194732500000001,"图片":"./images/shop/蜜雪冰城(新民小区店).jpg"}},{"type":"Feature","id":140,"geometry":{"type":"Point","coordinates":[112.94448890000001,28.194748100000027]},"properties":{"FID":140,"名称":"中国兰州拉面(麓山店)","类型":"餐饮服务;中餐厅;清真菜馆","地址":"鹤华源东南门旁","联系电":"[]","人均消":"[]","综合评":1.3999999999999999,"WGS84_经":112.9444889,"WGS84_纬":28.194748100000002,"图片":"./images/shop/中国兰州拉面(麓山店).jpg"}},{"type":"Feature","id":141,"geometry":{"type":"Point","coordinates":[112.94484300000011,28.194633500000066]},"properties":{"FID":141,"名称":"统桶发卤粉王(新民小区店)","类型":"餐饮服务;中餐厅;中餐厅","地址":"麓山路133号","联系电":"19173907583","人均消":"13","综合评":3.8999999999999999,"WGS84_经":112.94484300000001,"WGS84_纬":28.194633499999998,"图片":"./images/shop/统桶发卤粉王(新民小区店).jpg"}},{"type":"Feature","id":142,"geometry":{"type":"Point","coordinates":[112.94464050000011,28.194734900000071]},"properties":{"FID":142,"名称":"三十年老口味麻辣烫","类型":"餐饮服务;中餐厅;火锅店","地址":"桔子洲街道新民开发区门面B栋106号门面","联系电":"18673188801","人均消":"[]","综合评":3.5,"WGS84_经":112.94464050000001,"WGS84_纬":28.1947349,"图片":"./images/shop/三十年老口味麻辣烫.jpg"}},{"type":"Feature","id":143,"geometry":{"type":"Point","coordinates":[112.94483510000009,28.194662500000049]},"properties":{"FID":143,"名称":"沙县小吃(麓山路店)","类型":"餐饮服务;中餐厅;中餐厅","地址":"麓山路131号","联系电":"15990710997;19892841233","人均消":"16","综合评":3.8999999999999999,"WGS84_经":112.94483510000001,"WGS84_纬":28.1946625,"图片":"./images/shop/沙县小吃(麓山路店).jpg"}},{"type":"Feature","id":144,"geometry":{"type":"Point","coordinates":[112.94485300000008,28.194732500000043]},"properties":{"FID":144,"名称":"蜜雪冰城(新民小区店)","类型":"餐饮服务;冷饮店;冷饮店","地址":"桔子洲街道麓山路129号","联系电":"19386980670","人均消":"11","综合评":4.5,"WGS84_经":112.94485299999999,"WGS84_纬":28.194732500000001,"图片":"./images/shop/蜜雪冰城(新民小区店).jpg"}},{"type":"Feature","id":145,"geometry":{"type":"Point","coordinates":[112.94487500000002,28.194724400000041]},"properties":{"FID":145,"名称":"正宗杭州小笼包","类型":"餐饮服务;餐饮相关场所;餐饮相关","地址":"麓山路137号","联系电":"[]","人均消":"11","综合评":3.7000000000000002,"WGS84_经":112.944875,"WGS84_纬":28.194724399999998,"图片":"./images/shop/正宗杭州小笼包.jpg"}},{"type":"Feature","id":146,"geometry":{"type":"Point","coordinates":[112.94491390000007,28.19477130000007]},"properties":{"FID":146,"名称":"卤咖(麓山路店)","类型":"餐饮服务;餐饮相关场所;餐饮相关","地址":"麓山路125号","联系电":"19892933080","人均消":"20","综合评":3.5,"WGS84_经":112.9449139,"WGS84_纬":28.194771299999999,"图片":"./images/shop/卤咖(麓山路店).jpg"}},{"type":"Feature","id":147,"geometry":{"type":"Point","coordinates":[112.94486600000005,28.194862400000034]},"properties":{"FID":147,"名称":"三津汤包(茶山路店)","类型":"餐饮服务;快餐厅;快餐厅","地址":"新民小区西1门旁","联系电":"[]","人均消":"10","综合评":3.3999999999999999,"WGS84_经":112.944866,"WGS84_纬":28.194862400000002,"图片":"./images/shop/三津汤包(茶山路店).jpg"}},{"type":"Feature","id":148,"geometry":{"type":"Point","coordinates":[112.94487100000003,28.194891400000074]},"properties":{"FID":148,"名称":"翻窗炸串","类型":"餐饮服务;快餐厅;快餐厅","地址":"麓山路与石门楼街交叉口南40米","联系电":"[]","人均消":"22","综合评":3.5,"WGS84_经":112.94487100000001,"WGS84_纬":28.194891399999999,"图片":"./images/shop/翻窗炸串.jpg"}},{"type":"Feature","id":149,"geometry":{"type":"Point","coordinates":[112.94460060000006,28.195010900000057]},"properties":{"FID":149,"名称":"尊宝比萨(岳麓山东门店)","类型":"餐饮服务;快餐厅;快餐厅","地址":"湘江新区桔子洲街道麓山路附59号102、103","联系电":"18900763258","人均消":"25","综合评":4,"WGS84_经":112.9446006,"WGS84_纬":28.1950109,"图片":"./images/shop/尊宝比萨(岳麓山东门店).jpg"}},{"type":"Feature","id":150,"geometry":{"type":"Point","coordinates":[112.94489090000002,28.194997400000034]},"properties":{"FID":150,"名称":"卤个锤子(新民小区店)","类型":"餐饮服务;餐饮相关场所;餐饮相关","地址":"新民小区西1门北60米","联系电":"15273517517","人均消":"21","综合评":3.7999999999999998,"WGS84_经":112.9448909,"WGS84_纬":28.194997399999998,"图片":"./images/shop/卤个锤子(新民小区店).jpg"}},{"type":"Feature","id":151,"geometry":{"type":"Point","coordinates":[112.94489390000001,28.195015400000045]},"properties":{"FID":151,"名称":"湘西姑娘泡菜(长沙麓山路店)","类型":"餐饮服务;快餐厅;快餐厅","地址":"麓山路105号","联系电":"19848085671","人均消":"22","综合评":4.0999999999999996,"WGS84_经":112.9448939,"WGS84_纬":28.195015399999999,"图片":"./images/shop/湘西姑娘泡菜(长沙麓山路店).jpg"}},{"type":"Feature","id":152,"geometry":{"type":"Point","coordinates":[112.94853000000001,28.192142200000035]},"properties":{"FID":152,"名称":"娇娇粉店(湖南师范大学店)","类型":"餐饮服务;中餐厅;中餐厅","地址":"桔子洲街道学堂坡5栋娇娇粉店","联系电":"15216904482","人均消":"13","综合评":4,"WGS84_经":112.94853000000001,"WGS84_纬":28.192142199999999,"图片":"./images/shop/娇娇粉店(湖南师范大学店).jpg"}},{"type":"Feature","id":153,"geometry":{"type":"Point","coordinates":[112.94463750000011,28.195139900000072]},"properties":{"FID":153,"名称":"武汉热卤(麓山店)","类型":"餐饮服务;餐饮相关场所;餐饮相关","地址":"桔子洲街道石门楼社区新民小区19栋101","联系电":"13618481132","人均消":"15","综合评":3.2000000000000002,"WGS84_经":112.9446375,"WGS84_纬":28.195139900000001,"图片":"./images/shop/武汉热卤(麓山店).jpg"}},{"type":"Feature","id":154,"geometry":{"type":"Point","coordinates":[112.93143180000004,28.19020880000005]},"properties":{"FID":154,"名称":"长沙之眼 Vista coffee","类型":"餐饮服务;咖啡厅;咖啡厅","地址":"岳麓山长沙之眼观景平台","联系电":"17570366871","人均消":"[]","综合评":4,"WGS84_经":112.9314318,"WGS84_纬":28.190208800000001,"图片":"./images/shop/长沙之眼 Vista coffee.jpg"}},{"type":"Feature","id":155,"geometry":{"type":"Point","coordinates":[112.94492180000009,28.195080300000029]},"properties":{"FID":155,"名称":"山东杂粮煎饼果子(新民小区店)","类型":"餐饮服务;餐饮相关场所;餐饮相关","地址":"新民小区","联系电":"15907314569","人均消":"11","综合评":3.6000000000000001,"WGS84_经":112.9449218,"WGS84_纬":28.195080300000001,"图片":"./images/shop/山东杂粮煎饼果子(新民小区店).jpg"}},{"type":"Feature","id":156,"geometry":{"type":"Point","coordinates":[112.94491480000011,28.195129400000042]},"properties":{"FID":156,"名称":"珍珍家串串烫麻辣烫(新民小区店)","类型":"餐饮服务;中餐厅;中餐厅","地址":"石门楼街与麓山路交叉口东南20米","联系电":"[]","人均消":"[]","综合评":1.3,"WGS84_经":112.94491480000001,"WGS84_纬":28.195129399999999,"图片":"./images/shop/珍珍家串串烫麻辣烫(新民小区店).jpg"}},{"type":"Feature","id":157,"geometry":{"type":"Point","coordinates":[112.94494180000004,28.195125300000029]},"properties":{"FID":157,"名称":"老潼关肉夹馍(麓荫园店)","类型":"餐饮服务;快餐厅;快餐厅","地址":"新民小区西1门北70米","联系电":"[]","人均消":"11","综合评":3.6000000000000001,"WGS84_经":112.9449418,"WGS84_纬":28.195125300000001,"图片":"./images/shop/老潼关肉夹馍(麓荫园店).jpg"}},{"type":"Feature","id":158,"geometry":{"type":"Point","coordinates":[112.9449168000001,28.195143400000063]},"properties":{"FID":158,"名称":"老益阳串串烫(新民小区店)","类型":"餐饮服务;中餐厅;火锅店","地址":"新民小区西1门北70米","联系电":"[]","人均消":"17","综合评":2.3999999999999999,"WGS84_经":112.9449168,"WGS84_纬":28.195143399999999,"图片":"./images/shop/老益阳串串烫(新民小区店).jpg"}},{"type":"Feature","id":159,"geometry":{"type":"Point","coordinates":[112.94947570000011,28.190837300000055]},"properties":{"FID":159,"名称":"奇哥可鲜","类型":"餐饮服务;中餐厅;湖南菜(湘菜)","地址":"潇湘中路学堂坡槐树坪22号","联系电":"0731-84317377","人均消":"48","综合评":4.5,"WGS84_经":112.94947569999999,"WGS84_纬":28.190837299999998,"图片":"./images/shop/奇哥可鲜.jpg"}},{"type":"Feature","id":160,"geometry":{"type":"Point","coordinates":[112.94505150000009,28.195098100000052]},"properties":{"FID":160,"名称":"蔡记手工面粉馆(新民小区店)","类型":"餐饮服务;快餐厅;快餐厅","地址":"新民小区东区1栋","联系电":"15074923983","人均消":"14","综合评":3.8999999999999999,"WGS84_经":112.94505150000001,"WGS84_纬":28.195098099999999,"图片":"./images/shop/蔡记手工面粉馆(新民小区店).jpg"}},{"type":"Feature","id":161,"geometry":{"type":"Point","coordinates":[112.94491980000009,28.195164300000044]},"properties":{"FID":161,"名称":"临榆炸鸡腿(湖师大溁湾镇店)","类型":"餐饮服务;快餐厅;快餐厅","地址":"桔子洲街道新民开发区门面A栋103室","联系电":"15274986546","人均消":"15","综合评":3.8999999999999999,"WGS84_经":112.94491979999999,"WGS84_纬":28.195164299999998,"图片":"./images/shop/临榆炸鸡腿(湖师大溁湾镇店).jpg"}},{"type":"Feature","id":162,"geometry":{"type":"Point","coordinates":[112.94506750000005,28.195109100000025]},"properties":{"FID":162,"名称":"常德津市牛肉粉(新民小区店)","类型":"餐饮服务;快餐厅;快餐厅","地址":"橘子洲街道麓山路新民小区1栋106","联系电":"19118806193","人均消":"17","综合评":3.7000000000000002,"WGS84_经":112.94506749999999,"WGS84_纬":28.1951091,"图片":"./images/shop/常德津市牛肉粉(新民小区店).jpg"}},{"type":"Feature","id":163,"geometry":{"type":"Point","coordinates":[112.93957740000008,28.178930200000025]},"properties":{"FID":163,"名称":"湘潭湘盖码饭","类型":"餐饮服务;中餐厅;中餐厅","地址":"湖南大学南校区西2门旁","联系电":"[]","人均消":"15","综合评":4,"WGS84_经":112.9395774,"WGS84_纬":28.1789302,"图片":"./images/shop/湘潭湘盖码饭.jpg"}},{"type":"Feature","id":164,"geometry":{"type":"Point","coordinates":[112.93974610000009,28.178906900000072]},"properties":{"FID":164,"名称":"衍舍·Drink","类型":"餐饮服务;餐饮相关场所;餐饮相关","地址":"麓山南路与牌楼路交叉口南440米","联系电":"18726915705","人均消":"32","综合评":4.4000000000000004,"WGS84_经":112.93974609999999,"WGS84_纬":28.178906900000001,"图片":"./images/shop/衍舍·Drink.jpg"}},{"type":"Feature","id":165,"geometry":{"type":"Point","coordinates":[112.9396243000001,28.178899100000024]},"properties":{"FID":165,"名称":"吉士果茶","类型":"餐饮服务;休闲餐饮场所;休闲餐饮场所","地址":"橘子洲街道麓山南路84号","联系电":"[]","人均消":"10","综合评":3.7999999999999998,"WGS84_经":112.93962430000001,"WGS84_纬":28.178899099999999,"图片":"./images/shop/吉士果茶.jpg"}},{"type":"Feature","id":166,"geometry":{"type":"Point","coordinates":[112.93944370000008,28.178849400000047]},"properties":{"FID":166,"名称":"麓南小排档","类型":"餐饮服务;餐饮相关场所;餐饮相关","地址":"麓山南路72号","联系电":"[]","人均消":"21","综合评":3.8999999999999999,"WGS84_经":112.9394437,"WGS84_纬":28.178849400000001,"图片":"./images/shop/麓南小排档.jpg"}},{"type":"Feature","id":167,"geometry":{"type":"Point","coordinates":[112.94895990000009,28.192051400000025]},"properties":{"FID":167,"名称":"言行茶馆(长盛花园店)","类型":"餐饮服务;茶艺馆;茶艺馆","地址":"桔子洲街道综合文化站西南门西北70米","联系电":"15367688736","人均消":"31","综合评":3.7000000000000002,"WGS84_经":112.94895990000001,"WGS84_纬":28.1920514,"图片":"./images/shop/言行茶馆(长盛花园店).jpg"}},{"type":"Feature","id":168,"geometry":{"type":"Point","coordinates":[112.93952060000004,28.178814300000056]},"properties":{"FID":168,"名称":"库迪咖啡(湖南大学麓山南路店)","类型":"餐饮服务;咖啡厅;咖啡厅","地址":"麓山南路74号","联系电":"19374882701","人均消":"9","综合评":4.2999999999999998,"WGS84_经":112.93952059999999,"WGS84_纬":28.178814299999999,"图片":"./images/shop/库迪咖啡(湖南大学麓山南路店).jpg"}},{"type":"Feature","id":169,"geometry":{"type":"Point","coordinates":[112.93138590000001,28.190814900000078]},"properties":{"FID":169,"名称":"七个农民","类型":"餐饮服务;快餐厅;快餐厅","地址":"岳麓山风景名胜区Hi悦麓","联系电":"16721552999","人均消":"13","综合评":3.7000000000000002,"WGS84_经":112.9313859,"WGS84_纬":28.190814899999999,"图片":"./images/shop/七个农民.jpg"}},{"type":"Feature","id":170,"geometry":{"type":"Point","coordinates":[112.93170920000011,28.191444500000046]},"properties":{"FID":170,"名称":"见山小馆","类型":"餐饮服务;中餐厅;中餐厅","地址":"岳麓山山顶缆车出口处","联系电":"13278866071","人均消":"63","综合评":4.5,"WGS84_经":112.9317092,"WGS84_纬":28.191444499999999,"图片":"./images/shop/见山小馆.jpg"}},{"type":"Feature","id":171,"geometry":{"type":"Point","coordinates":[112.9451203000001,28.195257000000026]},"properties":{"FID":171,"名称":"老长沙面粉馆蒸菜炒菜(新民小区店)","类型":"餐饮服务;中餐厅;中餐厅","地址":"新民小区一栋五单元","联系电":"[]","人均消":"12","综合评":3,"WGS84_经":112.9451203,"WGS84_纬":28.195257000000002,"图片":"./images/shop/老长沙面粉馆蒸菜炒菜(新民小区店).jpg"}},{"type":"Feature","id":172,"geometry":{"type":"Point","coordinates":[112.93264320000003,28.182245600000044]},"properties":{"FID":172,"名称":"景区食堂","类型":"餐饮服务;餐饮相关场所;餐饮相关","地址":"登高路58岳麓山风景名胜区内(南侧)","联系电":"[]","人均消":"[]","综合评":3.2000000000000002,"WGS84_经":112.9326432,"WGS84_纬":28.182245600000002,"图片":"./images/shop/景区食堂.jpg"}},{"type":"Feature","id":173,"geometry":{"type":"Point","coordinates":[112.94527090000008,28.195244700000046]},"properties":{"FID":173,"名称":"三哥秘制卤味牛骨老汤面(麓荫园店)","类型":"餐饮服务;餐饮相关场所;餐饮相关","地址":"麓荫园西南门旁","联系电":"18974823770;18975813699","人均消":"[]","综合评":3.7000000000000002,"WGS84_经":112.9452709,"WGS84_纬":28.1952447,"图片":"./images/shop/三哥秘制卤味牛骨老汤面(麓荫园店).jpg"}},{"type":"Feature","id":174,"geometry":{"type":"Point","coordinates":[112.9449886000001,28.195385200000032]},"properties":{"FID":174,"名称":"郝大姐乌龙山铁板烧(溁湾镇店)","类型":"餐饮服务;中餐厅;特色/地方风味餐厅","地址":"麓山路93-1号公交站台","联系电":"19911396699","人均消":"46","综合评":4.5,"WGS84_经":112.9449886,"WGS84_纬":28.1953852,"图片":"./images/shop/郝大姐乌龙山铁板烧(溁湾镇店).jpg"}},{"type":"Feature","id":175,"geometry":{"type":"Point","coordinates":[112.93944370000008,28.178724400000078]},"properties":{"FID":175,"名称":"老上海馄饨","类型":"餐饮服务;中餐厅;中餐厅","地址":"麓山南路78号","联系电":"19173311258","人均消":"12","综合评":3.7000000000000002,"WGS84_经":112.9394437,"WGS84_纬":28.1787244,"图片":"./images/shop/老上海馄饨.jpg"}},{"type":"Feature","id":176,"geometry":{"type":"Point","coordinates":[112.94499860000008,28.195438200000069]},"properties":{"FID":176,"名称":"金家村衡阳菜馆","类型":"餐饮服务;中餐厅;中餐厅","地址":"麓山路87号","联系电":"19083350733","人均消":"34","综合评":4.5,"WGS84_经":112.94499860000001,"WGS84_纬":28.195438200000002,"图片":"./images/shop/金家村衡阳菜馆.jpg"}},{"type":"Feature","id":177,"geometry":{"type":"Point","coordinates":[112.93952260000003,28.178688200000067]},"properties":{"FID":177,"名称":"羊羊鸡蛋仔(大学城店)","类型":"餐饮服务;餐饮相关场所;餐饮相关","地址":"麓山南路80号","联系电":"15581555867","人均消":"14","综合评":4.0999999999999996,"WGS84_经":112.9395226,"WGS84_纬":28.1786882,"图片":"./images/shop/羊羊鸡蛋仔(大学城店).jpg"}},{"type":"Feature","id":178,"geometry":{"type":"Point","coordinates":[112.93956950000006,28.178639200000077]},"properties":{"FID":178,"名称":"同心园湘菜厨房(麓山南路店)","类型":"餐饮服务;中餐厅;中餐厅","地址":"麓山南路106号","联系电":"13017390015","人均消":"30","综合评":4,"WGS84_经":112.9395695,"WGS84_纬":28.178639199999999,"图片":"./images/shop/同心园湘菜厨房(麓山南路店).jpg"}},{"type":"Feature","id":179,"geometry":{"type":"Point","coordinates":[112.93116580000003,28.184251900000049]},"properties":{"FID":179,"名称":"清逸阁-茶餐厅","类型":"餐饮服务;餐饮相关场所;餐饮相关","地址":"登高路58号清风泉旁","联系电":"13142266066;18274967288;19173176333","人均消":"59","综合评":4.2000000000000002,"WGS84_经":112.9311658,"WGS84_纬":28.1842519,"图片":"./images/shop/清逸阁-茶餐厅.jpg"}},{"type":"Feature","id":180,"geometry":{"type":"Point","coordinates":[112.93956950000006,28.178639200000077]},"properties":{"FID":180,"名称":"同心园湘菜厨房(麓山南路店)","类型":"餐饮服务;中餐厅;中餐厅","地址":"麓山南路106号","联系电":"13017390015","人均消":"30","综合评":4,"WGS84_经":112.9395695,"WGS84_纬":28.178639199999999,"图片":"./images/shop/同心园湘菜厨房(麓山南路店).jpg"}},{"type":"Feature","id":181,"geometry":{"type":"Point","coordinates":[112.93116580000003,28.184251900000049]},"properties":{"FID":181,"名称":"清逸阁-茶餐厅","类型":"餐饮服务;餐饮相关场所;餐饮相关","地址":"登高路58号清风泉旁","联系电":"13142266066;18274967288;19173176333","人均消":"59","综合评":4.2000000000000002,"WGS84_经":112.9311658,"WGS84_纬":28.1842519,"图片":"./images/shop/清逸阁-茶餐厅.jpg"}},{"type":"Feature","id":182,"geometry":{"type":"Point","coordinates":[112.93119320000005,28.190943200000049]},"properties":{"FID":182,"名称":"波比艾斯(岳麓山风景名胜区店)","类型":"餐饮服务;冷饮店;冷饮店","地址":"麓山南路82号","联系电":"18773114641","人均消":"12","综合评":3.8999999999999999,"WGS84_经":112.9311932,"WGS84_纬":28.1909432,"图片":"./images/shop/波比艾斯(岳麓山风景名胜区店).jpg"}},{"type":"Feature","id":183,"geometry":{"type":"Point","coordinates":[112.94503950000001,28.195522100000062]},"properties":{"FID":183,"名称":"华莱士·全鸡汉堡(岳麓山店)","类型":"餐饮服务;快餐厅;快餐厅","地址":"麓山路与石门楼街交叉口东北40米","联系电":"[]","人均消":"21","综合评":4,"WGS84_经":112.94503949999999,"WGS84_纬":28.195522100000002,"图片":"./images/shop/华莱士·全鸡汉堡(岳麓山店).jpg"}},{"type":"Feature","id":184,"geometry":{"type":"Point","coordinates":[112.93947970000011,28.178593300000045]},"properties":{"FID":184,"名称":"何家鲜羊肉粉馆(湖大南校区店)","类型":"餐饮服务;中餐厅;中餐厅","地址":"麓山南路108号","联系电":"13667354656;15700705131","人均消":"15","综合评":4.2999999999999998,"WGS84_经":112.93947970000001,"WGS84_纬":28.178593299999999,"图片":"./images/shop/何家鲜羊肉粉馆(湖大南校区店).jpg"}},{"type":"Feature","id":185,"geometry":{"type":"Point","coordinates":[112.93955150000011,28.178580200000056]},"properties":{"FID":185,"名称":"1+1把子肉米饭(麓山南路店)","类型":"餐饮服务;餐饮相关场所;餐饮相关","地址":"麓山南路112号湖南大学","联系电":"15948445455","人均消":"20","综合评":4,"WGS84_经":112.93955149999999,"WGS84_纬":28.178580199999999,"图片":"./images/shop/1+1把子肉米饭(麓山南路店).jpg"}},{"type":"Feature","id":186,"geometry":{"type":"Point","coordinates":[112.9396134000001,28.178554100000042]},"properties":{"FID":186,"名称":"延吉特色泡菜海鲜饼(火辣辣鸡爪)","类型":"餐饮服务;中餐厅;中餐厅","地址":"麓山南路116号","联系电":"[]","人均消":"13","综合评":3.6000000000000001,"WGS84_经":112.9396134,"WGS84_纬":28.178554099999999,"图片":"./images/shop/延吉特色泡菜海鲜饼(火辣辣鸡爪).jpg"}},{"type":"Feature","id":187,"geometry":{"type":"Point","coordinates":[112.93957450000005,28.178555200000062]},"properties":{"FID":187,"名称":"多1点台式烤肉饭(湖大店)","类型":"餐饮服务;中餐厅;台湾菜","地址":"麓山南路114号","联系电":"15948445455","人均消":"13","综合评":3.8999999999999999,"WGS84_经":112.93957450000001,"WGS84_纬":28.178555200000002,"图片":"./images/shop/多1点台式烤肉饭(湖大店).jpg"}},{"type":"Feature","id":188,"geometry":{"type":"Point","coordinates":[112.93956350000008,28.178540200000043]},"properties":{"FID":188,"名称":"七家湾牛肉锅贴(麓山南路店)","类型":"餐饮服务;餐饮相关场所;餐饮相关","地址":"麓山南路与牌楼路交叉口南480米","联系电":"[]","人均消":"[]","综合评":3.1000000000000001,"WGS84_经":112.93956350000001,"WGS84_纬":28.1785402,"图片":"./images/shop/七家湾牛肉锅贴(麓山南路店).jpg"}},{"type":"Feature","id":189,"geometry":{"type":"Point","coordinates":[112.9312122,28.191193100000078]},"properties":{"FID":189,"名称":"桃三擂手工擂茶坊(岳麓山店)","类型":"餐饮服务;餐饮相关场所;餐饮相关","地址":"桔子洲街道岳麓公园内山项房屋","联系电":"18807377713","人均消":"25","综合评":4.2000000000000002,"WGS84_经":112.9312122,"WGS84_纬":28.1911931,"图片":"./images/shop/桃三擂手工擂茶坊(岳麓山店).jpg"}},{"type":"Feature","id":190,"geometry":{"type":"Point","coordinates":[112.94472320000011,28.195761700000048]},"properties":{"FID":190,"名称":"闻湘月辣椒炒肉拌饭(长沙麓山东门店)","类型":"餐饮服务;中餐厅;中餐厅","地址":"麓山路122号","联系电":"19311685170","人均消":"24","综合评":4.2000000000000002,"WGS84_经":112.9447232,"WGS84_纬":28.195761699999998,"图片":"./images/shop/闻湘月辣椒炒肉拌饭(长沙麓山东门店).jpg"}},{"type":"Feature","id":191,"geometry":{"type":"Point","coordinates":[112.9310425000001,28.190947300000062]},"properties":{"FID":191,"名称":"茶酪酪·鲜酪果饮&咖啡(岳麓山景区店)","类型":"餐饮服务;餐饮相关场所;餐饮相关","地址":"麓山南路82号","联系电":"[]","人均消":"22","综合评":3.2999999999999998,"WGS84_经":112.9310425,"WGS84_纬":28.190947300000001,"图片":"./images/shop/茶酪酪·鲜酪果饮&咖啡(岳麓山景区店).jpg"}},{"type":"Feature","id":192,"geometry":{"type":"Point","coordinates":[112.93958250000003,28.178474100000074]},"properties":{"FID":192,"名称":"宫阿姨·紫菜包饭","类型":"餐饮服务;餐饮相关场所;餐饮相关","地址":"麓山南路118号","联系电":"13654652262","人均消":"16","综合评":4.2000000000000002,"WGS84_经":112.9395825,"WGS84_纬":28.178474099999999,"图片":"./images/shop/宫阿姨·紫菜包饭.jpg"}},{"type":"Feature","id":193,"geometry":{"type":"Point","coordinates":[112.93237970000007,28.182017200000075]},"properties":{"FID":193,"名称":"润泽天餐厅(麓山店)","类型":"餐饮服务;中餐厅;湖南菜(湘菜)","地址":"桔子洲街道麓山景区现机关4号楼","联系电":"17871958286","人均消":"114","综合评":4.5,"WGS84_经":112.9323797,"WGS84_纬":28.182017200000001,"图片":"./images/shop/润泽天餐厅(麓山店).jpg"}},{"type":"Feature","id":194,"geometry":{"type":"Point","coordinates":[112.93100650000008,28.190911400000061]},"properties":{"FID":194,"名称":"卤炸专家","类型":"餐饮服务;快餐厅;快餐厅","地址":"麓山南路82号","联系电":"[]","人均消":"18","综合评":1.5,"WGS84_经":112.9310065,"WGS84_纬":28.190911400000001,"图片":"./images/shop/卤炸专家.jpg"}},{"type":"Feature","id":195,"geometry":{"type":"Point","coordinates":[112.93966230000001,28.178443000000073]},"properties":{"FID":195,"名称":"山东菜煎饼","类型":"餐饮服务;餐饮相关场所;餐饮相关","地址":"山东菜煎饼(麓山南路120号)","联系电":"15701191305","人均消":"14","综合评":4.2000000000000002,"WGS84_经":112.93966229999999,"WGS84_纬":28.178443000000001,"图片":"./images/shop/山东菜煎饼.jpg"}},{"type":"Feature","id":196,"geometry":{"type":"Point","coordinates":[112.93098260000011,28.190914400000054]},"properties":{"FID":196,"名称":"帕帕棒士·现烤面包(岳麓山店)","类型":"餐饮服务;餐饮相关场所;餐饮相关","地址":"麓山南路82号","联系电":"[]","人均消":"19","综合评":2.2999999999999998,"WGS84_经":112.93098259999999,"WGS84_纬":28.1909144,"图片":"./images/shop/帕帕棒士·现烤面包(岳麓山店).jpg"}},{"type":"Feature","id":197,"geometry":{"type":"Point","coordinates":[112.94475720000003,28.195816700000023]},"properties":{"FID":197,"名称":"麦当劳(长沙岳麓山东门餐厅)","类型":"餐饮服务;餐饮相关场所;餐饮相关","地址":"麓山路193号","联系电":"4008517517","人均消":"30","综合评":4.5999999999999996,"WGS84_经":112.9447572,"WGS84_纬":28.195816700000002,"图片":"./images/shop/麦当劳(长沙岳麓山东门餐厅).jpg"}},{"type":"Feature","id":198,"geometry":{"type":"Point","coordinates":[112.93954850000011,28.178432200000032]},"properties":{"FID":198,"名称":"宫阿姨紫米饭团火鸡面","类型":"餐饮服务;中餐厅;中餐厅","地址":"湘江新区桔子洲街道麓山南路122号(在上楼梯巷子里)","联系电":"15567480011","人均消":"12","综合评":3.7000000000000002,"WGS84_经":112.9395485,"WGS84_纬":28.1784322,"图片":"./images/shop/宫阿姨紫米饭团火鸡面.jpg"}},{"type":"Feature","id":199,"geometry":{"type":"Point","coordinates":[112.93958450000002,28.178422100000034]},"properties":{"FID":199,"名称":"李字号坡上粉面馆","类型":"餐饮服务;中餐厅;中餐厅","地址":"湘江新区桔子洲街道麓山南路120-2号","联系电":"15074929892","人均消":"[]","综合评":3.1000000000000001,"WGS84_经":112.9395845,"WGS84_纬":28.178422099999999,"图片":"./images/shop/李字号坡上粉面馆.jpg"}}]}