{"type":"FeatureCollection","features":[{"type":"Feature","properties":{"name":"麓山南路"},"geometry":{"type":"MultiLineString","coordinates":[[[112.9386996,28.1732961],[112.9386095,28.1730654],[112.938548,28.1729916],[112.9382916,28.1726839],[112.9371467,28.1711035],[112.9367068,28.1706495],[112.9364072,28.1705044],[112.9363268,28.1704655],[112.9356881,28.1701527],[112.9351552,28.1699235],[112.9337913,28.169505],[112.93224,28.169048],[112.9317434,28.1688628],[112.9310479,28.1686351],[112.9302149,28.1683634],[112.9298068,28.1681699]],[[112.9310479,28.1686351],[112.9317434,28.1688628],[112.93224,28.169048],[112.9337913,28.169505],[112.9351552,28.1699235],[112.9356881,28.1701527],[112.9367068,28.1706495],[112.9371467,28.1711035],[112.9386095,28.1730654],[112.9387666,28.1730627],[112.938932,28.1730113]]]}},{"type":"Feature","properties":{"name":"登高路"},"geometry":{"type":"MultiLineString","coordinates":[[[112.9389644,28.1828185],[112.9385935,28.1827926],[112.9382645,28.1827094],[112.938039,28.1826203],[112.9379519,28.1825859],[112.9377848,28.1824917],[112.937636,28.1824079],[112.936733,28.1817865],[112.9364085,28.1815819],[112.9360326,28.1815195],[112.9354026,28.1819704]]]}},{"type":"Feature","properties":{"name":"桃子湖路"},"geometry":{"type":"MultiLineString","coordinates":[[[112.9427023,28.1875961],[112.9428201,28.1875524],[112.9439849,28.1875934],[112.9440271,28.1875949],[112.9442055,28.1875605],[112.9443164,28.1875391],[112.9444126,28.1875206],[112.945572,28.187297],[112.9456541,28.1872852],[112.9457185,28.1872759],[112.9458993,28.1872498],[112.9459814,28.1872342],[112.9483451,28.1867837],[112.9484308,28.1867674],[112.9486195,28.1867879],[112.9484618,28.186867],[112.9483727,28.1868826],[112.9476514,28.1870094],[112.9463292,28.1872418],[112.9460081,28.1873005],[112.9459744,28.1873067],[112.9457478,28.187348],[112.94568,28.1873604],[112.9444389,28.1875871],[112.9443317,28.1876067],[112.9440465,28.1876588],[112.943982,28.1876574],[112.9428273,28.1876317],[112.9427023,28.1875961]]]}},{"type":"Feature","properties":{"name":"学堂坡路"},"geometry":{"type":"MultiLineString","coordinates":[[[112.9493099,28.1953874],[112.9492531,28.1951303],[112.9491998,28.1948894],[112.9489586,28.1939206],[112.9489148,28.1937033],[112.9486395,28.1923361],[112.9485737,28.1920071],[112.948334,28.1908081],[112.9482201,28.1902383],[112.9479808,28.1890416],[112.9480427,28.188984],[112.9476514,28.1870094]]]}},{"type":"Feature","properties":{"name":"麓山路"},"geometry":{"type":"MultiLineString","coordinates":[[[112.9463518,28.1990846],[112.9455953,28.1976387],[112.9451235,28.1967369],[112.9449802,28.1963502],[112.9447755,28.1952577],[112.9446893,28.1948502],[112.9445442,28.1942821],[112.9443208,28.1938997],[112.9432468,28.1923488],[112.9431559,28.1922175]]]}},{"type":"Feature","properties":{"name":"新民路"},"geometry":{"type":"MultiLineString","coordinates":[[[112.950402,28.194994],[112.9502319,28.1950497],[112.9493099,28.1953874],[112.9483586,28.1956288],[112.9477053,28.1958406],[112.9472413,28.1960017],[112.9451235,28.1967369]]]}},{"type":"Feature","properties":{"name":"潇湘中路"},"geometry":{"type":"MultiLineString","coordinates":[[[112.9481567,28.1685528],[112.9480906,28.1692786],[112.9478456,28.1708417],[112.9476871,28.1721927],[112.9476806,28.1722479],[112.9476303,28.1726764],[112.9474272,28.1744073],[112.9474057,28.1748045],[112.947395,28.1752395],[112.9476954,28.1785496],[112.9477276,28.1789374],[112.9476847,28.1800722],[112.9476954,28.1807531],[112.9477383,28.1813868],[112.947849,28.1822919],[112.9478563,28.1823514],[112.9478733,28.1824868],[112.9479103,28.1827111],[112.9484786,28.186153],[112.9486073,28.1867487],[112.9486195,28.1867879],[112.9494978,28.1896046],[112.9497124,28.1904462],[112.9498841,28.1914864],[112.950402,28.194994]],[[112.9497609,28.191868],[112.9497057,28.1914954],[112.9495348,28.1904601],[112.949502,28.1903315],[112.9493219,28.1896249],[112.9484618,28.186867],[112.9484308,28.1867674],[112.9483007,28.1861651],[112.9477387,28.1827347],[112.9477106,28.182563],[112.9476898,28.1824361],[112.9476777,28.1823592],[112.9476724,28.1823155],[112.9475592,28.1813902],[112.9475159,28.1807516],[112.9475051,28.1800658],[112.9475479,28.1789341],[112.9475162,28.1785523],[112.9472153,28.1752372],[112.9472262,28.1747954],[112.9472418,28.1745076],[112.9472479,28.1743939],[112.9475015,28.1722333],[112.9476668,28.1708245],[112.9478929,28.1691611],[112.9479388,28.1688237],[112.9479779,28.1685359],[112.9480303,28.1680696]]]}},{"type":"Feature","properties":{"name":"枫林一路"},"geometry":{"type":"MultiLineString","coordinates":[[[112.946798,28.1994455],[112.9469442,28.1995151],[112.9471051,28.1995341],[112.9491511,28.1994983],[112.9506885,28.1994714]],[[112.9506885,28.1995523],[112.9493651,28.1996203],[112.9492695,28.1996249],[112.9491667,28.1996283],[112.9478023,28.1996667],[112.9470981,28.1997052],[112.9469442,28.1997137],[112.9468395,28.1997464]]]}},{"type":"Feature","properties":{"name":"橘子洲大桥"},"geometry":{"type":"MultiLineString","coordinates":[[[112.9506885,28.1994714],[112.9525449,28.199397],[112.9547658,28.1993025],[112.9561198,28.1992493],[112.9572078,28.1991954],[112.9594114,28.1991417],[112.9614177,28.1990661]],[[112.9614226,28.1991469],[112.9594124,28.1992226],[112.958114,28.1992558],[112.9572752,28.1992719],[112.9563375,28.1992981],[112.9547708,28.1993832],[112.9525471,28.1994779],[112.9522506,28.1994898],[112.9506885,28.1995523]]]}},{"type":"Feature","properties":{"name":"阜埠河路"},"geometry":{"type":"MultiLineString","coordinates":[[[112.9386996,28.1732961],[112.938932,28.1730113],[112.9395023,28.1723123],[112.9398056,28.171945],[112.9403226,28.1713544],[112.9403662,28.1713108],[112.9407015,28.1710266],[112.9403968,28.1713926],[112.9398903,28.1719981],[112.9387327,28.1733819]],[[112.9407015,28.1710266],[112.940816,28.1709143],[112.941567,28.1702334],[112.9431625,28.1687708],[112.9434445,28.1685123]],[[112.938932,28.1730113],[112.9403662,28.1713108],[112.940816,28.1709143]]]}},{"type":"Feature","properties":{"name":"后湖路"},"geometry":{"type":"MultiLineString","coordinates":[[[112.942727,28.1682326],[112.942889,28.1682636],[112.9432205,28.1683513],[112.9434445,28.1685123]]]}},{"type":"Feature","properties":{"name":"枫林二路"},"geometry":{"type":"MultiLineString","coordinates":[[[112.9430465,28.2027953],[112.943448,28.2026057],[112.9438424,28.2023972],[112.9442439,28.2020812],[112.9461512,28.1999769],[112.9463276,28.1997689],[112.9464798,28.1995701]],[[112.9467048,28.199799],[112.9465107,28.1998728],[112.9462669,28.2000359],[112.9443056,28.2022274],[112.9440073,28.202466],[112.943848,28.202548],[112.9436539,28.202648]]]}},{"type":"Feature","properties":{"name":"湘江中路"},"geometry":{"type":"MultiLineString","coordinates":[[[112.9629251,28.1830367],[112.9629098,28.1828637],[112.962823,28.1819521],[112.9627774,28.1813487],[112.9627154,28.1806255],[112.9624426,28.1779938],[112.9623486,28.1769802],[112.9622514,28.175933],[112.9619247,28.1726067],[112.9618144,28.1717317],[112.9616403,28.1703515],[112.9615255,28.1699835],[112.9614211,28.1696661],[112.9611446,28.1690129],[112.9608224,28.1685156]],[[112.9607016,28.1681492],[112.9608728,28.168404],[112.9609468,28.1685333],[112.9612358,28.1689808],[112.961267,28.1690454],[112.9615602,28.169652],[112.9617698,28.1704016],[112.9619309,28.1717233],[112.9620532,28.1727266],[112.9624736,28.1769694],[112.9628351,28.1806174],[112.9628924,28.1813127]]]}},{"type":"Feature","properties":{"name":"南湖路"},"geometry":{"type":"MultiLineString","coordinates":[[[112.9607016,28.1681492],[112.9612135,28.1682869],[112.9619618,28.1682371]],[[112.9620386,28.168507],[112.9615822,28.1685317],[112.9609468,28.1685333],[112.9608224,28.1685156]]]}},{"type":"Feature","properties":{"name":"学府路"},"geometry":{"type":"MultiLineString","coordinates":[[[112.9403662,28.1713108],[112.9403277,28.1712809],[112.9398577,28.1709164],[112.939837,28.1706422],[112.9398374,28.1705191],[112.9398383,28.1701855],[112.939839,28.1698996],[112.9398398,28.1696011],[112.9398405,28.1693545],[112.9398407,28.1692888],[112.9398412,28.1690806],[112.9398425,28.1686086],[112.9398644,28.1684245]]]}},{"type":"Feature","properties":{"name":"爱民路"},"geometry":{"type":"MultiLineString","coordinates":[[[112.9491511,28.1994983],[112.949087,28.1984385],[112.9490578,28.1979565],[112.949044,28.1977293],[112.9488509,28.1970485],[112.9487712,28.1968015]]]}},{"type":"Feature","properties":{"name":"溁湾路"},"geometry":{"type":"MultiLineString","coordinates":[[[112.943848,28.202548],[112.9447008,28.2026949],[112.9455269,28.2027422],[112.9459398,28.2026926],[112.945999,28.2026855],[112.9467822,28.2024302],[112.9470648,28.2023134],[112.9474109,28.2021704],[112.9478121,28.2020047],[112.9484666,28.201844],[112.9489279,28.2017967],[112.9493032,28.2018057],[112.9494757,28.2017991]]]}},{"type":"Feature","properties":{"name":"天马路"},"geometry":{"type":"MultiLineString","coordinates":[[[112.9407015,28.1710266],[112.9421003,28.1718801],[112.9425723,28.1719368],[112.9433663,28.1720692],[112.9436796,28.1721874],[112.9440109,28.1724117],[112.9443211,28.1726745],[112.9447503,28.1731569],[112.9450185,28.1734217],[112.9454691,28.1739418],[112.9458554,28.1742256],[112.9462952,28.1743769],[112.9463381,28.1743837],[112.9467137,28.1744431],[112.9470141,28.1744809],[112.9472418,28.1745076]]]}},{"type":"Feature","properties":{"name":"船山路"},"geometry":{"type":"MultiLineString","coordinates":[[[112.9422989,28.1686117],[112.9414609,28.1686086],[112.940587,28.1686016],[112.9398425,28.1686086]]]}},{"type":"Feature","properties":{"name":"南轩路"},"geometry":{"type":"MultiLineString","coordinates":[[[112.9390101,28.1682798],[112.9390101,28.169085],[112.9390101,28.1698832],[112.9390114,28.170494],[112.9390065,28.1708667],[112.9398577,28.1709164]]]}},{"type":"Feature","properties":{"name":"默深路"},"geometry":{"type":"MultiLineString","coordinates":[[[112.940587,28.1686016],[112.9405791,28.1692888],[112.9406107,28.1693775],[112.940777,28.1695879],[112.9408547,28.1697053],[112.9408513,28.1699065],[112.9408341,28.1702025],[112.9401539,28.1706839],[112.939837,28.1706422]]]}},{"type":"Feature","properties":{"name":"岳民巷"},"geometry":{"type":"MultiLineString","coordinates":[[[112.9455953,28.1976387],[112.9464762,28.1973168],[112.9472037,28.1972712],[112.9472403,28.1972689],[112.9487712,28.1968015],[112.9495644,28.1967524]]]}},{"type":"Feature","properties":{"name":"高家坪道路"},"geometry":{"type":"MultiLineString","coordinates":[[[112.9283466,28.1705258],[112.928195,28.1711374],[112.9281163,28.1716922],[112.9280959,28.1718363],[112.9280179,28.1722928],[112.9279999,28.1723983]]]}},{"type":"Feature","properties":{"name":"木兰路"},"geometry":{"type":"MultiLineString","coordinates":[[[112.941595,28.1910904],[112.9416077,28.1907568],[112.9416273,28.1902418],[112.9416394,28.1899235],[112.9416804,28.1891272],[112.9417127,28.1885011],[112.9417145,28.1884493],[112.9417167,28.188387],[112.9417725,28.1868158],[112.9421566,28.1865934]]]}},{"type":"Feature","properties":{"name":"岳王亭路"},"geometry":{"type":"MultiLineString","coordinates":[[[112.9389104,28.1924784],[112.9393263,28.1921961],[112.9398596,28.1922711],[112.9399124,28.1922785],[112.9406387,28.1923099],[112.9415283,28.192324],[112.9425421,28.1923471],[112.9425674,28.1918376],[112.942578,28.1916252],[112.9427011,28.1915158]]]}},{"type":"Feature","properties":{"name":"桂花路"},"geometry":{"type":"MultiLineString","coordinates":[[[112.9405904,28.193246],[112.9406147,28.1927747],[112.9406234,28.192606],[112.9406352,28.1923782],[112.9406387,28.1923099],[112.94067,28.1917498],[112.9406855,28.1913465],[112.9406664,28.1907379],[112.9406501,28.1902185],[112.9406382,28.1898402],[112.9407806,28.1895171]]]}},{"type":"Feature","properties":{"name":"向阳路"},"geometry":{"type":"MultiLineString","coordinates":[[[112.9416804,28.1891272],[112.9413519,28.1891314],[112.9409636,28.1894396],[112.9407806,28.1895171],[112.9404377,28.1896709]]]}},{"type":"Feature","properties":{"name":"上游中路"},"geometry":{"type":"MultiLineString","coordinates":[[[112.9422203,28.1939698],[112.9422312,28.193535],[112.9422348,28.193391],[112.9423116,28.1932223],[112.9424932,28.1928233],[112.9425421,28.1923471],[112.9429871,28.192344]]]}},{"type":"Feature","properties":{"name":"景德路"},"geometry":{"type":"MultiLineString","coordinates":[[[112.9422348,28.193391],[112.9416446,28.1934384],[112.9414923,28.1934507],[112.9410974,28.1934824],[112.9409713,28.193629],[112.9403866,28.1936834],[112.9403785,28.1934281],[112.9405904,28.193246]]]}},{"type":"Feature","properties":{"name":"长塘山路"},"geometry":{"type":"MultiLineString","coordinates":[[[112.9497609,28.191868],[112.9477537,28.1921966],[112.9459884,28.1924909]]]}},{"type":"Feature","properties":{"name":"茶山路"},"geometry":{"type":"MultiLineString","coordinates":[[[112.9459884,28.1924909],[112.9457876,28.1926062],[112.9454117,28.1937422],[112.9452833,28.1939253],[112.9445442,28.1942821]]]}},{"type":"Feature","properties":{"name":"求知路"},"geometry":{"type":"MultiLineString","coordinates":[[[112.9256404,28.1722736],[112.9258195,28.1712822],[112.9260128,28.1702204],[112.9262059,28.1699237],[112.9263731,28.1698147],[112.9265403,28.1697057]]]}}]}