{"type":"FeatureCollection","features":[{"type":"Feature","properties":{},"geometry":{"type":"Polygon","coordinates":[[[112.99917,28.21842],[113.00069,28.21956],[113.00087,28.21979],[113.00097,28.22005],[113.00102,28.22034],[113.00014,28.221],[112.99989,28.22119],[112.99915,28.22031],[112.99856,28.21963],[112.99738,28.21855],[112.99727,28.21835],[112.9966,28.21794],[112.996,28.21722],[112.996,28.217],[112.99581,28.21679],[112.9958,28.21642],[112.99585,28.21611],[112.99603,28.21571],[112.99623,28.21539],[112.99656,28.21508],[112.99693,28.21491],[112.99752,28.21462],[112.9981,28.21447],[112.99856,28.21449],[112.99902,28.21441],[112.99981,28.21457],[113.00004,28.21477],[113.00038,28.21492],[113.00058,28.21514],[113.00073,28.21527],[113.00078,28.21536],[113.00085,28.21541],[113.00085,28.21549],[113.00072,28.21559],[113.00067,28.21559],[113.00057,28.21563],[113.0005,28.21563],[113.00039,28.21566],[113.00033,28.21574],[113.0003,28.2159],[113.00019,28.21609],[113.00008,28.21615],[112.99991,28.2163],[112.9996,28.21623],[112.99923,28.21613],[112.9988,28.21609],[112.9985,28.21614],[112.99829,28.2162],[112.99801,28.21632],[112.9978,28.21642],[112.99768,28.21655],[112.9976,28.21669],[112.99756,28.21696],[112.99757,28.21717],[112.99761,28.21727],[112.99772,28.21741],[112.99851,28.21799],[112.99858,28.21793],[112.99861,28.21796],[112.99917,28.21842]]]}},{"type":"Feature","properties":{},"geometry":{"type":"Polygon","coordinates":[[[112.9427,28.16652],[112.94266,28.16681],[112.94254,28.16711],[112.94247,28.1673],[112.94247,28.16751],[112.94212,28.16769],[112.94116,28.1663],[112.94198,28.16539],[112.9427,28.16652]]]}},{"type":"Feature","properties":{},"geometry":{"type":"Polygon","coordinates":[[[112.94259,28.16489],[112.94268,28.16504],[112.94268,28.16522],[112.94261,28.16563],[112.94258,28.16569],[112.94237,28.16577],[112.94205,28.16529],[112.94246,28.16484],[112.94259,28.16489]]]}},{"type":"Feature","properties":{},"geometry":{"type":"Polygon","coordinates":[[[112.94203,28.16775],[112.94111,28.16818],[112.94099,28.16807],[112.94064,28.16767],[112.94058,28.16748],[112.94033,28.16725],[112.94111,28.16636],[112.94203,28.16775]]]}},{"type":"Feature","properties":{},"geometry":{"type":"Polygon","coordinates":[[[112.9403,28.16723],[112.93981,28.167],[112.93965,28.167],[112.9394,28.16706],[112.9393,28.16659],[112.93854,28.16594],[112.94063,28.16263],[112.94089,28.16268],[112.94123,28.16275],[112.94139,28.16287],[112.94151,28.16305],[112.94194,28.16359],[112.94203,28.16376],[112.94195,28.16405],[112.94193,28.16432],[112.94202,28.16445],[112.94244,28.16478],[112.9403,28.16723]]]}},{"type":"Feature","properties":{},"geometry":{"type":"Polygon","coordinates":[[[112.93922,28.16662],[112.9393,28.16709],[112.93908,28.1671],[112.93886,28.16707],[112.93895,28.16671],[112.93873,28.16649],[112.93849,28.16648],[112.93833,28.16622],[112.93808,28.16623],[112.93796,28.16647],[112.93801,28.16681],[112.93784,28.16656],[112.93735,28.16649],[112.93728,28.1663],[112.93725,28.16608],[112.93743,28.16605],[112.93732,28.16583],[112.93759,28.16557],[112.93808,28.16563],[112.93922,28.16662]]]}},{"type":"Feature","properties":{},"geometry":{"type":"Polygon","coordinates":[[[112.93908,28.16159],[112.9394,28.16181],[112.93971,28.16213],[112.94047,28.16256],[112.94045,28.16269],[112.9385,28.16584],[112.9384,28.16585],[112.93806,28.16552],[112.93798,28.16525],[112.93805,28.16504],[112.93801,28.16427],[112.93781,28.16405],[112.93754,28.16391],[112.93839,28.16165],[112.93871,28.16139],[112.93908,28.16159]]]}},{"type":"Feature","properties":{},"geometry":{"type":"Polygon","coordinates":[[[112.93631,28.16413],[112.93605,28.16442],[112.93584,28.16454],[112.93514,28.16437],[112.93507,28.16432],[112.93506,28.16432],[112.93479,28.16417],[112.93416,28.16373],[112.93441,28.1635],[112.93441,28.1635],[112.93455,28.16337],[112.93668,28.16142],[112.93771,28.16139],[112.93828,28.1617],[112.93748,28.16384],[112.93686,28.16418],[112.93649,28.16407],[112.93631,28.16413]]]}},{"type":"Feature","properties":{},"geometry":{"type":"Polygon","coordinates":[[[112.93441,28.1635],[112.93507,28.16432],[112.93691,28.16666],[112.93506,28.16432],[112.93441,28.1635],[112.93399,28.16297],[112.93385,28.16208],[112.93386,28.16161],[112.93624,28.16115],[112.93641,28.16131],[112.93661,28.16143],[112.93455,28.16337],[112.93445,28.16342],[112.93435,28.16342],[112.93441,28.1635]]]}},{"type":"Feature","properties":{},"geometry":{"type":"Polygon","coordinates":[[[112.93561,28.16028],[112.93575,28.16039],[112.93618,28.16111],[112.93383,28.16153],[112.93355,28.16122],[112.93331,28.16083],[112.93331,28.16068],[112.9351,28.15996],[112.93561,28.16028]]]}},{"type":"Feature","properties":{},"geometry":{"type":"Polygon","coordinates":[[[112.91294,28.17369],[112.91288,28.17385],[112.91283,28.1739],[112.91268,28.17389],[112.91268,28.17362],[112.91284,28.17353],[112.91294,28.17369]]]}},{"type":"Feature","properties":{},"geometry":{"type":"Polygon","coordinates":[[[112.90995,28.1763],[112.90984,28.17639],[112.90961,28.17625],[112.90929,28.17615],[112.90912,28.17615],[112.90901,28.17603],[112.90903,28.17572],[112.90909,28.17562],[112.90932,28.17567],[112.90954,28.17567],[112.90979,28.17574],[112.90996,28.17567],[112.91007,28.17572],[112.91024,28.17577],[112.91073,28.17577],[112.91087,28.17567],[112.91106,28.17569],[112.91108,28.17579],[112.91088,28.17627],[112.91075,28.17636],[112.91049,28.17626],[112.9102,28.17626],[112.90995,28.1763]]]}},{"type":"Feature","properties":{},"geometry":{"type":"Polygon","coordinates":[[[112.91538,28.17717],[112.91503,28.17753],[112.91503,28.17766],[112.91494,28.17771],[112.91497,28.17779],[112.91483,28.17784],[112.91445,28.17753],[112.91428,28.1775],[112.91424,28.17738],[112.91485,28.17691],[112.91526,28.17689],[112.91579,28.17683],[112.91589,28.17688],[112.91591,28.17706],[112.91583,28.1773],[112.91575,28.17731],[112.91562,28.17727],[112.91547,28.17714],[112.91538,28.17717]]]}},{"type":"Feature","properties":{},"geometry":{"type":"Polygon","coordinates":[[[112.91294,28.17786],[112.9126,28.17811],[112.91259,28.17791],[112.91243,28.17785],[112.91226,28.17788],[112.91213,28.17788],[112.91215,28.17778],[112.91223,28.17776],[112.91229,28.17771],[112.91233,28.17749],[112.91244,28.17746],[112.9126,28.17751],[112.9129,28.17767],[112.91294,28.17786]]]}},{"type":"Feature","properties":{},"geometry":{"type":"Polygon","coordinates":[[[112.91518,28.1788],[112.91547,28.17883],[112.9155,28.17893],[112.91566,28.17936],[112.91581,28.17985],[112.91558,28.17976],[112.91538,28.17941],[112.91508,28.17935],[112.91478,28.17914],[112.91464,28.17889],[112.915,28.1788],[112.91518,28.1788]]]}},{"type":"Feature","properties":{},"geometry":{"type":"Polygon","coordinates":[[[112.90637,28.17521],[112.90609,28.17534],[112.90599,28.17522],[112.90608,28.17503],[112.9063,28.17485],[112.90638,28.17462],[112.90638,28.17429],[112.90645,28.17419],[112.90652,28.17419],[112.90693,28.17447],[112.90698,28.17449],[112.90697,28.17463],[112.9069,28.17473],[112.9069,28.17481],[112.90705,28.17498],[112.90705,28.17506],[112.90696,28.1751],[112.90686,28.1751],[112.90664,28.17497],[112.90637,28.17521]]]}},{"type":"Feature","properties":{},"geometry":{"type":"Polygon","coordinates":[[[112.90521,28.17242],[112.90511,28.17248],[112.90496,28.17252],[112.90485,28.17262],[112.90464,28.17307],[112.9044,28.17321],[112.90421,28.1733],[112.9039,28.17376],[112.90391,28.17353],[112.90398,28.17336],[112.90432,28.17301],[112.90434,28.17282],[112.90431,28.17256],[112.90423,28.17248],[112.904,28.17236],[112.90363,28.17228],[112.90306,28.17226],[112.9033,28.17217],[112.90339,28.17195],[112.9035,28.17205],[112.90414,28.17209],[112.90453,28.1722],[112.90474,28.17205],[112.90496,28.172],[112.90521,28.17242]]]}},{"type":"Feature","properties":{},"geometry":{"type":"Polygon","coordinates":[[[112.90725,28.17399],[112.90715,28.17407],[112.90709,28.17423],[112.90702,28.17432],[112.90656,28.17404],[112.90653,28.17381],[112.90655,28.17352],[112.90725,28.17399]]]}},{"type":"Feature","properties":{},"geometry":{"type":"Polygon","coordinates":[[[112.90981,28.17235],[112.90973,28.17242],[112.90956,28.17246],[112.90923,28.17256],[112.90901,28.1725],[112.90893,28.17238],[112.90906,28.17222],[112.90922,28.17209],[112.90937,28.17204],[112.90981,28.17235]]]}},{"type":"Feature","properties":{},"geometry":{"type":"Polygon","coordinates":[[[112.90837,28.16869],[112.90843,28.1688],[112.90851,28.16889],[112.90846,28.16899],[112.90844,28.16927],[112.90826,28.1695],[112.90795,28.16921],[112.90792,28.16876],[112.90808,28.16866],[112.90824,28.16864],[112.90837,28.16869]]]}},{"type":"Feature","properties":{},"geometry":{"type":"Polygon","coordinates":[[[112.90617,28.16848],[112.906,28.1687],[112.90588,28.16874],[112.90563,28.16862],[112.90553,28.16842],[112.90559,28.16831],[112.90568,28.16828],[112.90595,28.16835],[112.90622,28.16829],[112.90617,28.16848]]]}},{"type":"Feature","properties":{},"geometry":{"type":"Polygon","coordinates":[[[112.91038,28.16762],[112.91021,28.16776],[112.91,28.16783],[112.90987,28.16782],[112.90969,28.16764],[112.9102,28.16747],[112.91038,28.16762]]]}},{"type":"Feature","properties":{},"geometry":{"type":"Polygon","coordinates":[[[112.90611,28.15669],[112.90578,28.1574],[112.90572,28.15737],[112.90554,28.15699],[112.90559,28.15679],[112.90572,28.15653],[112.90611,28.15669]]]}},{"type":"Feature","properties":{},"geometry":{"type":"Polygon","coordinates":[[[112.90156,28.16115],[112.90121,28.16121],[112.90093,28.16108],[112.90078,28.16107],[112.90074,28.16097],[112.90061,28.16097],[112.90058,28.16085],[112.90066,28.16054],[112.90078,28.16061],[112.90093,28.16048],[112.90107,28.16042],[112.90127,28.16054],[112.90167,28.16047],[112.90167,28.16052],[112.90156,28.16115]]]}},{"type":"Feature","properties":{},"geometry":{"type":"Polygon","coordinates":[[[112.9028,28.16143],[112.90267,28.16157],[112.90242,28.16158],[112.90213,28.16153],[112.90217,28.16143],[112.90202,28.16132],[112.90197,28.16119],[112.90181,28.16122],[112.9017,28.1611],[112.90177,28.16043],[112.90197,28.16032],[112.90221,28.16003],[112.90253,28.15991],[112.90346,28.15967],[112.90363,28.15978],[112.90375,28.15997],[112.90385,28.16009],[112.9042,28.16017],[112.90443,28.16015],[112.9046,28.16006],[112.90469,28.15988],[112.90465,28.15969],[112.90451,28.15943],[112.90432,28.15874],[112.90436,28.15853],[112.90437,28.15842],[112.9044,28.15805],[112.90477,28.15806],[112.9048,28.1583],[112.90496,28.15842],[112.90514,28.15874],[112.90539,28.15914],[112.90563,28.15937],[112.90563,28.15967],[112.90564,28.15998],[112.90553,28.1604],[112.90528,28.16058],[112.90508,28.16091],[112.90487,28.16104],[112.9047,28.16106],[112.90461,28.16097],[112.90466,28.16085],[112.9048,28.16072],[112.90476,28.16059],[112.90467,28.16054],[112.90444,28.16059],[112.90414,28.16067],[112.90342,28.1606],[112.90324,28.16065],[112.90297,28.16068],[112.90286,28.16086],[112.9028,28.16143]],[[112.9023,28.16047],[112.90229,28.1606],[112.90237,28.16065],[112.90258,28.16063],[112.90273,28.16043],[112.90271,28.1603],[112.90252,28.16021],[112.9023,28.16047]]]}},{"type":"Feature","properties":{},"geometry":{"type":"Polygon","coordinates":[[[112.91635,28.15981],[112.91649,28.15981],[112.91672,28.15996],[112.91673,28.16007],[112.91627,28.16044],[112.91611,28.1604],[112.91623,28.16027],[112.91613,28.16008],[112.91603,28.16001],[112.91598,28.15982],[112.91625,28.15977],[112.91635,28.15981]]]}},{"type":"Feature","properties":{},"geometry":{"type":"Polygon","coordinates":[[[112.91795,28.16039],[112.91815,28.1605],[112.91827,28.16063],[112.91827,28.16077],[112.91765,28.1612],[112.91744,28.16129],[112.91703,28.16108],[112.91701,28.16093],[112.91685,28.16082],[112.91688,28.16062],[112.91698,28.16056],[112.91698,28.16042],[112.91725,28.16036],[112.91733,28.16032],[112.91752,28.16037],[112.91765,28.16033],[112.91795,28.16039]]]}},{"type":"Feature","properties":{},"geometry":{"type":"Polygon","coordinates":[[[112.92502,28.20599],[112.92469,28.20605],[112.92455,28.2056],[112.92452,28.20547],[112.92447,28.20529],[112.9244,28.20498],[112.92393,28.20462],[112.92338,28.20415],[112.9228,28.20363],[112.92246,28.20322],[112.92222,28.20297],[112.92212,28.20253],[112.92213,28.20227],[112.92223,28.20184],[112.92243,28.20125],[112.92173,28.20133],[112.9211,28.20149],[112.92059,28.20181],[112.92024,28.20238],[112.91986,28.20266],[112.91923,28.20286],[112.91867,28.20295],[112.91765,28.2029],[112.91725,28.2027],[112.91668,28.20215],[112.9162,28.20203],[112.91579,28.20201],[112.91491,28.20214],[112.91488,28.20188],[112.91539,28.20181],[112.91621,28.20171],[112.91687,28.20183],[112.91726,28.20218],[112.91761,28.20255],[112.91805,28.20265],[112.91853,28.20265],[112.91903,28.20261],[112.9196,28.20245],[112.91996,28.20224],[112.92019,28.20189],[112.92039,28.20161],[112.92067,28.20136],[112.92097,28.20118],[112.92169,28.20104],[112.92222,28.20095],[112.92256,28.20092],[112.92272,28.20104],[112.92276,28.20128],[112.92265,28.20162],[112.92248,28.20258],[112.92254,28.20281],[112.92265,28.20299],[112.92312,28.20351],[112.92342,28.20375],[112.92389,28.20417],[112.92464,28.20478],[112.92473,28.20493],[112.92502,28.20599]]]}},{"type":"Feature","properties":{},"geometry":{"type":"Polygon","coordinates":[[[112.93511,28.21511],[112.93513,28.21527],[112.93444,28.21521],[112.93397,28.21505],[112.93367,28.21486],[112.93358,28.21492],[112.93348,28.21487],[112.93355,28.2148],[112.93353,28.21471],[112.93323,28.2145],[112.93279,28.21412],[112.93251,28.21382],[112.93236,28.21359],[112.93191,28.21307],[112.93169,28.21296],[112.93159,28.21291],[112.93143,28.21291],[112.93116,28.21283],[112.93112,28.21279],[112.9309,28.21274],[112.93058,28.21273],[112.93028,28.21264],[112.92993,28.21241],[112.92976,28.21231],[112.92913,28.21203],[112.92893,28.21195],[112.92839,28.21168],[112.9283,28.21149],[112.9278,28.21117],[112.92757,28.21086],[112.92734,28.21062],[112.92735,28.2105],[112.9269,28.20994],[112.92643,28.20925],[112.92582,28.20835],[112.92531,28.2075],[112.92515,28.20719],[112.92504,28.20694],[112.92486,28.2065],[112.92469,28.20605],[112.92502,28.20599],[112.92524,28.20651],[112.92541,28.20698],[112.9258,28.20777],[112.92642,28.20872],[112.92719,28.20987],[112.92764,28.21055],[112.92807,28.21103],[112.92841,28.21136],[112.92893,28.2117],[112.92954,28.21199],[112.93031,28.21229],[112.93135,28.21254],[112.9314,28.21252],[112.93144,28.21247],[112.93146,28.21248],[112.93149,28.21261],[112.93179,28.21262],[112.93197,28.21271],[112.93262,28.21341],[112.93312,28.21402],[112.93341,28.21436],[112.93369,28.21459],[112.934,28.21478],[112.93459,28.21507],[112.93511,28.21511]]]}},{"type":"Feature","properties":{},"geometry":{"type":"Polygon","coordinates":[[[112.95394,28.21253],[112.95317,28.2122],[112.95232,28.21204],[112.9506,28.21207],[112.94981,28.21212],[112.94906,28.21217],[112.94804,28.2123],[112.94721,28.21267],[112.94635,28.213],[112.94587,28.2132],[112.94555,28.21333],[112.94502,28.21356],[112.94456,28.21387],[112.94442,28.21396],[112.94413,28.21455],[112.94356,28.21504],[112.94281,28.21543],[112.94209,28.21566],[112.94165,28.2157],[112.94121,28.2157],[112.94059,28.21557],[112.94055,28.21542],[112.94013,28.21529],[112.93992,28.21512],[112.93945,28.215],[112.93852,28.21496],[112.93805,28.21503],[112.93745,28.21493],[112.93629,28.21513],[112.9358,28.21529],[112.93549,28.21533],[112.93513,28.21527],[112.93511,28.21511],[112.93545,28.21487],[112.936,28.21475],[112.93674,28.2145],[112.93745,28.21445],[112.93937,28.21454],[112.93968,28.21463],[112.94026,28.21485],[112.94128,28.21511],[112.94163,28.21514],[112.94205,28.2151],[112.94253,28.21495],[112.9429,28.21474],[112.94356,28.21439],[112.94394,28.21387],[112.94419,28.21365],[112.94554,28.21299],[112.94664,28.21247],[112.94744,28.2121],[112.94808,28.21186],[112.94871,28.21178],[112.95175,28.21169],[112.95243,28.2117],[112.95281,28.21173],[112.95311,28.21169],[112.95362,28.21119],[112.95366,28.2115],[112.95394,28.21253]]]}},{"type":"Feature","properties":{},"geometry":{"type":"Polygon","coordinates":[[[112.95394,28.21253],[112.95317,28.2122],[112.95232,28.21204],[112.9506,28.21207],[112.94981,28.21212],[112.94906,28.21217],[112.94804,28.2123],[112.94721,28.21267],[112.94635,28.213],[112.94587,28.2132],[112.94555,28.21333],[112.94502,28.21356],[112.94456,28.21387],[112.94442,28.21396],[112.94413,28.21455],[112.94356,28.21504],[112.94281,28.21543],[112.94209,28.21566],[112.94165,28.2157],[112.94121,28.2157],[112.94059,28.21557],[112.94055,28.21542],[112.94013,28.21529],[112.93992,28.21512],[112.93945,28.215],[112.93852,28.21496],[112.93805,28.21503],[112.93745,28.21493],[112.93629,28.21513],[112.9358,28.21529],[112.93549,28.21533],[112.93513,28.21527],[112.93511,28.21511],[112.93545,28.21487],[112.936,28.21475],[112.93674,28.2145],[112.93745,28.21445],[112.93937,28.21454],[112.93968,28.21463],[112.94026,28.21485],[112.94128,28.21511],[112.94163,28.21514],[112.94205,28.2151],[112.94253,28.21495],[112.9429,28.21474],[112.94356,28.21439],[112.94394,28.21387],[112.94419,28.21365],[112.94554,28.21299],[112.94664,28.21247],[112.94744,28.2121],[112.94808,28.21186],[112.94871,28.21178],[112.95175,28.21169],[112.95243,28.2117],[112.95281,28.21173],[112.95311,28.21169],[112.95362,28.21119],[112.95366,28.2115],[112.95394,28.21253]]]}},{"type":"Feature","properties":{},"geometry":{"type":"Polygon","coordinates":[[[113.00182,28.20419],[113.00224,28.20452],[113.00263,28.2049],[113.00307,28.20538],[113.00305,28.20585],[113.00317,28.20587],[113.00316,28.20627],[113.00269,28.20626],[113.00269,28.20562],[113.00257,28.20536],[113.00196,28.20464],[113.00084,28.20418],[113.00005,28.20396],[112.99973,28.20386],[112.99963,28.20383],[112.99869,28.20384],[112.99821,28.20394],[112.99797,28.20391],[112.99655,28.20351],[112.99644,28.20336],[112.99655,28.20324],[112.99862,28.2032],[112.99872,28.20327],[112.99877,28.20353],[112.99979,28.20352],[113.00096,28.20383],[113.00102,28.2036],[113.00182,28.20419]]]}},{"type":"Feature","properties":{},"geometry":{"type":"Polygon","coordinates":[[[112.92911,28.16299],[112.92914,28.16304],[112.92911,28.1631],[112.92913,28.16319],[112.92915,28.16329],[112.92919,28.16335],[112.92917,28.16343],[112.92913,28.16346],[112.92906,28.16349],[112.92899,28.1635],[112.92889,28.1635],[112.92883,28.16345],[112.9288,28.16338],[112.92882,28.16332],[112.92885,28.16323],[112.92886,28.16317],[112.92894,28.1631],[112.92897,28.16304],[112.92897,28.16298],[112.92903,28.16298],[112.92911,28.16299]]]}},{"type":"Feature","properties":{},"geometry":{"type":"Polygon","coordinates":[[[112.93211,28.16533],[112.93202,28.16538],[112.93194,28.16543],[112.93189,28.16549],[112.93184,28.16557],[112.9318,28.16563],[112.93175,28.16572],[112.93172,28.16577],[112.93168,28.16579],[112.93157,28.16578],[112.93162,28.16523],[112.93168,28.16514],[112.93173,28.16505],[112.93179,28.165],[112.93188,28.16496],[112.93197,28.16495],[112.93265,28.165],[112.93272,28.16504],[112.93278,28.16509],[112.93281,28.16514],[112.93277,28.16559],[112.93273,28.16562],[112.93264,28.16561],[112.93258,28.16561],[112.93257,28.16557],[112.93254,28.16552],[112.93251,28.16547],[112.93247,28.16542],[112.93239,28.16536],[112.93231,28.16532],[112.93222,28.16531],[112.93211,28.16533]]]}},{"type":"Feature","properties":{},"geometry":{"type":"Polygon","coordinates":[[[112.96904,28.22646],[112.9692,28.22748],[112.96926,28.22812],[112.96941,28.22932],[112.96955,28.23113],[112.96886,28.23188],[112.96933,28.23241],[112.96945,28.23375],[112.96981,28.23376],[112.97021,28.23692],[112.97059,28.23865],[112.97067,28.23897],[112.95996,28.23914],[112.95996,28.23536],[112.95915,28.2289],[112.95619,28.21895],[112.95474,28.21547],[112.95394,28.21253],[112.95366,28.2115],[112.95362,28.21119],[112.95302,28.20526],[112.95288,28.20301],[112.95242,28.2023],[112.95184,28.19957],[112.95193,28.19928],[112.95161,28.19732],[112.95085,28.19168],[112.95052,28.18991],[112.94939,28.18631],[112.94898,28.18371],[112.95109,28.18999],[112.9517,28.19221],[112.95194,28.1932],[112.95213,28.19175],[112.9522,28.19029],[112.95185,28.18821],[112.9519,28.18499],[112.95121,28.18299],[112.95006,28.18045],[112.95018,28.17803],[112.95062,28.17629],[112.95087,28.17531],[112.95121,28.17111],[112.95096,28.16851],[112.95078,28.16662],[112.95044,28.16297],[112.9498,28.15976],[112.94958,28.15656],[112.95634,28.15585],[112.95706,28.1588],[112.9574,28.15941],[112.95799,28.16128],[112.95949,28.16804],[112.95459,28.16841],[112.95447,28.16845],[112.95436,28.16856],[112.95422,28.16909],[112.95395,28.17094],[112.95387,28.17204],[112.95391,28.17367],[112.95398,28.17452],[112.95416,28.17584],[112.95428,28.17737],[112.95455,28.18035],[112.95472,28.18319],[112.95499,28.18604],[112.95507,28.18775],[112.95535,28.19122],[112.95531,28.19186],[112.9553,28.19284],[112.95519,28.19417],[112.95515,28.19441],[112.95512,28.19521],[112.95523,28.196],[112.95539,28.19675],[112.95538,28.19725],[112.95546,28.19767],[112.95578,28.19869],[112.95597,28.19916],[112.95607,28.19953],[112.9561,28.19998],[112.95634,28.20097],[112.9568,28.20272],[112.95682,28.20328],[112.9569,28.20387],[112.95671,28.20484],[112.95703,28.20648],[112.95791,28.2085],[112.95886,28.21008],[112.95996,28.21131],[112.96059,28.21156],[112.96035,28.21239],[112.95904,28.21078],[112.95818,28.20981],[112.95784,28.20952],[112.9576,28.20934],[112.95731,28.20917],[112.95701,28.20915],[112.95674,28.2093],[112.95658,28.20959],[112.95652,28.21012],[112.9565,28.2107],[112.95662,28.21199],[112.95701,28.2148],[112.9573,28.21638],[112.95761,28.21818],[112.95789,28.21956],[112.95835,28.22077],[112.9588,28.22198],[112.95923,28.22324],[112.95991,28.2249],[112.96021,28.22531],[112.96053,28.22555],[112.96091,28.22558],[112.96904,28.22646]]]}},{"type":"Feature","properties":{},"geometry":{"type":"Polygon","coordinates":[[[112.95949,28.16804],[112.96009,28.16924],[112.96016,28.16967],[112.96035,28.17055],[112.9606,28.17168],[112.96134,28.17447],[112.96151,28.17541],[112.96165,28.17642],[112.96223,28.18289],[112.96256,28.18508],[112.9627,28.18849],[112.96305,28.18995],[112.96304,28.1915],[112.96263,28.19491],[112.96254,28.19505],[112.96246,28.1952],[112.9627,28.19793],[112.96277,28.19868],[112.96287,28.1999],[112.96306,28.20148],[112.96377,28.20438],[112.96413,28.20596],[112.96425,28.20641],[112.96428,28.20695],[112.96445,28.20782],[112.96567,28.21198],[112.96556,28.2121],[112.96572,28.21277],[112.96581,28.21392],[112.96618,28.21445],[112.9672,28.2185],[112.96799,28.21998],[112.96828,28.22161],[112.96866,28.22399],[112.96867,28.22467],[112.96878,28.22513],[112.96887,28.22552],[112.96904,28.22646],[112.96091,28.22558],[112.96121,28.22543],[112.96139,28.22509],[112.96139,28.22473],[112.9614,28.22466],[112.96154,28.22221],[112.96158,28.221],[112.96154,28.22019],[112.96153,28.21956],[112.96153,28.21901],[112.96156,28.21852],[112.96132,28.21623],[112.96111,28.21487],[112.96095,28.21415],[112.96079,28.2137],[112.9605,28.21285],[112.96035,28.21239],[112.96059,28.21156],[112.96079,28.21139],[112.96088,28.21102],[112.9608,28.21045],[112.95994,28.20417],[112.95974,28.20392],[112.95997,28.20379],[112.95992,28.20337],[112.95954,28.20329],[112.95949,28.20311],[112.95898,28.20199],[112.95871,28.20085],[112.95851,28.20039],[112.95825,28.20012],[112.95799,28.19901],[112.95786,28.19793],[112.9577,28.19761],[112.95768,28.19719],[112.95761,28.19689],[112.95763,28.19663],[112.9576,28.19636],[112.95741,28.19561],[112.95732,28.19521],[112.95727,28.19473],[112.95715,28.19404],[112.9571,28.19339],[112.95706,28.19293],[112.95709,28.19247],[112.95697,28.19064],[112.95702,28.19061],[112.95695,28.18835],[112.95684,28.18764],[112.95681,28.18677],[112.95678,28.18611],[112.95685,28.18552],[112.95682,28.18482],[112.95675,28.18335],[112.95671,28.18279],[112.9567,28.18231],[112.95661,28.18017],[112.95659,28.17951],[112.95655,28.17886],[112.95655,28.178],[112.95649,28.17684],[112.95638,28.17564],[112.9562,28.1734],[112.95611,28.17289],[112.95603,28.17246],[112.95592,28.17177],[112.95579,28.17122],[112.95572,28.17075],[112.95552,28.16982],[112.9553,28.16918],[112.95489,28.16853],[112.95479,28.16844],[112.95459,28.16841],[112.95949,28.16804]]]}},{"type":"Feature","properties":{},"geometry":{"type":"Polygon","coordinates":[[[112.92689,28.17036],[112.92676,28.1711],[112.92604,28.17101],[112.92617,28.17026],[112.92689,28.17036]]]}},{"type":"Feature","properties":{},"geometry":{"type":"Polygon","coordinates":[[[112.93937,28.18259],[112.93951,28.18263],[112.9395,28.18272],[112.93933,28.18273],[112.93918,28.1827],[112.93913,28.18262],[112.93923,28.18257],[112.93937,28.18259]]]}},{"type":"Feature","properties":{},"geometry":{"type":"Polygon","coordinates":[[[112.93671,28.18113],[112.93673,28.18127],[112.93673,28.18134],[112.93671,28.18141],[112.93666,28.18146],[112.93658,28.18151],[112.93638,28.18134],[112.93639,28.18123],[112.93646,28.18123],[112.93652,28.1812],[112.93655,28.18116],[112.93655,28.18113],[112.93671,28.18113]]]}},{"type":"Feature","properties":{},"geometry":{"type":"Polygon","coordinates":[[[112.93908,28.18067],[112.93899,28.18135],[112.9388,28.18133],[112.9389,28.18065],[112.93908,28.18067]]]}},{"type":"Feature","properties":{},"geometry":{"type":"Polygon","coordinates":[[[112.95534,28.17231],[112.95539,28.17243],[112.95548,28.17251],[112.9555,28.17262],[112.95548,28.17269],[112.9554,28.17281],[112.95516,28.17278],[112.95508,28.17271],[112.95512,28.17243],[112.95512,28.17229],[112.95519,28.17224],[112.9553,28.17223],[112.95534,28.17231]]]}},{"type":"Feature","properties":{},"geometry":{"type":"Polygon","coordinates":[[[112.95613,28.18736],[112.95618,28.18753],[112.9562,28.18779],[112.95619,28.18811],[112.95613,28.18844],[112.95597,28.1886],[112.9558,28.18861],[112.9557,28.18852],[112.95561,28.1884],[112.95556,28.18821],[112.95555,28.18791],[112.9556,28.18771],[112.9557,28.18739],[112.95585,28.18731],[112.956,28.18731],[112.95613,28.18736]]]}},{"type":"Feature","properties":{},"geometry":{"type":"Polygon","coordinates":[[[112.95557,28.17543],[112.95554,28.17547],[112.95555,28.17552],[112.95559,28.17555],[112.95558,28.17562],[112.95541,28.17572],[112.9552,28.17574],[112.95513,28.17569],[112.9551,28.17557],[112.95514,28.17533],[112.95551,28.17502],[112.9556,28.17499],[112.95567,28.17502],[112.95576,28.17516],[112.95578,28.17542],[112.95568,28.17543],[112.95561,28.17541],[112.95557,28.17543]]]}},{"type":"Feature","properties":{},"geometry":{"type":"Polygon","coordinates":[[[112.95588,28.17955],[112.95596,28.17964],[112.95588,28.17983],[112.95587,28.18003],[112.9558,28.18014],[112.9557,28.18018],[112.95567,28.18023],[112.95568,28.18031],[112.95565,28.18039],[112.95558,28.18041],[112.9555,28.18036],[112.95549,28.18031],[112.95551,28.18027],[112.9556,28.18015],[112.9556,28.17997],[112.95554,28.17983],[112.95544,28.17976],[112.95542,28.17961],[112.95552,28.17954],[112.95588,28.17955]]]}},{"type":"Feature","properties":{},"geometry":{"type":"Polygon","coordinates":[[[112.95606,28.18362],[112.95603,28.18388],[112.95592,28.18394],[112.95588,28.18403],[112.9559,28.18412],[112.95596,28.18425],[112.95594,28.18439],[112.95585,28.18444],[112.9558,28.1845],[112.95582,28.18463],[112.95575,28.18468],[112.95571,28.18468],[112.95567,28.18465],[112.95568,28.18457],[112.95565,28.18448],[112.95559,28.18432],[112.95559,28.1842],[112.95568,28.18409],[112.95571,28.18399],[112.95572,28.18389],[112.95567,28.18366],[112.95573,28.18358],[112.95598,28.18353],[112.95606,28.18362]]]}},{"type":"Feature","properties":{},"geometry":{"type":"Polygon","coordinates":[[[112.93845,28.1521],[112.93838,28.15213],[112.93832,28.15217],[112.93825,28.15228],[112.93818,28.15243],[112.93811,28.15253],[112.93804,28.15256],[112.93798,28.15255],[112.93797,28.15249],[112.93797,28.15246],[112.93797,28.15241],[112.93797,28.15235],[112.93794,28.1523],[112.93799,28.15222],[112.93801,28.15219],[112.93805,28.15215],[112.93809,28.15208],[112.93816,28.15202],[112.93822,28.15198],[112.93826,28.15194],[112.93827,28.15189],[112.93845,28.1521]]]}},{"type":"Feature","properties":{},"geometry":{"type":"Polygon","coordinates":[[[112.92955,28.16023],[112.92943,28.16022],[112.92931,28.16021],[112.92921,28.16023],[112.92897,28.16014],[112.92892,28.16008],[112.92888,28.16001],[112.92887,28.15994],[112.92891,28.15988],[112.92898,28.15983],[112.92915,28.15979],[112.92929,28.15976],[112.92944,28.15974],[112.92958,28.15966],[112.92973,28.15953],[112.92977,28.15952],[112.92986,28.1595],[112.92995,28.15944],[112.92996,28.15939],[112.92991,28.15932],[112.92995,28.1592],[112.92998,28.15901],[112.93,28.15896],[112.93009,28.15892],[112.93022,28.15896],[112.93033,28.15896],[112.93043,28.15895],[112.93056,28.15896],[112.93067,28.15899],[112.93076,28.15903],[112.93089,28.15906],[112.93101,28.15904],[112.93115,28.15894],[112.93127,28.15883],[112.93149,28.15866],[112.93166,28.15851],[112.93173,28.15839],[112.93179,28.15825],[112.9318,28.15812],[112.93179,28.15802],[112.93172,28.15786],[112.9317,28.15772],[112.93169,28.15761],[112.93166,28.1573],[112.93186,28.1573],[112.93185,28.15749],[112.93185,28.15759],[112.93189,28.15773],[112.93194,28.1579],[112.93199,28.15811],[112.93201,28.15822],[112.93199,28.15832],[112.93194,28.15843],[112.93186,28.15852],[112.93178,28.15858],[112.93167,28.15866],[112.93156,28.15875],[112.93137,28.15888],[112.93114,28.15909],[112.93102,28.15918],[112.93089,28.15924],[112.93075,28.15927],[112.93061,28.15932],[112.93048,28.15939],[112.93041,28.15948],[112.93034,28.15954],[112.93026,28.15966],[112.93015,28.15976],[112.93006,28.15982],[112.92996,28.15991],[112.92987,28.15998],[112.92982,28.16005],[112.92975,28.16013],[112.92965,28.16021],[112.92955,28.16023]]]}},{"type":"Feature","properties":{},"geometry":{"type":"Polygon","coordinates":[[[112.93156,28.1551],[112.93164,28.15516],[112.93166,28.15523],[112.93168,28.15542],[112.93169,28.15575],[112.93175,28.15613],[112.93183,28.15658],[112.9319,28.15708],[112.93168,28.15709],[112.93166,28.15694],[112.93171,28.15686],[112.93162,28.15653],[112.93153,28.15616],[112.93152,28.15584],[112.93148,28.15574],[112.93145,28.15541],[112.93145,28.15526],[112.93141,28.15509],[112.93148,28.15507],[112.93156,28.1551]]]}},{"type":"Feature","properties":{},"geometry":{"type":"Polygon","coordinates":[[[112.93827,28.15189],[112.93824,28.1518],[112.93818,28.15175],[112.93802,28.15156],[112.9379,28.15147],[112.93781,28.15142],[112.93759,28.15128],[112.93748,28.15116],[112.93735,28.15107],[112.93725,28.15101],[112.93713,28.15101],[112.93694,28.15102],[112.9368,28.15106],[112.93663,28.15109],[112.93648,28.15109],[112.93636,28.15113],[112.93625,28.15117],[112.93608,28.15123],[112.93601,28.1513],[112.93586,28.15133],[112.93566,28.15132],[112.93543,28.15135],[112.93528,28.15141],[112.93515,28.1515],[112.93508,28.15156],[112.93502,28.15163],[112.93497,28.15171],[112.93489,28.15175],[112.9348,28.15181],[112.93473,28.1518],[112.93463,28.15185],[112.93452,28.15186],[112.93442,28.15183],[112.93429,28.15183],[112.93409,28.15186],[112.93392,28.15189],[112.93362,28.15189],[112.93352,28.1519],[112.93335,28.15189],[112.93328,28.15185],[112.93305,28.15181],[112.93287,28.1518],[112.93276,28.1518],[112.93268,28.15186],[112.9326,28.15194],[112.93255,28.15199],[112.93256,28.15203],[112.9326,28.15209],[112.93261,28.15216],[112.93261,28.15223],[112.93261,28.15229],[112.93264,28.15235],[112.93265,28.15242],[112.93267,28.15249],[112.93268,28.1526],[112.93264,28.15266],[112.93256,28.15278],[112.93251,28.15291],[112.9325,28.153],[112.93251,28.15312],[112.93253,28.15319],[112.93256,28.1532],[112.93255,28.15411],[112.93264,28.15418],[112.93267,28.15428],[112.93267,28.15434],[112.93264,28.15439],[112.93258,28.15441],[112.93247,28.15446],[112.9324,28.15447],[112.93231,28.15444],[112.93229,28.15439],[112.93225,28.15431],[112.93224,28.15422],[112.93225,28.15411],[112.93228,28.15399],[112.9323,28.15387],[112.93233,28.15376],[112.93234,28.15369],[112.93238,28.15363],[112.93242,28.15356],[112.93243,28.15348],[112.9324,28.15338],[112.9323,28.15331],[112.93223,28.15326],[112.93222,28.15311],[112.93225,28.15306],[112.93226,28.15295],[112.93226,28.15286],[112.93229,28.15275],[112.93224,28.15263],[112.93225,28.15232],[112.93227,28.15224],[112.93226,28.15218],[112.93222,28.152],[112.93218,28.15191],[112.93218,28.15151],[112.93221,28.15146],[112.93232,28.15145],[112.93247,28.15148],[112.93258,28.15149],[112.93278,28.15153],[112.9329,28.15156],[112.93298,28.15155],[112.93309,28.15161],[112.9332,28.15162],[112.93333,28.15165],[112.93339,28.1517],[112.93347,28.15173],[112.93364,28.15174],[112.93391,28.15177],[112.93408,28.15176],[112.93416,28.15173],[112.93421,28.15167],[112.93429,28.15166],[112.93441,28.15163],[112.93455,28.15161],[112.93471,28.15158],[112.93479,28.15151],[112.9348,28.15144],[112.93501,28.15134],[112.93523,28.15126],[112.93542,28.15123],[112.93556,28.15124],[112.93568,28.15115],[112.93588,28.15114],[112.93608,28.15108],[112.93624,28.15104],[112.93635,28.151],[112.93644,28.15095],[112.93662,28.15089],[112.93675,28.15082],[112.93696,28.15076],[112.9373,28.15072],[112.93753,28.1507],[112.93777,28.15073],[112.9379,28.15077],[112.93805,28.15082],[112.93828,28.15086],[112.9385,28.15091],[112.93876,28.15103],[112.93897,28.15123],[112.9391,28.15139],[112.93922,28.15151],[112.93936,28.15158],[112.93935,28.15165],[112.93946,28.15185],[112.93964,28.15203],[112.93985,28.15228],[112.93997,28.15242],[112.94006,28.15253],[112.94016,28.15262],[112.9403,28.15274],[112.94058,28.15288],[112.94071,28.15297],[112.94089,28.15306],[112.94106,28.15311],[112.94114,28.15313],[112.94123,28.15312],[112.94126,28.15308],[112.94134,28.15288],[112.94144,28.15273],[112.94141,28.15202],[112.94144,28.15195],[112.94156,28.15183],[112.94168,28.15195],[112.94155,28.15204],[112.94152,28.1521],[112.94154,28.15217],[112.94155,28.15224],[112.94157,28.15234],[112.94157,28.15245],[112.94161,28.15254],[112.94168,28.15263],[112.94174,28.15272],[112.94177,28.15291],[112.94171,28.15296],[112.94165,28.15317],[112.94171,28.15323],[112.94174,28.1533],[112.94175,28.15335],[112.94177,28.15344],[112.94178,28.15363],[112.94173,28.15364],[112.94165,28.15369],[112.94161,28.15377],[112.94154,28.15383],[112.94148,28.1539],[112.94141,28.15394],[112.9413,28.15396],[112.94117,28.15398],[112.9411,28.15397],[112.941,28.15396],[112.94095,28.15397],[112.9409,28.15402],[112.94085,28.15407],[112.94077,28.1541],[112.94066,28.15413],[112.94055,28.15412],[112.94002,28.15401],[112.93992,28.154],[112.93988,28.15407],[112.93975,28.15404],[112.93975,28.15397],[112.9397,28.15393],[112.93967,28.15388],[112.93966,28.15378],[112.93969,28.15365],[112.93973,28.15357],[112.9398,28.15351],[112.93993,28.15342],[112.94002,28.15336],[112.94008,28.15334],[112.94011,28.15314],[112.94007,28.15311],[112.94001,28.15305],[112.93993,28.15293],[112.93968,28.15259],[112.93956,28.15248],[112.93947,28.15239],[112.93945,28.1523],[112.93942,28.15228],[112.93889,28.15228],[112.93885,28.15219],[112.93873,28.15209],[112.93862,28.15208],[112.93854,28.15207],[112.93845,28.1521],[112.93827,28.15189]]]}},{"type":"Feature","properties":{},"geometry":{"type":"Polygon","coordinates":[[[112.94221,28.14963],[112.94218,28.14991],[112.94195,28.15083],[112.94197,28.15119],[112.94196,28.15142],[112.94189,28.1517],[112.94178,28.15181],[112.94173,28.15174],[112.94181,28.15154],[112.94179,28.15139],[112.9419,28.15122],[112.94185,28.1509],[112.94193,28.15048],[112.94205,28.15019],[112.94207,28.14963],[112.94221,28.14963]]]}},{"type":"Feature","properties":{},"geometry":{"type":"Polygon","coordinates":[[[112.93971,28.19228],[112.93978,28.19237],[112.9397,28.19269],[112.93963,28.1927],[112.93954,28.19266],[112.93942,28.19266],[112.93933,28.19262],[112.93936,28.1926],[112.93933,28.19255],[112.93935,28.19246],[112.93934,28.19244],[112.9393,28.19234],[112.93937,28.19224],[112.93971,28.19228]]]}},{"type":"Feature","properties":{},"geometry":{"type":"Polygon","coordinates":[[[112.94764,28.18375],[112.94791,28.1854],[112.94802,28.18602],[112.94784,28.18607],[112.94791,28.18643],[112.94689,28.18671],[112.94634,28.18677],[112.94582,28.18621],[112.94586,28.18574],[112.94631,28.18526],[112.94622,28.1848],[112.94613,28.18437],[112.94603,28.18383],[112.94567,28.18375],[112.9455,28.18343],[112.94559,28.18306],[112.94615,28.18297],[112.94747,28.18292],[112.94764,28.18375]]]}},{"type":"Feature","properties":{},"geometry":{"type":"Polygon","coordinates":[[[112.95634,28.15585],[112.94958,28.15656],[112.94934,28.15518],[112.94926,28.15361],[112.94906,28.15004],[112.94881,28.14745],[112.94756,28.14504],[112.94709,28.13955],[112.9472,28.13778],[112.95398,28.13767],[112.95397,28.13771],[112.95423,28.13894],[112.95421,28.13959],[112.95428,28.13988],[112.95401,28.14078],[112.95378,28.14092],[112.95366,28.14185],[112.95356,28.14329],[112.9541,28.14452],[112.95493,28.14746],[112.95545,28.15006],[112.95543,28.1525],[112.95567,28.15421],[112.95598,28.15504],[112.95634,28.15585]]]}},{"type":"Feature","properties":{},"geometry":{"type":"Polygon","coordinates":[[[112.93067,28.17959],[112.93059,28.17953],[112.93074,28.17887],[112.93114,28.17862],[112.93182,28.17849],[112.93192,28.1786],[112.9316,28.17894],[112.93137,28.17943],[112.931,28.17956],[112.93082,28.17946],[112.93067,28.17959]]]}},{"type":"Feature","properties":{},"geometry":{"type":"Polygon","coordinates":[[[112.91814,28.19765],[112.91821,28.1977],[112.91828,28.19781],[112.91833,28.19799],[112.91835,28.19807],[112.9183,28.1981],[112.91818,28.19811],[112.9179,28.19803],[112.91777,28.19796],[112.91778,28.19792],[112.91782,28.19787],[112.91788,28.19773],[112.918,28.19764],[112.91814,28.19765]]]}},{"type":"Feature","properties":{},"geometry":{"type":"Polygon","coordinates":[[[112.94245,28.21313],[112.94242,28.21321],[112.94245,28.21338],[112.94249,28.21359],[112.94249,28.21371],[112.94247,28.21384],[112.94239,28.21394],[112.94227,28.21401],[112.94204,28.21407],[112.94184,28.21411],[112.94174,28.21415],[112.94165,28.21419],[112.94152,28.2142],[112.94142,28.21418],[112.9413,28.21412],[112.94119,28.21401],[112.94105,28.2139],[112.94092,28.21386],[112.9407,28.2138],[112.9406,28.21371],[112.94046,28.21353],[112.94038,28.2133],[112.9403,28.21313],[112.94008,28.21292],[112.94006,28.21283],[112.94009,28.21276],[112.94018,28.21269],[112.94028,28.21258],[112.94027,28.21248],[112.94023,28.21242],[112.94012,28.21237],[112.93995,28.2124],[112.93964,28.21236],[112.93954,28.21233],[112.9394,28.21234],[112.93932,28.21239],[112.9392,28.2124],[112.93913,28.21244],[112.93906,28.21252],[112.93889,28.21254],[112.93874,28.21256],[112.93839,28.2125],[112.93819,28.21246],[112.93804,28.21251],[112.93795,28.2126],[112.93781,28.21271],[112.93761,28.2128],[112.93736,28.21287],[112.93711,28.21286],[112.93685,28.21279],[112.93666,28.2127],[112.9366,28.21263],[112.93649,28.2126],[112.93634,28.21261],[112.93626,28.21263],[112.93615,28.21272],[112.93602,28.21283],[112.93591,28.2129],[112.93575,28.21293],[112.9356,28.21294],[112.93553,28.21289],[112.93548,28.21293],[112.93551,28.21296],[112.93541,28.21304],[112.93525,28.21315],[112.9351,28.21322],[112.93493,28.21326],[112.93478,28.21328],[112.93458,28.21326],[112.93442,28.21322],[112.93427,28.21317],[112.93415,28.2131],[112.934,28.21297],[112.93402,28.21296],[112.93403,28.21289],[112.93405,28.21285],[112.93402,28.21282],[112.93411,28.21267],[112.93422,28.21252],[112.93427,28.21247],[112.93429,28.2124],[112.93434,28.21238],[112.93436,28.21233],[112.93436,28.21227],[112.93434,28.21219],[112.93428,28.21213],[112.93404,28.21199],[112.93393,28.21193],[112.93381,28.21187],[112.93372,28.21185],[112.93366,28.21189],[112.9336,28.21193],[112.93353,28.21196],[112.93343,28.21195],[112.93333,28.21187],[112.93326,28.21178],[112.93326,28.21173],[112.9333,28.21169],[112.93342,28.21164],[112.93349,28.21161],[112.93355,28.21156],[112.93357,28.21152],[112.93352,28.21145],[112.93336,28.21136],[112.93325,28.21132],[112.93319,28.21131],[112.93313,28.21133],[112.93308,28.21137],[112.93301,28.2114],[112.93295,28.21139],[112.93289,28.21136],[112.93284,28.21128],[112.93271,28.21114],[112.93261,28.21113],[112.93255,28.21118],[112.93248,28.21122],[112.93238,28.21123],[112.93205,28.21111],[112.93187,28.21108],[112.93175,28.21103],[112.93164,28.21097],[112.9316,28.21091],[112.93161,28.21084],[112.93164,28.21079],[112.93168,28.21081],[112.93173,28.21073],[112.93174,28.21066],[112.93174,28.21059],[112.9317,28.21059],[112.93167,28.21052],[112.9316,28.21039],[112.9316,28.21033],[112.93164,28.21028],[112.93163,28.21021],[112.93161,28.21011],[112.93153,28.21004],[112.93143,28.21003],[112.93134,28.21005],[112.93118,28.2101],[112.93104,28.21014],[112.93092,28.21013],[112.93083,28.21011],[112.9307,28.21005],[112.9306,28.21005],[112.93052,28.2101],[112.93048,28.21019],[112.93035,28.21027],[112.93024,28.21035],[112.93011,28.21043],[112.92999,28.21049],[112.92985,28.21045],[112.92956,28.21037],[112.92936,28.21016],[112.92912,28.20988],[112.92903,28.20977],[112.92896,28.2097],[112.92892,28.20965],[112.92891,28.20959],[112.92893,28.20953],[112.92896,28.20952],[112.92903,28.20953],[112.92915,28.2096],[112.92918,28.2096],[112.92923,28.20956],[112.92935,28.20945],[112.92935,28.2094],[112.9293,28.20936],[112.92916,28.20929],[112.92907,28.20922],[112.92909,28.20913],[112.92904,28.20902],[112.92902,28.20891],[112.92904,28.20884],[112.92908,28.2088],[112.92909,28.20876],[112.92904,28.20868],[112.92895,28.20857],[112.92888,28.2085],[112.9288,28.20851],[112.92874,28.20862],[112.92863,28.20882],[112.92854,28.20889],[112.92846,28.2089],[112.92826,28.20882],[112.92796,28.20863],[112.92793,28.20853],[112.92785,28.20838],[112.92785,28.20825],[112.9278,28.20816],[112.92776,28.2081],[112.92778,28.20796],[112.92784,28.20784],[112.92789,28.20781],[112.92809,28.20781],[112.92829,28.20779],[112.92849,28.20778],[112.92867,28.20773],[112.92884,28.20763],[112.92899,28.20754],[112.92914,28.20749],[112.92923,28.20749],[112.92929,28.20752],[112.92939,28.20757],[112.92957,28.20771],[112.92965,28.20775],[112.92982,28.20771],[112.92993,28.20771],[112.93003,28.20773],[112.93009,28.20774],[112.93013,28.20772],[112.93014,28.20767],[112.93013,28.20761],[112.93004,28.20757],[112.92994,28.20751],[112.9298,28.20745],[112.9297,28.20737],[112.92967,28.20728],[112.9297,28.20721],[112.92976,28.20716],[112.92984,28.20713],[112.92996,28.20713],[112.93007,28.20716],[112.93029,28.20723],[112.93045,28.20721],[112.93063,28.20718],[112.93076,28.20718],[112.93085,28.20723],[112.93093,28.20731],[112.93102,28.20743],[112.93119,28.20767],[112.93134,28.20789],[112.93149,28.20804],[112.93166,28.20812],[112.93185,28.20816],[112.93196,28.20818],[112.93209,28.20816],[112.93219,28.20814],[112.93232,28.20808],[112.93247,28.20799],[112.93261,28.20793],[112.93269,28.20793],[112.93286,28.20795],[112.93303,28.20794],[112.93313,28.20791],[112.93322,28.20783],[112.93332,28.20774],[112.93341,28.20769],[112.93362,28.2077],[112.93365,28.20766],[112.93365,28.20753],[112.93371,28.20742],[112.93381,28.20736],[112.93411,28.20735],[112.93426,28.20731],[112.93446,28.20727],[112.93447,28.20727],[112.93469,28.20739],[112.93484,28.20744],[112.93503,28.20741],[112.93525,28.20739],[112.93551,28.20743],[112.93587,28.20743],[112.93614,28.2074],[112.93642,28.2073],[112.93655,28.20732],[112.93668,28.20733],[112.93677,28.20729],[112.93684,28.20723],[112.93697,28.2072],[112.93711,28.20723],[112.93716,28.20731],[112.93721,28.20738],[112.93735,28.20739],[112.93748,28.20745],[112.93752,28.20752],[112.93758,28.20758],[112.9377,28.20756],[112.93776,28.20748],[112.9377,28.20732],[112.93763,28.20719],[112.93761,28.20712],[112.93766,28.20699],[112.93779,28.20686],[112.93793,28.20668],[112.93806,28.20656],[112.93819,28.20652],[112.93836,28.20651],[112.93843,28.20646],[112.93851,28.20635],[112.93851,28.20618],[112.93857,28.20606],[112.93868,28.20602],[112.93892,28.20608],[112.93927,28.2062],[112.93928,28.20642],[112.93935,28.20659],[112.93944,28.20681],[112.93938,28.20695],[112.93928,28.20714],[112.93916,28.20728],[112.9391,28.20738],[112.93914,28.20751],[112.93932,28.20782],[112.93959,28.20799],[112.93973,28.20811],[112.9398,28.20827],[112.93978,28.2084],[112.93971,28.20849],[112.93962,28.20864],[112.93966,28.20873],[112.93981,28.20881],[112.93986,28.20886],[112.93991,28.20903],[112.93992,28.20926],[112.93986,28.20938],[112.93976,28.20953],[112.93973,28.20963],[112.93963,28.20974],[112.93944,28.20978],[112.93924,28.20978],[112.93913,28.20979],[112.93903,28.20983],[112.93896,28.2099],[112.93892,28.20997],[112.93897,28.21003],[112.9392,28.2101],[112.93943,28.21012],[112.93955,28.21012],[112.93969,28.21014],[112.93975,28.21014],[112.93986,28.21009],[112.94002,28.21001],[112.94011,28.20996],[112.94021,28.20992],[112.94036,28.20997],[112.94052,28.21002],[112.9406,28.21],[112.94063,28.20989],[112.94065,28.20978],[112.94075,28.20971],[112.94098,28.20967],[112.9411,28.20966],[112.94128,28.20968],[112.94138,28.20974],[112.94158,28.20986],[112.94175,28.21005],[112.94187,28.21027],[112.94193,28.21046],[112.94202,28.2107],[112.94211,28.21086],[112.94224,28.21094],[112.94243,28.21102],[112.9427,28.21107],[112.94293,28.21111],[112.94312,28.21114],[112.94322,28.21121],[112.94333,28.2113],[112.9434,28.21147],[112.94348,28.21163],[112.94357,28.21178],[112.94357,28.21194],[112.94353,28.21206],[112.94349,28.21217],[112.94358,28.21232],[112.94369,28.21244],[112.94366,28.21253],[112.94368,28.21262],[112.94361,28.2127],[112.94347,28.21297],[112.94334,28.21311],[112.94315,28.21319],[112.94288,28.21323],[112.94276,28.21319],[112.94263,28.21313],[112.94252,28.2131],[112.94245,28.21313]],[[112.93681,28.21009],[112.93681,28.21012],[112.93683,28.21015],[112.93687,28.21016],[112.93692,28.21014],[112.93697,28.21011],[112.93701,28.2101],[112.93705,28.21007],[112.93705,28.21004],[112.93702,28.21002],[112.93696,28.21003],[112.9369,28.21006],[112.93685,28.21006],[112.93683,28.21007],[112.93681,28.21009]],[[112.93257,28.21004],[112.93268,28.20999],[112.93272,28.21],[112.93281,28.21],[112.93294,28.20994],[112.93298,28.20982],[112.93298,28.20971],[112.93297,28.20961],[112.93293,28.20955],[112.93282,28.20947],[112.93267,28.20945],[112.93259,28.20947],[112.9325,28.20954],[112.93246,28.20959],[112.93242,28.20963],[112.93235,28.20965],[112.93221,28.20967],[112.93211,28.20971],[112.93205,28.20979],[112.93204,28.20986],[112.93206,28.20992],[112.93217,28.20993],[112.93217,28.20996],[112.93218,28.20999],[112.93224,28.20997],[112.93224,28.21001],[112.93228,28.21004],[112.93234,28.21002],[112.93237,28.21008],[112.93246,28.21008],[112.93257,28.21004]],[[112.9314,28.20987],[112.93149,28.20983],[112.93152,28.20976],[112.93152,28.20962],[112.93155,28.20943],[112.93157,28.20933],[112.9316,28.2093],[112.93161,28.20929],[112.93166,28.20925],[112.93168,28.20924],[112.93173,28.20913],[112.93171,28.20905],[112.9316,28.20891],[112.93145,28.2088],[112.93137,28.20879],[112.93127,28.2088],[112.93112,28.20883],[112.93107,28.20885],[112.931,28.20892],[112.93099,28.209],[112.93096,28.20911],[112.93093,28.20921],[112.93088,28.20931],[112.93087,28.20934],[112.93086,28.20943],[112.93089,28.2095],[112.93097,28.20958],[112.93103,28.20964],[112.93106,28.20974],[112.93111,28.20984],[112.9312,28.20987],[112.93132,28.20988],[112.9314,28.20987]],[[112.93731,28.20881],[112.93737,28.20892],[112.93735,28.209],[112.93738,28.20913],[112.93749,28.20929],[112.93758,28.20928],[112.93771,28.20919],[112.93782,28.20911],[112.938,28.2089],[112.93805,28.20877],[112.93802,28.20871],[112.93796,28.20863],[112.9378,28.20855],[112.93767,28.20849],[112.93762,28.20846],[112.93751,28.20831],[112.93743,28.20828],[112.93735,28.20827],[112.9373,28.20831],[112.93727,28.20845],[112.93727,28.20863],[112.93731,28.20881]]]}},{"type":"Feature","properties":{},"geometry":{"type":"Polygon","coordinates":[[[112.9559,28.19474],[112.95596,28.19489],[112.95592,28.19505],[112.95589,28.19515],[112.95596,28.19523],[112.95608,28.1953],[112.9561,28.19541],[112.95605,28.19549],[112.9559,28.19555],[112.95582,28.19552],[112.95572,28.19542],[112.95571,28.19533],[112.95576,28.19514],[112.95567,28.19499],[112.95566,28.19478],[112.95578,28.19468],[112.9559,28.19474]]]}},{"type":"Feature","properties":{},"geometry":{"type":"Polygon","coordinates":[[[112.98404,28.20308],[112.98394,28.20318],[112.98384,28.20321],[112.98366,28.20323],[112.98354,28.20318],[112.98342,28.20311],[112.98337,28.20305],[112.98336,28.20295],[112.9834,28.20289],[112.98349,28.20284],[112.98362,28.20283],[112.9837,28.20285],[112.98388,28.2029],[112.98408,28.20293],[112.9842,28.20292],[112.98435,28.20291],[112.98443,28.20291],[112.9845,28.20294],[112.98452,28.20298],[112.98454,28.20306],[112.98451,28.2031],[112.98442,28.20313],[112.98432,28.20311],[112.98425,28.20309],[112.98411,28.20306],[112.98404,28.20308]]]}},{"type":"Feature","properties":{},"geometry":{"type":"Polygon","coordinates":[[[112.94847,28.21534],[112.94832,28.21553],[112.94802,28.21576],[112.94787,28.21562],[112.94794,28.21523],[112.94806,28.21504],[112.94839,28.21515],[112.94853,28.21508],[112.94849,28.21494],[112.94824,28.21492],[112.94827,28.21471],[112.94839,28.21441],[112.94872,28.21444],[112.94873,28.21431],[112.94863,28.21422],[112.94853,28.21422],[112.9485,28.21396],[112.94861,28.21319],[112.94903,28.21301],[112.94949,28.21301],[112.94916,28.21421],[112.94889,28.21436],[112.9488,28.21476],[112.94874,28.21495],[112.94847,28.21534]]]}},{"type":"Feature","properties":{},"geometry":{"type":"Polygon","coordinates":[[[112.94636,28.21478],[112.94647,28.21485],[112.94615,28.21499],[112.94615,28.21486],[112.94629,28.21478],[112.94636,28.21478]]]}},{"type":"Feature","properties":{},"geometry":{"type":"Polygon","coordinates":[[[112.92707,28.20311],[112.92709,28.20341],[112.9268,28.20341],[112.9268,28.20354],[112.92664,28.20406],[112.92633,28.20431],[112.92525,28.20369],[112.92529,28.20343],[112.92557,28.20307],[112.92707,28.20311]]]}},{"type":"Feature","properties":{},"geometry":{"type":"Polygon","coordinates":[[[112.92517,28.20298],[112.92485,28.20342],[112.92453,28.20323],[112.92483,28.20282],[112.92517,28.20298]]]}},{"type":"Feature","properties":{},"geometry":{"type":"Polygon","coordinates":[[[112.94643,28.21054],[112.94641,28.21058],[112.94638,28.21059],[112.94634,28.2106],[112.9463,28.2106],[112.94626,28.21059],[112.94624,28.21058],[112.94622,28.21055],[112.94622,28.21053],[112.94622,28.2105],[112.94623,28.21047],[112.94625,28.21045],[112.94628,28.21044],[112.94633,28.21043],[112.94638,28.21043],[112.94642,28.21043],[112.94646,28.21044],[112.9465,28.21043],[112.94653,28.21042],[112.94657,28.21042],[112.9466,28.21043],[112.94661,28.21045],[112.94661,28.21048],[112.94659,28.21051],[112.94657,28.21053],[112.94654,28.21054],[112.9465,28.21054],[112.94647,28.21054],[112.94643,28.21054]]]}},{"type":"Feature","properties":{},"geometry":{"type":"Polygon","coordinates":[[[112.99525,28.21608],[112.99513,28.21617],[112.99503,28.21617],[112.99494,28.21613],[112.99486,28.21604],[112.99476,28.21605],[112.99448,28.21585],[112.99431,28.21572],[112.99419,28.2156],[112.99422,28.21551],[112.99418,28.21543],[112.99407,28.21538],[112.99397,28.21543],[112.9938,28.21527],[112.9937,28.21514],[112.99337,28.2148],[112.99319,28.21466],[112.99293,28.21454],[112.9929,28.21461],[112.99269,28.21454],[112.99265,28.21449],[112.99265,28.21442],[112.99257,28.2144],[112.99243,28.21432],[112.9924,28.21417],[112.99228,28.214],[112.99221,28.2139],[112.99228,28.21389],[112.99234,28.21378],[112.99225,28.21368],[112.99212,28.2137],[112.99207,28.21377],[112.992,28.21367],[112.99191,28.21355],[112.99181,28.21338],[112.99167,28.2131],[112.99182,28.21309],[112.99179,28.21259],[112.99162,28.21259],[112.99161,28.21243],[112.99156,28.21235],[112.99151,28.21213],[112.99152,28.21193],[112.9915,28.21173],[112.99136,28.21127],[112.99138,28.21112],[112.9914,28.211],[112.99148,28.21094],[112.99178,28.21075],[112.99182,28.21067],[112.99177,28.21059],[112.9919,28.2105],[112.99195,28.21044],[112.99206,28.2104],[112.99218,28.21038],[112.99224,28.21035],[112.99226,28.21023],[112.99226,28.21011],[112.99228,28.21001],[112.99237,28.20988],[112.99262,28.20967],[112.99281,28.20958],[112.99294,28.20954],[112.99303,28.20949],[112.99312,28.20942],[112.99317,28.20935],[112.99332,28.20926],[112.99367,28.20903],[112.99403,28.20888],[112.99432,28.20879],[112.99459,28.20877],[112.99476,28.20872],[112.99482,28.20866],[112.99499,28.20858],[112.99527,28.20851],[112.9955,28.20848],[112.99583,28.20842],[112.99605,28.2084],[112.99616,28.20841],[112.9963,28.20841],[112.99676,28.20832],[112.99687,28.20833],[112.99695,28.20836],[112.99699,28.20839],[112.99702,28.20849],[112.99711,28.2086],[112.99712,28.20869],[112.99716,28.20875],[112.99721,28.20877],[112.9973,28.20877],[112.99736,28.20871],[112.99737,28.20864],[112.99735,28.20857],[112.99734,28.20852],[112.99734,28.20851],[112.99744,28.20851],[112.99749,28.20847],[112.99752,28.20844],[112.99758,28.20843],[112.9982,28.20856],[112.99987,28.20892],[112.99993,28.20895],[112.99994,28.20901],[112.99996,28.20905],[112.99999,28.20922],[113.00003,28.20929],[113.00012,28.20935],[113.00023,28.20939],[113.00047,28.20946],[113.00072,28.20952],[113.00076,28.20955],[113.0008,28.2096],[113.00087,28.20985],[113.00086,28.21007],[113.00082,28.21036],[113.00079,28.21054],[113.00057,28.21071],[113.00029,28.21086],[113.00003,28.21092],[112.99995,28.21094],[112.99979,28.21093],[112.99972,28.21097],[112.99966,28.21096],[112.99956,28.21094],[112.99948,28.2109],[112.9994,28.2109],[112.99933,28.21093],[112.99924,28.21099],[112.99918,28.2111],[112.99902,28.21138],[112.99874,28.21189],[112.9986,28.21241],[112.9985,28.21267],[112.99841,28.21332],[112.99827,28.21381],[112.9982,28.21393],[112.99814,28.21401],[112.99805,28.21406],[112.99787,28.21411],[112.99742,28.21424],[112.99706,28.21437],[112.99692,28.21445],[112.99683,28.21446],[112.99676,28.21443],[112.99669,28.21438],[112.99656,28.21427],[112.99647,28.21427],[112.99634,28.21434],[112.99604,28.21463],[112.99584,28.21478],[112.99579,28.21492],[112.99577,28.21506],[112.99574,28.21525],[112.99574,28.2155],[112.99565,28.21565],[112.99548,28.21578],[112.99535,28.21597],[112.99525,28.21608]],[[112.99617,28.2128],[112.99614,28.21284],[112.99608,28.21287],[112.99603,28.21291],[112.99598,28.21296],[112.99594,28.21303],[112.99591,28.21308],[112.99594,28.2131],[112.99597,28.21315],[112.99596,28.21318],[112.99598,28.21323],[112.99599,28.21327],[112.99603,28.2133],[112.99604,28.21338],[112.99604,28.21342],[112.99602,28.21345],[112.99602,28.21348],[112.99604,28.21352],[112.9961,28.21354],[112.99618,28.21351],[112.99623,28.21349],[112.99626,28.21345],[112.99627,28.21339],[112.99631,28.21336],[112.99636,28.21334],[112.99638,28.2133],[112.99636,28.21328],[112.99636,28.21325],[112.99638,28.21322],[112.99642,28.21317],[112.99645,28.21309],[112.99643,28.21302],[112.9964,28.21293],[112.99636,28.21287],[112.99632,28.21283],[112.99626,28.2128],[112.99622,28.21278],[112.99617,28.2128]],[[112.99409,28.21194],[112.99404,28.21199],[112.994,28.21203],[112.99399,28.21208],[112.994,28.21214],[112.99404,28.21223],[112.99402,28.21228],[112.99398,28.21235],[112.99396,28.21241],[112.99394,28.21245],[112.99388,28.21252],[112.99381,28.21263],[112.99381,28.2127],[112.99384,28.21274],[112.99397,28.21275],[112.99406,28.21275],[112.99413,28.21271],[112.99422,28.21269],[112.99433,28.21266],[112.99438,28.21262],[112.99439,28.21257],[112.99437,28.21254],[112.99436,28.21249],[112.99435,28.21244],[112.99435,28.21242],[112.99437,28.21237],[112.99439,28.21229],[112.99437,28.21222],[112.99434,28.21218],[112.99428,28.21211],[112.99425,28.21204],[112.99423,28.21198],[112.99421,28.21194],[112.99413,28.21192],[112.99409,28.21194]],[[112.996,28.212],[112.99608,28.21202],[112.99601,28.21232],[112.99604,28.21246],[112.99609,28.21264],[112.99616,28.21272],[112.99627,28.21275],[112.99635,28.21274],[112.99644,28.21272],[112.99649,28.21268],[112.99653,28.21259],[112.99656,28.21245],[112.99657,28.21235],[112.9966,28.21228],[112.99659,28.21222],[112.9966,28.21206],[112.99667,28.21202],[112.99671,28.21196],[112.99674,28.2119],[112.99674,28.21184],[112.99681,28.21182],[112.99686,28.21185],[112.9969,28.21186],[112.99695,28.21185],[112.99698,28.21182],[112.99708,28.21182],[112.99718,28.21181],[112.99723,28.21177],[112.99725,28.21173],[112.99725,28.21168],[112.99724,28.21164],[112.9972,28.21159],[112.99719,28.21156],[112.99719,28.21153],[112.99719,28.2115],[112.99723,28.21145],[112.99732,28.2113],[112.99742,28.21126],[112.99751,28.21124],[112.99759,28.21122],[112.99768,28.21119],[112.99775,28.21111],[112.99781,28.21104],[112.99782,28.21094],[112.99783,28.21084],[112.99782,28.21072],[112.99781,28.2106],[112.99778,28.21048],[112.99772,28.21026],[112.99768,28.21013],[112.99762,28.20999],[112.99756,28.20987],[112.99752,28.2098],[112.99751,28.20977],[112.99751,28.20974],[112.99752,28.20971],[112.99754,28.20966],[112.99755,28.20961],[112.99754,28.20952],[112.99751,28.20934],[112.99745,28.20905],[112.99741,28.20896],[112.99738,28.20892],[112.99734,28.2089],[112.99728,28.20891],[112.99722,28.20891],[112.99717,28.20895],[112.99716,28.209],[112.99719,28.20913],[112.99725,28.2093],[112.99729,28.20947],[112.99728,28.20957],[112.99723,28.20968],[112.99717,28.20974],[112.99712,28.2098],[112.99711,28.20983],[112.99708,28.20985],[112.99698,28.20987],[112.99501,28.21039],[112.99498,28.21037],[112.99493,28.21037],[112.99489,28.21039],[112.99484,28.21039],[112.99478,28.21042],[112.99473,28.21042],[112.99462,28.21043],[112.99453,28.21045],[112.99449,28.21047],[112.99446,28.21048],[112.99436,28.21053],[112.99432,28.21051],[112.99425,28.21053],[112.99421,28.2106],[112.99412,28.21064],[112.99408,28.21069],[112.99407,28.21076],[112.99405,28.21083],[112.99403,28.21086],[112.99402,28.2109],[112.99402,28.21094],[112.99401,28.211],[112.994,28.21108],[112.99398,28.21114],[112.99399,28.21119],[112.994,28.21124],[112.99404,28.21131],[112.99404,28.21137],[112.99403,28.21146],[112.99403,28.21151],[112.99407,28.21155],[112.99409,28.2116],[112.99413,28.21161],[112.99417,28.21162],[112.99421,28.21161],[112.99425,28.21158],[112.99425,28.21151],[112.99426,28.21141],[112.99429,28.21132],[112.99435,28.21127],[112.99435,28.2112],[112.99437,28.21111],[112.99449,28.21093],[112.99464,28.21075],[112.99474,28.21066],[112.99486,28.21057],[112.99503,28.21052],[112.99509,28.21046],[112.99562,28.21032],[112.99701,28.20998],[112.99715,28.21024],[112.99714,28.21053],[112.99701,28.2108],[112.99678,28.21105],[112.99656,28.21115],[112.99641,28.21122],[112.9963,28.21138],[112.99619,28.21153],[112.99611,28.21171],[112.99604,28.21181],[112.996,28.212]]]}},{"type":"Feature","properties":{},"geometry":{"type":"Polygon","coordinates":[[[112.92645,28.19487],[112.92662,28.19508],[112.92654,28.19522],[112.92631,28.19519],[112.92609,28.19493],[112.92612,28.19472],[112.92645,28.19487]]]}},{"type":"Feature","properties":{},"geometry":{"type":"Polygon","coordinates":[[[113.00383,28.21405],[113.0038,28.21406],[113.00379,28.21408],[113.00378,28.21411],[113.0038,28.21414],[113.00379,28.21417],[113.00373,28.21419],[113.00365,28.21418],[113.00354,28.21417],[113.00346,28.21416],[113.00343,28.21413],[113.00343,28.2141],[113.00344,28.21407],[113.00346,28.21404],[113.00349,28.21404],[113.00352,28.21404],[113.00356,28.21403],[113.00357,28.21401],[113.00359,28.21399],[113.00358,28.21395],[113.0036,28.21393],[113.00363,28.21392],[113.00367,28.21392],[113.0037,28.21392],[113.00372,28.2139],[113.00377,28.21389],[113.00379,28.21391],[113.00381,28.21393],[113.00381,28.21396],[113.00381,28.21398],[113.00382,28.21401],[113.00384,28.21403],[113.00383,28.21405]]]}},{"type":"Feature","properties":{},"geometry":{"type":"Polygon","coordinates":[[[112.99619,28.17014],[112.99618,28.17034],[112.99568,28.17034],[112.99568,28.17013],[112.99619,28.17014]]]}},{"type":"Feature","properties":{},"geometry":{"type":"Polygon","coordinates":[[[112.99205,28.18226],[112.99191,28.18233],[112.99186,28.18238],[112.99186,28.18246],[112.99171,28.18252],[112.99169,28.18246],[112.99171,28.18233],[112.99166,28.18221],[112.99161,28.18228],[112.99159,28.18212],[112.99163,28.18205],[112.99184,28.18205],[112.99186,28.18192],[112.99192,28.18185],[112.99202,28.18183],[112.99217,28.18183],[112.99226,28.18189],[112.99231,28.18204],[112.99235,28.18221],[112.99232,28.18223],[112.9922,28.18225],[112.99214,28.1822],[112.99207,28.1822],[112.99205,28.18226]]]}},{"type":"Feature","properties":{},"geometry":{"type":"Polygon","coordinates":[[[112.96826,28.21263],[112.96824,28.21264],[112.96823,28.21267],[112.9682,28.21267],[112.9682,28.2127],[112.96806,28.2127],[112.96804,28.21245],[112.9681,28.21243],[112.96811,28.21249],[112.96818,28.21249],[112.96819,28.21246],[112.96822,28.21246],[112.96821,28.2125],[112.96824,28.2125],[112.96826,28.21263]]]}},{"type":"Feature","properties":{},"geometry":{"type":"Polygon","coordinates":[[[112.9685,28.21252],[112.9685,28.21256],[112.96852,28.21257],[112.96852,28.21262],[112.96853,28.21264],[112.96851,28.21266],[112.96837,28.21268],[112.96837,28.21266],[112.96834,28.21266],[112.96834,28.21265],[112.9683,28.21263],[112.9683,28.21249],[112.96832,28.21249],[112.96832,28.21246],[112.96837,28.21245],[112.96837,28.21242],[112.96839,28.21242],[112.9684,28.21248],[112.9685,28.21248],[112.9685,28.21252]]]}},{"type":"Feature","properties":{},"geometry":{"type":"Polygon","coordinates":[[[112.96821,28.21244],[112.96816,28.21244],[112.96816,28.21247],[112.96813,28.21247],[112.96813,28.21241],[112.96803,28.21241],[112.96801,28.21222],[112.96807,28.21222],[112.96806,28.21215],[112.96846,28.21217],[112.96849,28.21244],[112.96843,28.21244],[112.96843,28.2124],[112.96834,28.2124],[112.96834,28.21243],[112.96832,28.21243],[112.96831,28.2124],[112.96822,28.21239],[112.96821,28.21244]]]}},{"type":"Feature","properties":{},"geometry":{"type":"Polygon","coordinates":[[[112.91611,28.18171],[112.91623,28.18198],[112.91613,28.18221],[112.91589,28.18219],[112.91579,28.18204],[112.91575,28.18173],[112.91592,28.1817],[112.91611,28.18171]]]}},{"type":"Feature","properties":{},"geometry":{"type":"Polygon","coordinates":[[[112.94323,28.217],[112.94327,28.21719],[112.94323,28.21726],[112.94307,28.21719],[112.94292,28.21719],[112.94287,28.21717],[112.94287,28.21712],[112.94296,28.21709],[112.94307,28.21708],[112.9431,28.21699],[112.94323,28.217]]]}},{"type":"Feature","properties":{},"geometry":{"type":"Polygon","coordinates":[[[112.89926,28.16845],[112.89898,28.16853],[112.89885,28.16858],[112.89847,28.16853],[112.89836,28.16846],[112.89848,28.16843],[112.89859,28.16843],[112.89865,28.16839],[112.8987,28.16834],[112.89885,28.16834],[112.89892,28.16831],[112.89897,28.16832],[112.89901,28.16831],[112.89911,28.16829],[112.89921,28.16827],[112.89929,28.1682],[112.8994,28.16818],[112.89949,28.16812],[112.89954,28.16808],[112.89997,28.16815],[112.89997,28.16822],[112.89996,28.16826],[112.90001,28.16827],[112.89994,28.1684],[112.89984,28.16849],[112.8997,28.16843],[112.89963,28.16846],[112.8996,28.16842],[112.89946,28.16843],[112.89938,28.16842],[112.89926,28.16845]]]}},{"type":"Feature","properties":{},"geometry":{"type":"Polygon","coordinates":[[[112.9004,28.16625],[112.90036,28.16642],[112.90026,28.16658],[112.90023,28.16672],[112.90029,28.16704],[112.90019,28.16733],[112.90013,28.16741],[112.90015,28.1673],[112.90009,28.16723],[112.90004,28.16712],[112.90015,28.16701],[112.90007,28.16689],[112.8999,28.16677],[112.89966,28.16654],[112.8992,28.16643],[112.89917,28.16635],[112.89918,28.16632],[112.89939,28.16628],[112.89953,28.16621],[112.89961,28.1661],[112.8998,28.16601],[112.90014,28.16595],[112.9004,28.16625]]]}},{"type":"Feature","properties":{},"geometry":{"type":"Polygon","coordinates":[[[112.91051,28.19998],[112.91084,28.20002],[112.91111,28.19884],[112.9112,28.19856],[112.91128,28.19833],[112.9116,28.19815],[112.91184,28.19816],[112.91173,28.19882],[112.91174,28.19901],[112.91203,28.19933],[112.9125,28.19952],[112.9131,28.19947],[112.91368,28.19931],[112.91409,28.19909],[112.91449,28.19947],[112.9153,28.19957],[112.91586,28.19982],[112.91608,28.20006],[112.91625,28.20042],[112.91617,28.20051],[112.9158,28.2006],[112.91552,28.20054],[112.91533,28.20047],[112.91519,28.20045],[112.9151,28.20047],[112.91492,28.20047],[112.91478,28.20052],[112.91469,28.20055],[112.91439,28.20066],[112.91418,28.20094],[112.91399,28.20117],[112.91382,28.20135],[112.91361,28.20145],[112.91334,28.2015],[112.91302,28.20147],[112.91266,28.20142],[112.91238,28.20138],[112.91221,28.20129],[112.91212,28.20112],[112.91204,28.20096],[112.91198,28.20089],[112.91206,28.20081],[112.91198,28.20074],[112.91186,28.2007],[112.91165,28.20054],[112.91093,28.20046],[112.91074,28.20042],[112.91066,28.20035],[112.91075,28.20014],[112.91048,28.20007],[112.91051,28.19998]]]}},{"type":"Feature","properties":{},"geometry":{"type":"MultiPolygon","coordinates":[[[[112.89138,28.18271],[112.89132,28.18308],[112.89148,28.18321],[112.89177,28.18384],[112.89196,28.18385],[112.89247,28.18413],[112.89347,28.18556],[112.89374,28.18611],[112.89348,28.18616],[112.8931,28.18569],[112.89293,28.18535],[112.89291,28.18524],[112.89282,28.18516],[112.89267,28.18485],[112.8919,28.18399],[112.89166,28.18384],[112.89141,28.18324],[112.89103,28.18319],[112.89069,28.18293],[112.89065,28.18269],[112.8909,28.18258],[112.89138,28.18271]]],[[[112.91051,28.19998],[112.91048,28.20007],[112.91046,28.20015],[112.90996,28.20011],[112.90903,28.19983],[112.90808,28.2],[112.90775,28.19997],[112.90767,28.19984],[112.90752,28.19987],[112.90756,28.19965],[112.90726,28.19981],[112.90711,28.19977],[112.907,28.19981],[112.90666,28.19982],[112.90636,28.19964],[112.90626,28.19936],[112.90613,28.19929],[112.9062,28.19919],[112.90627,28.19909],[112.90598,28.19896],[112.90522,28.19872],[112.90219,28.19827],[112.90196,28.19822],[112.90172,28.19809],[112.90151,28.198],[112.90116,28.198],[112.90098,28.19813],[112.90071,28.1982],[112.90044,28.19815],[112.90004,28.19803],[112.89966,28.19793],[112.89949,28.19797],[112.89928,28.19807],[112.89887,28.19807],[112.89811,28.19797],[112.89748,28.19799],[112.89699,28.1979],[112.89682,28.19782],[112.89644,28.19778],[112.89603,28.19774],[112.89586,28.19763],[112.89554,28.19765],[112.89535,28.19722],[112.89537,28.19692],[112.89516,28.19679],[112.89411,28.1959],[112.89397,28.19576],[112.89401,28.19559],[112.89399,28.19541],[112.89378,28.19534],[112.89367,28.19511],[112.89338,28.19504],[112.89306,28.19472],[112.89254,28.1941],[112.89255,28.19397],[112.89249,28.19384],[112.8924,28.19378],[112.89225,28.19372],[112.89202,28.19352],[112.89175,28.19339],[112.89174,28.19319],[112.89165,28.19295],[112.89146,28.19281],[112.89144,28.19286],[112.89137,28.19285],[112.89136,28.19276],[112.89123,28.19275],[112.89122,28.19283],[112.89114,28.19283],[112.89112,28.19278],[112.891,28.19282],[112.89105,28.19293],[112.89096,28.19298],[112.89086,28.19281],[112.89077,28.1926],[112.8907,28.19262],[112.89076,28.19277],[112.89065,28.1928],[112.89042,28.19245],[112.89036,28.19248],[112.89047,28.19268],[112.89037,28.19272],[112.88999,28.19227],[112.88993,28.19231],[112.89015,28.19259],[112.88989,28.19261],[112.88964,28.19256],[112.88944,28.19249],[112.88924,28.19242],[112.88885,28.19244],[112.88885,28.1925],[112.88855,28.19244],[112.88819,28.19235],[112.88786,28.19234],[112.88783,28.19229],[112.88772,28.19225],[112.88759,28.19226],[112.88751,28.1923],[112.88716,28.19222],[112.88481,28.19153],[112.8837,28.19071],[112.88361,28.19043],[112.8835,28.19024],[112.88338,28.19005],[112.88342,28.19001],[112.88306,28.18981],[112.88302,28.18986],[112.88281,28.18984],[112.88271,28.18359],[112.88277,28.18357],[112.88294,28.18344],[112.88288,28.18337],[112.88285,28.18328],[112.88287,28.18327],[112.88286,28.18318],[112.8829,28.18306],[112.88295,28.18298],[112.88305,28.18291],[112.88299,28.18266],[112.88323,28.18264],[112.88328,28.18286],[112.88339,28.18288],[112.88349,28.18294],[112.88355,28.18299],[112.88361,28.18307],[112.88362,28.18313],[112.88364,28.18313],[112.88366,28.18321],[112.88366,28.18333],[112.8838,28.18336],[112.88398,28.1833],[112.88413,28.18312],[112.88421,28.1829],[112.88416,28.18264],[112.88404,28.18244],[112.88444,28.18226],[112.88507,28.18206],[112.88571,28.18199],[112.88611,28.18203],[112.88659,28.18212],[112.88712,28.18232],[112.88759,28.18238],[112.88768,28.18248],[112.88782,28.18322],[112.88744,28.18355],[112.88709,28.18478],[112.88716,28.18513],[112.88749,28.18531],[112.88767,28.18553],[112.88776,28.18573],[112.88789,28.18585],[112.88803,28.18588],[112.88806,28.18578],[112.88844,28.18559],[112.88854,28.18549],[112.88874,28.18545],[112.88875,28.18515],[112.88951,28.18535],[112.88955,28.18536],[112.88953,28.18503],[112.88921,28.18496],[112.88868,28.18468],[112.88853,28.18429],[112.88868,28.18397],[112.88895,28.18333],[112.89025,28.18317],[112.89054,28.18324],[112.89069,28.18344],[112.89059,28.18386],[112.89094,28.18454],[112.89181,28.18463],[112.89253,28.18572],[112.89275,28.1863],[112.89264,28.18678],[112.89219,28.18728],[112.89198,28.18774],[112.89168,28.18767],[112.89139,28.18719],[112.89106,28.18718],[112.89127,28.18768],[112.89195,28.18803],[112.8921,28.18844],[112.89205,28.189],[112.8915,28.19119],[112.89148,28.19143],[112.89168,28.19157],[112.89225,28.19156],[112.89335,28.1913],[112.89366,28.19132],[112.89372,28.19138],[112.89379,28.1914],[112.89387,28.19139],[112.89392,28.19134],[112.89433,28.19136],[112.89453,28.19114],[112.89539,28.19152],[112.89547,28.19139],[112.89618,28.19171],[112.89603,28.19192],[112.8966,28.19219],[112.89634,28.1926],[112.89647,28.19267],[112.89625,28.19304],[112.8964,28.19311],[112.89656,28.19285],[112.89725,28.19318],[112.8972,28.19324],[112.89749,28.19327],[112.89765,28.19302],[112.89912,28.19376],[112.89899,28.194],[112.89981,28.19439],[112.89995,28.19415],[112.90029,28.19431],[112.90041,28.19411],[112.90141,28.19442],[112.90128,28.19452],[112.90187,28.19478],[112.90181,28.19488],[112.90228,28.19508],[112.90224,28.19515],[112.90284,28.19541],[112.90295,28.1953],[112.90326,28.19541],[112.90348,28.19551],[112.90439,28.19608],[112.90582,28.1966],[112.90785,28.19723],[112.9089,28.19696],[112.90977,28.19701],[112.91022,28.19703],[112.91072,28.19729],[112.91105,28.19756],[112.91111,28.19783],[112.91051,28.19998]],[[112.90505,28.19797],[112.90517,28.19799],[112.90524,28.19797],[112.90529,28.19789],[112.90547,28.19719],[112.90543,28.19712],[112.90531,28.19708],[112.90358,28.19678],[112.90167,28.19662],[112.89924,28.19641],[112.89804,28.19619],[112.89641,28.19558],[112.8963,28.19563],[112.89604,28.19642],[112.89618,28.19649],[112.89849,28.19724],[112.90143,28.19747],[112.90162,28.19735],[112.90187,28.19728],[112.90215,28.19731],[112.9023,28.19738],[112.90241,28.19746],[112.90246,28.19744],[112.9025,28.19746],[112.90256,28.19742],[112.90267,28.19757],[112.90331,28.19757],[112.90335,28.19764],[112.90505,28.19797]],[[112.88961,28.18601],[112.88974,28.18626],[112.89048,28.18663],[112.89092,28.18684],[112.89113,28.18701],[112.89139,28.18696],[112.89146,28.18655],[112.89169,28.18606],[112.89087,28.18548],[112.8899,28.18505],[112.88978,28.18535],[112.88993,28.18544],[112.89009,28.18556],[112.88989,28.18563],[112.8897,28.1858],[112.88961,28.18601]]]]}}]}